# 2019  5 27 15 49 17.58  27.0983  102.2408   19.90 -0.50  0.00  0.00  0.00         46
ZD71        9.750   1.000   P
ZD71       17.330   1.000   S
ZD74        2.920   1.000   P
ZD74        5.310   1.000   S
ZD80        7.850   1.000   P
ZD80       13.850   1.000   S
ZD76        7.800   1.000   P
ZD76       13.740   1.000   S
ZD73        4.580   1.000   P
ZD73        8.060   1.000   S
ZD67        7.510   1.000   P
ZD67       13.110   1.000   S
ZD75        6.820   1.000   P
ZD75       11.910   1.000   S
ZD77        5.980   1.000   P
ZD77       10.370   1.000   S
ZD79        7.450   1.000   P
ZD79       12.920   1.000   S
ZD69        6.380   1.000   P
ZD69       10.870   1.000   S
ZD59       12.820   1.000   P
ZD59       21.980   1.000   S
ZD64       10.030   1.000   P
ZD64       17.130   1.000   S
ZD70        8.380   1.000   P
ZD70       14.010   1.000   S
# 2019  5 27 16  4 45.35  27.0998  102.2445   20.30 -1.10  0.00  0.00  0.00         47
ZD71        9.870   1.000   P
ZD71       17.470   1.000   S
ZD74        2.960   1.000   P
ZD74        5.280   1.000   S
ZD73        4.630   1.000   P
ZD73        8.090   1.000   S
ZD77        6.010   1.000   P
ZD77       10.380   1.000   S
ZD69        6.410   1.000   P
ZD69       10.880   1.000   S
ZD70        8.400   1.000   P
ZD70       14.210   1.000   S
ZD76        7.720   1.000   P
ZD76       11.740   1.000   S
# 2019  5 27  3 15 20.54  27.0673  103.1172   10.30 -0.70  0.00  0.00  0.00         48
ZD81        5.540   1.000   P
ZD81       10.050   1.000   S
ZD71       12.170   1.000   P
ZD71       21.360   1.000   S
ZD78        3.970   1.000   P
ZD78        6.470   1.000   S
ZD64       16.630   1.000   P
ZD64       27.710   1.000   S
# 2019  5 27 19 19 42.96  26.9653  102.6455   10.20 -0.30  0.00  0.00  0.00         49
ZD64       12.390   1.000   P
ZD64       22.140   1.000   S
ZD69        9.800   1.000   P
ZD69       17.070   1.000   S
ZD70        9.540   1.000   P
ZD70       15.690   1.000   S
ZD56       14.070   1.000   P
ZD56       23.430   1.000   S
# 2019  5 28  3 37 18.13  27.0182  102.0667   12.50 -0.60  0.00  0.00  0.00         50
ZD75        8.630   1.000   P
ZD75       16.410   1.000   S
ZD67        7.930   1.000   P
ZD67       14.090   1.000   S
ZD64       12.390   1.000   P
ZD64       21.130   1.000   S
ZD69        8.570   1.000   P
ZD69       14.110   1.000   S
# 2019  5 28  5 31 56.33  27.0660  102.0405   11.10 -0.20  0.00  0.00  0.00         51
ZD64       11.930   1.000   P
ZD64       21.820   1.000   S
ZD67        7.140   1.000   P
ZD67       12.550   1.000   S
ZD74        5.090   1.000   P
ZD74        8.720   1.000   S
ZD56       12.910   1.000   P
ZD56       22.200   1.000   S
# 2019  5 29  4  5 15.43  27.7402  102.1282    6.00 -0.80  0.00  0.00  0.00         52
ZD59        3.490   1.000   P
ZD59        7.070   1.000   S
ZD58        2.180   1.000   P
ZD58        4.680   1.000   S
ZD69        7.450   1.000   P
ZD69       13.750   1.000   S
ZD56        2.340   1.000   P
ZD56        4.750   1.000   S
ZD64        5.900   1.000   P
ZD64        8.960   1.000   S
# 2019  5 30  5  8 37.41  26.9605  102.1967   11.10 -0.80  0.00  0.00  0.00         53
ZD75        7.750   1.000   P
ZD75       13.180   1.000   S
ZD67        8.840   1.000   P
ZD67       14.710   1.000   S
ZD64       13.400   1.000   P
ZD64       21.530   1.000   S
ZD69        9.670   1.000   P
ZD69       14.960   1.000   S
# 2019  5 30 11 11 25.97  27.3543  102.5395   10.40 -1.90  0.00  0.00  0.00         54
ZD70        2.280   1.000   P
ZD70        4.680   1.000   S
ZD75        0.990   1.000   P
ZD75        2.250   1.000   S
ZD77        2.820   1.000   P
ZD77        4.250   1.000   S
ZD73        3.830   1.000   P
ZD73        5.690   1.000   S
# 2019  5 31 20 51 53.52  27.1645  103.2380   30.40 0.10  0.00  0.00  0.00         55
ZD74       14.740   1.000   P
ZD74       27.100   1.000   S
ZD76       10.870   1.000   P
ZD76       18.710   1.000   S
ZD77       11.760   1.000   P
ZD77       20.070   1.000   S
ZD79        9.890   1.000   P
ZD79       16.320   1.000   S
# 2019  5 31  6 55 17.89  27.6435  102.1505   16.60 -0.50  0.00  0.00  0.00         56
ZD64        4.460   1.000   P
ZD64        8.620   1.000   S
ZD62        2.320   1.000   P
ZD62        4.870   1.000   S
ZD56        3.550   1.000   P
ZD56        6.780   1.000   S
ZD59        4.130   1.000   P
ZD59        7.620   1.000   S
ZD69        5.590   1.000   P
ZD69       10.120   1.000   S
ZD63        0.960   1.000   P
ZD63        2.020   1.000   S
ZD70        7.430   1.000   P
ZD70       13.220   1.000   S
ZD67        4.700   1.000   P
ZD67        8.000   1.000   S
# 2019  6  1 22  5  1.22  27.4128  102.7035    5.60 0.20  0.00  0.00  0.00         57
ZD70        3.410   1.000   P
ZD70        6.720   1.000   S
ZD76        2.480   1.000   P
ZD76        4.700   1.000   S
ZD71        2.510   1.000   P
ZD71        4.720   1.000   S
ZD64        7.100   1.000   P
ZD64       12.600   1.000   S
ZD81        4.330   1.000   P
ZD81        7.600   1.000   S
ZD75        3.820   1.000   P
ZD75        6.270   1.000   S
ZD69        6.800   1.000   P
ZD69       11.350   1.000   S
ZD73        7.230   1.000   P
ZD73       12.050   1.000   S
ZD79        4.560   1.000   P
ZD79        7.410   1.000   S
ZD74        8.740   1.000   P
ZD74       14.160   1.000   S
ZD78        7.930   1.000   P
ZD78       12.640   1.000   S
ZD80        7.060   1.000   P
ZD80       10.820   1.000   S
# 2019  6  1  3 58 23.82  27.0398  102.0972    9.90 -0.60  0.00  0.00  0.00         58
ZD74        4.620   1.000   P
ZD74        8.040   1.000   S
ZD69        7.950   1.000   P
ZD69       13.770   1.000   S
ZD64       11.890   1.000   P
ZD64       20.360   1.000   S
ZD70       11.050   1.000   P
ZD70       18.530   1.000   S
# 2019  6  1 20 20 53.23  27.3252  102.7530   29.50 -0.60  0.00  0.00  0.00         59
ZD79        4.600   1.000   P
ZD79        7.150   1.000   S
ZD76        4.990   1.000   P
ZD76        7.660   1.000   S
ZD71        5.400   1.000   P
ZD71        7.930   1.000   S
ZD74        8.140   1.000   P
ZD74       12.190   1.000   S
# 2019  6  2  4 24  2.07  27.0933  102.0577    9.80 -0.50  0.00  0.00  0.00         60
ZD71       12.020   1.000   P
ZD71       21.810   1.000   S
ZD76       10.120   1.000   P
ZD76       17.940   1.000   S
ZD70       10.320   1.000   P
ZD70       17.730   1.000   S
ZD69        7.600   1.000   P
ZD69       12.970   1.000   S
ZD73        5.990   1.000   P
ZD73       10.110   1.000   S
ZD64       11.370   1.000   P
ZD64       19.290   1.000   S
# 2019  6  3 20  2 43.22  27.0908  103.1317   10.40 -1.20  0.00  0.00  0.00         61
ZD76        9.500   1.000   P
ZD76       16.700   1.000   S
ZD70       12.480   1.000   P
ZD70       21.860   1.000   S
ZD75       11.260   1.000   P
ZD75       19.680   1.000   S
ZD71       11.520   1.000   P
ZD71       19.960   1.000   S
# 2019  6  3 10 38 22.60  27.0865  102.7448   18.80 0.00  0.00  0.00  0.00         62
ZD80        1.700   1.000   P
ZD80        3.930   1.000   S
ZD77        4.690   1.000   P
ZD77        8.980   1.000   S
ZD79        3.280   1.000   P
ZD79        6.110   1.000   S
ZD81        4.280   1.000   P
ZD81        6.850   1.000   S
# 2019  6  3  3 27  3.16  27.1413  102.1045    5.90 -0.80  0.00  0.00  0.00         63
ZD64       10.280   1.000   P
ZD64       18.430   1.000   S
ZD69        6.650   1.000   P
ZD69       11.890   1.000   S
ZD74        3.770   1.000   P
ZD74        6.410   1.000   S
ZD75        8.510   1.000   P
ZD75       14.060   1.000   S
# 2019  6  4  4 45  5.26  27.4562  102.6492   25.80 0.50  0.00  0.00  0.00         64
ZD76        4.150   1.000   P
ZD76        7.330   1.000   S
ZD77        5.300   1.000   P
ZD77        9.170   1.000   S
ZD75        5.060   1.000   P
ZD75        8.140   1.000   S
ZD64        5.340   1.000   P
ZD64        8.380   1.000   S
ZD79        4.530   1.000   P
ZD79        6.770   1.000   S
ZD71        3.910   1.000   P
ZD71        5.580   1.000   S
ZD74        7.370   1.000   P
ZD74       11.460   1.000   S
ZD73        6.850   1.000   P
ZD73       10.340   1.000   S
ZD69        6.240   1.000   P
ZD69        8.170   1.000   S
# 2019  6  4 19  8 20.14  27.6790  102.7393   31.00 -0.60  0.00  0.00  0.00         65
ZD76        8.240   1.000   P
ZD76       14.570   1.000   S
ZD64        6.750   1.000   P
ZD64       11.860   1.000   S
ZD71        5.500   1.000   P
ZD71        9.470   1.000   S
ZD79        9.450   1.000   P
ZD79       15.520   1.000   S
ZD80       10.440   1.000   P
ZD80       16.780   1.000   S
ZD74       12.620   1.000   P
ZD74       20.050   1.000   S
# 2019  6  4  4 45 10.43  27.7067  102.1498   13.50 0.30  0.00  0.00  0.00         66
ZD58        2.240   1.000   P
ZD58        4.760   1.000   S
ZD62        3.400   1.000   P
ZD62        6.040   1.000   S
ZD56        2.990   1.000   P
ZD56        5.040   1.000   S
ZD63        2.600   1.000   P
ZD63        3.730   1.000   S
ZD68        2.900   1.000   P
ZD68        4.190   1.000   S
# 2019  6  5  0 50 11.85  27.3170  102.6137    9.60 -0.30  0.00  0.00  0.00         67
ZD71        4.030   1.000   P
ZD71        8.590   1.000   S
ZD76        0.760   1.000   P
ZD76        2.650   1.000   S
ZD70        3.480   1.000   P
ZD70        7.010   1.000   S
ZD75        1.880   1.000   P
ZD75        4.020   1.000   S
ZD77        2.420   1.000   P
ZD77        4.870   1.000   S
ZD69        5.200   1.000   P
ZD69        9.420   1.000   S
# 2019  6  5  8  7 27.36  27.4240  102.6913   12.20 0.40  0.00  0.00  0.00         68
ZD77        4.640   1.000   P
ZD77        7.870   1.000   S
ZD68        8.660   1.000   P
ZD68       14.310   1.000   S
ZD80        5.960   1.000   P
ZD80        9.220   1.000   S
ZD74        8.280   1.000   P
ZD74       13.140   1.000   S
ZD69        5.450   1.000   P
ZD69        7.960   1.000   S
ZD62       10.160   1.000   P
ZD62       14.780   1.000   S
# 2019  6  5  9 52 48.55  27.3125  102.6147    9.80 -0.60  0.00  0.00  0.00         69
ZD71        4.110   1.000   P
ZD71        8.270   1.000   S
ZD76        0.630   1.000   P
ZD76        1.900   1.000   S
ZD77        2.420   1.000   P
ZD77        4.900   1.000   S
ZD70        3.700   1.000   P
ZD70        7.080   1.000   S
ZD75        1.940   1.000   P
ZD75        3.960   1.000   S
ZD69        5.210   1.000   P
ZD69        9.570   1.000   S
# 2019  6  5  7 26 35.98  27.1700  102.5730    7.60 -0.40  0.00  0.00  0.00         70
ZD70        5.950   1.000   P
ZD70       11.070   1.000   S
ZD76        2.790   1.000   P
ZD76        5.500   1.000   S
ZD80        2.730   1.000   P
ZD80        5.300   1.000   S
ZD69        6.440   1.000   P
ZD69       11.650   1.000   S
ZD77        1.310   1.000   P
ZD77        2.590   1.000   S
# 2019  6  5  4  2 14.58  27.0858  102.1072    9.10 -0.70  0.00  0.00  0.00         71
ZD67        7.000   1.000   P
ZD67       12.420   1.000   S
ZD74        4.110   1.000   P
ZD74        7.090   1.000   S
ZD69        7.300   1.000   P
ZD69       12.550   1.000   S
ZD70        9.890   1.000   P
ZD70       16.950   1.000   S
# 2019  6  5 21 23 49.87  27.4008  102.5937    5.20 -2.00  0.00  0.00  0.00         72
ZD70        1.810   1.000   P
ZD70        3.140   1.000   S
ZD76        1.830   1.000   P
ZD76        2.960   1.000   S
ZD69        4.760   1.000   P
ZD69        7.590   1.000   S
ZD74        7.570   1.000   P
ZD74       11.950   1.000   S
# 2019  6  6 19  5 44.82  27.3657  102.5963   13.60 -1.20  0.00  0.00  0.00         74
ZD77        3.050   1.000   P
ZD77        6.510   1.000   S
ZD69        4.710   1.000   P
ZD69        8.560   1.000   S
ZD75        2.220   1.000   P
ZD75        3.600   1.000   S
ZD74        7.030   1.000   P
ZD74       10.480   1.000   S
# 2019  6  7  6 10 18.54  27.2095  102.7807    8.40 -1.00  0.00  0.00  0.00         75
ZD78        3.130   1.000   P
ZD78        5.800   1.000   S
ZD81        1.620   1.000   P
ZD81        3.100   1.000   S
ZD76        3.560   1.000   P
ZD76        6.230   1.000   S
ZD70        7.020   1.000   P
ZD70       11.820   1.000   S
ZD69        8.660   1.000   P
ZD69       14.660   1.000   S
ZD79        3.300   1.000   P
ZD79        4.500   1.000   S
# 2019  6  8 22 19 59.27  27.3247  102.6303   15.40 -1.20  0.00  0.00  0.00         76
ZD71        2.700   1.000   P
ZD71        6.650   1.000   S
ZD77        2.680   1.000   P
ZD77        5.190   1.000   S
ZD76        1.770   1.000   P
ZD76        3.260   1.000   S
ZD81        4.400   1.000   P
ZD81        7.820   1.000   S
ZD70        3.670   1.000   P
ZD70        6.200   1.000   S
# 2019  6  8 22 23 57.05  27.3253  102.6308   16.00 -1.20  0.00  0.00  0.00         77
ZD81        4.490   1.000   P
ZD81        8.450   1.000   S
ZD77        2.780   1.000   P
ZD77        5.230   1.000   S
ZD76        1.890   1.000   P
ZD76        3.410   1.000   S
ZD71        3.830   1.000   P
ZD71        6.770   1.000   S
# 2019  6  9  1 35  2.30  27.3203  102.6025    8.90 -0.20  0.00  0.00  0.00         78
ZD71        3.830   1.000   P
ZD71        8.160   1.000   S
ZD70        3.330   1.000   P
ZD70        7.110   1.000   S
ZD75        1.800   1.000   P
ZD75        4.050   1.000   S
ZD77        2.300   1.000   P
ZD77        4.670   1.000   S
ZD69        5.000   1.000   P
ZD69        9.290   1.000   S
ZD76        0.620   1.000   P
ZD76        1.580   1.000   S
ZD64        7.030   1.000   P
ZD64       12.690   1.000   S
# 2019  6  9 17 33 59.96  27.4555  102.3222   26.10 -1.70  0.00  0.00  0.00         79
ZD74        6.280   1.000   P
ZD74       10.090   1.000   S
ZD75        4.630   1.000   P
ZD75        6.590   1.000   S
ZD69        4.200   1.000   P
ZD69        5.570   1.000   S
ZD67        5.100   1.000   P
ZD67        5.700   1.000   S
# 2019  6 10 23 19 31.63  26.9463  102.9228    9.90 -0.30  0.00  0.00  0.00         80
ZD78        3.000   1.000   P
ZD78        5.470   1.000   S
ZD81        5.850   1.000   P
ZD81       10.360   1.000   S
ZD80        4.980   1.000   P
ZD80        8.610   1.000   S
ZD70       11.890   1.000   P
ZD70       20.470   1.000   S
ZD75       10.550   1.000   P
ZD75       17.930   1.000   S
ZD79        6.840   1.000   P
ZD79       11.260   1.000   S
# 2019  6 10 18 34 19.83  27.2520  102.5595   10.50 -1.40  0.00  0.00  0.00         81
ZD70        4.110   1.000   P
ZD70        7.180   1.000   S
ZD75        2.430   1.000   P
ZD75        4.100   1.000   S
ZD77        1.010   1.000   P
ZD77        1.600   1.000   S
ZD73        4.070   1.000   P
ZD73        6.890   1.000   S
ZD74        4.760   1.000   P
ZD74        8.040   1.000   S
ZD69        5.260   1.000   P
ZD69        8.720   1.000   S
# 2019  6 10  4 11 33.90  27.8423  102.0935   16.40 -0.60  0.00  0.00  0.00         82
ZD69        8.340   1.000   P
ZD69       14.800   1.000   S
ZD70        9.870   1.000   P
ZD70       17.180   1.000   S
ZD56        3.400   1.000   P
ZD56        5.930   1.000   S
ZD58        3.260   1.000   P
ZD58        5.660   1.000   S
ZD67        7.870   1.000   P
ZD67       13.010   1.000   S
# 2019  6 11  8 42 59.75  27.0678  102.8058    9.70 -0.10  0.00  0.00  0.00         83
ZD70        8.170   1.000   P
ZD70       15.940   1.000   S
ZD81        3.550   1.000   P
ZD81        6.630   1.000   S
ZD78        2.040   1.000   P
ZD78        3.940   1.000   S
ZD77        5.510   1.000   P
ZD77        9.900   1.000   S
ZD79        3.820   1.000   P
ZD79        6.680   1.000   S
ZD75        7.460   1.000   P
ZD75       12.910   1.000   S
ZD69       10.440   1.000   P
ZD69       17.820   1.000   S
# 2019  6 12 17 18 33.91  27.2277  102.7802    9.90 -1.50  0.00  0.00  0.00         84
ZD81        1.570   1.000   P
ZD81        3.020   1.000   S
ZD76        3.500   1.000   P
ZD76        6.180   1.000   S
ZD71        6.230   1.000   P
ZD71       10.910   1.000   S
ZD75        5.360   1.000   P
ZD75        9.340   1.000   S
ZD79        2.510   1.000   P
ZD79        4.360   1.000   S
ZD69        8.620   1.000   P
ZD69       14.670   1.000   S
# 2019  6 13 23 21 13.16  27.1822  102.6547   11.60 -0.30  0.00  0.00  0.00         85
ZD77        2.170   1.000   P
ZD77        4.290   1.000   S
ZD71        6.230   1.000   P
ZD71       11.250   1.000   S
ZD73        5.770   1.000   P
ZD73       10.430   1.000   S
ZD80        1.900   1.000   P
ZD80        3.700   1.000   S
ZD79        1.030   1.000   P
ZD79        2.130   1.000   S
ZD70        5.890   1.000   P
ZD70       10.550   1.000   S
ZD81        3.750   1.000   P
ZD81        6.770   1.000   S
ZD78        4.690   1.000   P
ZD78        8.310   1.000   S
ZD69        7.050   1.000   P
ZD69       12.140   1.000   S
ZD74        5.990   1.000   P
ZD74       10.220   1.000   S
# 2019  6 13  4 41 38.25  27.0625  102.0823    5.60 -0.50  0.00  0.00  0.00         86
ZD67        7.570   1.000   P
ZD67       13.440   1.000   S
ZD74        4.750   1.000   P
ZD74        7.950   1.000   S
ZD64       12.050   1.000   P
ZD64       20.450   1.000   S
ZD69        8.130   1.000   P
ZD69       13.370   1.000   S
# 2019  6 14  2  2 10.62  27.3185  102.5987    5.60 -0.20  0.00  0.00  0.00         87
ZD70        3.210   1.000   P
ZD70        6.860   1.000   S
ZD77        2.030   1.000   P
ZD77        4.660   1.000   S
ZD71        3.710   1.000   P
ZD71        7.530   1.000   S
ZD75        1.670   1.000   P
ZD75        3.950   1.000   S
ZD76        0.340   1.000   P
ZD76        1.570   1.000   S
ZD64        7.000   1.000   P
ZD64       13.030   1.000   S
ZD69        4.990   1.000   P
ZD69        9.220   1.000   S
# 2019  6 14  3 31  9.34  27.1077  102.0755    6.60 -0.60  0.00  0.00  0.00         88
ZD67        6.770   1.000   P
ZD67       13.450   1.000   S
ZD64       11.350   1.000   P
ZD64       20.350   1.000   S
ZD69        7.450   1.000   P
ZD69       13.040   1.000   S
ZD74        4.410   1.000   P
ZD74        7.660   1.000   S
# 2019  6 15  4  7 20.24  27.7787  102.0967   15.80 -0.80  0.00  0.00  0.00         89
ZD67        6.560   1.000   P
ZD67       13.090   1.000   S
ZD59        4.220   1.000   P
ZD59        8.530   1.000   S
ZD58        2.800   1.000   P
ZD58        5.380   1.000   S
ZD69        8.170   1.000   P
ZD69       13.810   1.000   S
ZD56        2.920   1.000   P
ZD56        4.330   1.000   S
# 2019  6 17 14 56 18.14  27.6127  102.8803   29.40 2.00  0.00  0.00  0.00         90
ZD80       10.010   1.000   P
ZD80       17.390   1.000   S
ZD76        8.010   1.000   P
ZD76       13.300   1.000   S
ZD75        8.840   1.000   P
ZD75       14.580   1.000   S
ZD63       11.150   1.000   P
ZD63       18.390   1.000   S
ZD79        8.740   1.000   P
ZD79       14.150   1.000   S
ZD58       10.150   1.000   P
ZD58       16.500   1.000   S
ZD64        8.260   1.000   P
ZD64       12.230   1.000   S
ZD69       10.280   1.000   P
ZD69       15.440   1.000   S
ZD70        7.590   1.000   P
ZD70       10.770   1.000   S
# 2019  6 17 15 36 39.35  27.4355  102.6858   21.20 1.40  0.00  0.00  0.00         91
ZD64        4.290   1.000   P
ZD64        9.390   1.000   S
ZD79        4.930   1.000   P
ZD79        9.910   1.000   S
ZD68        8.100   1.000   P
ZD68       14.550   1.000   S
ZD76        3.790   1.000   P
ZD76        6.560   1.000   S
ZD74        8.650   1.000   P
ZD74       14.760   1.000   S
ZD75        4.550   1.000   P
ZD75        7.420   1.000   S
ZD70        4.000   1.000   P
ZD70        6.230   1.000   S
ZD69        6.170   1.000   P
ZD69        9.820   1.000   S
# 2019  6 17 15  9 39.46  27.4263  102.5557    6.70 0.10  0.00  0.00  0.00         92
ZD80        6.060   1.000   P
ZD80       12.230   1.000   S
ZD58        7.390   1.000   P
ZD58       14.400   1.000   S
ZD79        4.820   1.000   P
ZD79        8.930   1.000   S
ZD71        1.720   1.000   P
ZD71        3.210   1.000   S
ZD67        8.080   1.000   P
ZD67       14.100   1.000   S
ZD64        4.680   1.000   P
ZD64        7.420   1.000   S
