# 2019  6 17 21  4  4.37  27.4848  102.6210   16.90 0.80  0.00  0.00  0.00         93
ZD79        4.110   1.000   P
ZD79        8.230   1.000   S
ZD76        3.630   1.000   P
ZD76        6.740   1.000   S
ZD70        2.750   1.000   P
ZD70        4.650   1.000   S
ZD75        3.940   1.000   P
ZD75        6.420   1.000   S
ZD64        4.680   1.000   P
ZD64        7.470   1.000   S
ZD73        6.010   1.000   P
ZD73        9.540   1.000   S
ZD74        8.000   1.000   P
ZD74       12.970   1.000   S
# 2019  6 17 21 49 52.87  27.4628  102.6443   22.60 0.10  0.00  0.00  0.00         94
ZD76        4.080   1.000   P
ZD76        6.990   1.000   S
ZD75        4.520   1.000   P
ZD75        7.380   1.000   S
ZD74        8.800   1.000   P
ZD74       14.130   1.000   S
ZD77        5.690   1.000   P
ZD77        8.460   1.000   S
ZD70        3.440   1.000   P
ZD70        4.540   1.000   S
ZD79        4.820   1.000   P
ZD79        6.880   1.000   S
ZD69        5.670   1.000   P
ZD69        7.760   1.000   S
# 2019  6 17 23 35  2.00  27.0105  102.1568    9.00 1.40  0.00  0.00  0.00         95
ZD71       11.720   1.000   P
ZD71       20.770   1.000   S
ZD78       12.520   1.000   P
ZD78       21.710   1.000   S
ZD81       11.510   1.000   P
ZD81       19.810   1.000   S
ZD75        8.940   1.000   P
ZD75       14.900   1.000   S
# 2019  6 17 16 38 34.86  27.5038  102.5950    8.20 0.20  0.00  0.00  0.00         96
ZD75        3.390   1.000   P
ZD75        6.430   1.000   S
ZD64        3.860   1.000   P
ZD64        6.790   1.000   S
ZD63        7.290   1.000   P
ZD63       12.210   1.000   S
ZD69        5.380   1.000   P
ZD69        8.640   1.000   S
ZD67        7.810   1.000   P
ZD67       12.850   1.000   S
ZD73        7.440   1.000   P
ZD73       11.940   1.000   S
# 2019  6 17 17  2  2.54  27.4843  102.5480   30.70 -0.60  0.00  0.00  0.00         97
ZD70        4.070   1.000   P
ZD70        7.080   1.000   S
ZD74        8.400   1.000   P
ZD74       13.170   1.000   S
ZD77        5.850   1.000   P
ZD77        8.380   1.000   S
ZD75        5.070   1.000   P
ZD75        6.800   1.000   S
ZD67        8.350   1.000   P
ZD67       12.090   1.000   S
# 2019  6 17 17 11 16.48  27.3488  102.6178   26.80 -0.10  0.00  0.00  0.00         98
ZD79        4.250   1.000   P
ZD79        6.210   1.000   S
ZD76        3.990   1.000   P
ZD76        5.700   1.000   S
ZD75        4.650   1.000   P
ZD75        6.800   1.000   S
ZD69        5.590   1.000   P
ZD69        7.850   1.000   S
ZD70        4.040   1.000   P
ZD70        5.090   1.000   S
ZD74        8.300   1.000   P
ZD74       11.500   1.000   S
# 2019  6 17 17 16 18.20  27.4447  102.6930   31.20 -0.70  0.00  0.00  0.00         99
ZD79        5.900   1.000   P
ZD79       10.110   1.000   S
ZD67        8.910   1.000   P
ZD67       14.610   1.000   S
ZD70        5.390   1.000   P
ZD70        8.500   1.000   S
ZD71        4.370   1.000   P
ZD71        6.020   1.000   S
ZD76        5.310   1.000   P
ZD76        7.300   1.000   S
ZD64        6.370   1.000   P
ZD64        8.770   1.000   S
# 2019  6 17 15 21 38.56  27.5392  102.6763    9.20 -0.60  0.00  0.00  0.00        100
ZD75        5.200   1.000   P
ZD75        8.400   1.000   S
ZD79        6.230   1.000   P
ZD79        9.560   1.000   S
ZD64        4.750   1.000   P
ZD64        6.600   1.000   S
ZD69        7.190   1.000   P
ZD69       10.780   1.000   S
ZD74        8.820   1.000   P
ZD74       13.160   1.000   S
ZD77        6.700   1.000   P
ZD77        8.870   1.000   S
# 2019  6 17 16 29 42.69  27.4963  102.8242    8.10 0.70  0.00  0.00  0.00        101
ZD68       12.250   1.000   P
ZD68       22.640   1.000   S
ZD64        6.940   1.000   P
ZD64       12.970   1.000   S
ZD81        5.230   1.000   P
ZD81        9.240   1.000   S
ZD67       11.630   1.000   P
ZD67       19.700   1.000   S
ZD63       11.540   1.000   P
ZD63       19.020   1.000   S
ZD74       10.940   1.000   P
ZD74       17.800   1.000   S
# 2019  6 17  4 19 25.28  27.0437  102.1127    8.80 -0.60  0.00  0.00  0.00        102
ZD56       12.840   1.000   P
ZD56       22.770   1.000   S
ZD64       11.520   1.000   P
ZD64       19.980   1.000   S
ZD70       10.540   1.000   P
ZD70       18.190   1.000   S
ZD69        7.630   1.000   P
ZD69       12.620   1.000   S
# 2019  6 17 15  3 15.16  27.3497  102.6282   29.40 -0.20  0.00  0.00  0.00        103
ZD79        4.630   1.000   P
ZD79        9.540   1.000   S
ZD75        3.720   1.000   P
ZD75        7.690   1.000   S
ZD70        4.560   1.000   P
ZD70        8.060   1.000   S
ZD76        4.290   1.000   P
ZD76        6.920   1.000   S
ZD73        6.210   1.000   P
ZD73       10.220   1.000   S
# 2019  6 17 15 42 14.45  27.4715  102.7957   11.50 -0.10  0.00  0.00  0.00        104
ZD75        5.630   1.000   P
ZD75        9.390   1.000   S
ZD70        4.690   1.000   P
ZD70        7.220   1.000   S
ZD79        5.720   1.000   P
ZD79        8.410   1.000   S
ZD73        8.870   1.000   P
ZD73       13.200   1.000   S
# 2019  6 17 16 10 27.68  27.4957  102.6477   16.70 -1.30  0.00  0.00  0.00        105
ZD71        1.960   1.000   P
ZD71        3.910   1.000   S
ZD76        3.580   1.000   P
ZD76        5.300   1.000   S
ZD77        5.960   1.000   P
ZD77        9.340   1.000   S
ZD75        4.770   1.000   P
ZD75        6.600   1.000   S
ZD64        4.690   1.000   P
ZD64        6.290   1.000   S
# 2019  6 17 20  5  9.14  27.3977  102.6562   13.10 -0.40  0.00  0.00  0.00        106
ZD70        3.010   1.000   P
ZD70        5.010   1.000   S
ZD69        5.560   1.000   P
ZD69        8.470   1.000   S
ZD75        3.610   1.000   P
ZD75        5.070   1.000   S
ZD79        3.980   1.000   P
ZD79        5.540   1.000   S
ZD74        7.980   1.000   P
ZD74       11.250   1.000   S
# 2019  6 17 23 35  7.52  27.7310  102.8242    9.10 1.30  0.00  0.00  0.00        107
ZD64        7.870   1.000   P
ZD64       14.700   1.000   S
ZD56       12.340   1.000   P
ZD56       22.420   1.000   S
ZD74       12.570   1.000   P
ZD74       22.630   1.000   S
ZD58        9.610   1.000   P
ZD58       16.930   1.000   S
ZD59        8.110   1.000   P
ZD59       13.780   1.000   S
ZD70        7.550   1.000   P
ZD70       11.440   1.000   S
# 2019  6 17 15 57 46.92  27.5370  102.6312   14.90 -1.00  0.00  0.00  0.00        108
ZD64        4.150   1.000   P
ZD64        7.590   1.000   S
ZD71        1.850   1.000   P
ZD71        3.010   1.000   S
ZD75        4.540   1.000   P
ZD75        7.640   1.000   S
ZD74        8.180   1.000   P
ZD74       13.690   1.000   S
ZD70        3.990   1.000   P
ZD70        5.160   1.000   S
# 2019  6 17 16 20 42.38  27.4855  102.6378   16.10 -1.30  0.00  0.00  0.00        109
ZD71        2.000   1.000   P
ZD71        3.360   1.000   S
ZD76        3.740   1.000   P
ZD76        6.120   1.000   S
ZD64        4.530   1.000   P
ZD64        7.100   1.000   S
ZD75        4.310   1.000   P
ZD75        6.340   1.000   S
ZD70        4.000   1.000   P
ZD70        5.020   1.000   S
# 2019  6 17 16 33 56.79  27.4820  102.7058    9.20 -1.10  0.00  0.00  0.00        110
ZD71        1.850   1.000   P
ZD71        3.740   1.000   S
ZD76        3.750   1.000   P
ZD76        6.690   1.000   S
ZD70        3.720   1.000   P
ZD70        5.980   1.000   S
ZD77        5.860   1.000   P
ZD77        9.470   1.000   S
ZD75        4.630   1.000   P
ZD75        6.890   1.000   S
# 2019  6 17 17 38 45.55  27.4225  102.7858   13.80 -0.90  0.00  0.00  0.00        111
ZD75        5.540   1.000   P
ZD75        8.530   1.000   S
ZD80        6.050   1.000   P
ZD80        9.090   1.000   S
ZD79        5.090   1.000   P
ZD79        7.400   1.000   S
ZD70        4.620   1.000   P
ZD70        6.310   1.000   S
# 2019  6 17 20  5  3.98  27.4393  102.8483   12.30 -0.30  0.00  0.00  0.00        112
ZD76        4.250   1.000   P
ZD76        8.370   1.000   S
ZD78        6.470   1.000   P
ZD78       11.580   1.000   S
ZD67       13.570   1.000   P
ZD67       23.030   1.000   S
ZD80        8.730   1.000   P
ZD80       14.170   1.000   S
# 2019  6 17 20 11 42.76  27.5682  102.7818   21.10 0.60  0.00  0.00  0.00        113
ZD70        5.630   1.000   P
ZD70        9.630   1.000   S
ZD71        4.150   1.000   P
ZD71        6.730   1.000   S
ZD58        9.680   1.000   P
ZD58       16.000   1.000   S
ZD74       10.690   1.000   P
ZD74       17.520   1.000   S
ZD79        7.520   1.000   P
ZD79       11.350   1.000   S
# 2019  6 17 20 34 12.93  27.4912  102.8647    6.80 -1.00  0.00  0.00  0.00        114
ZD77        8.170   1.000   P
ZD77       12.930   1.000   S
ZD71        4.580   1.000   P
ZD71        6.170   1.000   S
ZD75        7.150   1.000   P
ZD75        9.580   1.000   S
ZD70        6.320   1.000   P
ZD70        8.130   1.000   S
ZD79        6.640   1.000   P
ZD79        8.680   1.000   S
# 2019  6 17 21 16 44.87  27.4123  102.6922   11.40 -1.10  0.00  0.00  0.00        115
ZD74       10.330   1.000   P
ZD74       19.220   1.000   S
ZD70        3.310   1.000   P
ZD70        5.530   1.000   S
ZD79        4.300   1.000   P
ZD79        7.080   1.000   S
ZD75        4.020   1.000   P
ZD75        6.220   1.000   S
# 2019  6 17 15  9 41.21  27.5153  102.5475    9.90 0.10  0.00  0.00  0.00        116
ZD64        2.930   1.000   P
ZD64        5.670   1.000   S
ZD70        1.620   1.000   P
ZD70        2.910   1.000   S
ZD75        3.600   1.000   P
ZD75        5.840   1.000   S
ZD69        4.770   1.000   P
ZD69        7.450   1.000   S
ZD77        3.990   1.000   P
ZD77        4.910   1.000   S
# 2019  6 17 15 21 35.02  27.4605  102.9702   13.80 -0.60  0.00  0.00  0.00        117
ZD71        6.080   1.000   P
ZD71       10.680   1.000   S
ZD70        8.060   1.000   P
ZD70       12.670   1.000   S
ZD76        7.640   1.000   P
ZD76       11.750   1.000   S
ZD78        6.710   1.000   P
ZD78        9.450   1.000   S
# 2019  6 17 15 36 39.99  27.4350  102.6063   23.40 1.00  0.00  0.00  0.00        118
ZD74        8.010   1.000   P
ZD74       14.120   1.000   S
ZD75        3.910   1.000   P
ZD75        6.780   1.000   S
ZD70        3.360   1.000   P
ZD70        5.590   1.000   S
ZD69        5.530   1.000   P
ZD69        9.180   1.000   S
ZD77        4.650   1.000   P
ZD77        6.960   1.000   S
ZD63        6.270   1.000   P
ZD63        8.440   1.000   S
# 2019  6 17 15 53  9.82  27.3732  102.6047    5.40 -1.30  0.00  0.00  0.00        119
ZD76        1.200   1.000   P
ZD76        4.220   1.000   S
ZD75        1.550   1.000   P
ZD75        3.420   1.000   S
ZD70        2.330   1.000   P
ZD70        4.100   1.000   S
ZD77        3.240   1.000   P
ZD77        4.930   1.000   S
# 2019  6 17 16 19 12.90  27.4953  102.7503    9.30 -1.50  0.00  0.00  0.00        120
ZD75        5.160   1.000   P
ZD75        9.230   1.000   S
ZD71        2.730   1.000   P
ZD71        4.320   1.000   S
ZD70        4.560   1.000   P
ZD70        7.060   1.000   S
ZD76        4.440   1.000   P
ZD76        6.850   1.000   S
# 2019  6 17 21  3 59.86  27.7522  102.8225   15.50 0.70  0.00  0.00  0.00        121
ZD71        5.870   1.000   P
ZD71       10.950   1.000   S
ZD67       12.210   1.000   P
ZD67       21.360   1.000   S
ZD69       10.320   1.000   P
ZD69       17.900   1.000   S
ZD59        8.490   1.000   P
ZD59       14.020   1.000   S
# 2019  6 18 19  3 22.56  27.4928  102.5975   13.70 -0.10  0.00  0.00  0.00        122
ZD76        3.370   1.000   P
ZD76        6.920   1.000   S
ZD79        3.670   1.000   P
ZD79        6.750   1.000   S
ZD71        1.410   1.000   P
ZD71        2.530   1.000   S
ZD73        7.690   1.000   P
ZD73       12.660   1.000   S
ZD69        4.940   1.000   P
ZD69        7.240   1.000   S
ZD74        7.720   1.000   P
ZD74       11.940   1.000   S
ZD75        4.040   1.000   P
ZD75        5.550   1.000   S
# 2019  6 18 13 25  5.60  27.6995  102.0775   20.90 -0.40  0.00  0.00  0.00        123
ZD58        3.910   1.000   P
ZD58        7.090   1.000   S
ZD56        2.910   1.000   P
ZD56        5.060   1.000   S
ZD59        4.950   1.000   P
ZD59        8.480   1.000   S
ZD64        6.370   1.000   P
ZD64       10.910   1.000   S
ZD70        9.380   1.000   P
ZD70       15.760   1.000   S
ZD69        7.450   1.000   P
ZD69       12.380   1.000   S
ZD73        9.310   1.000   P
ZD73       15.430   1.000   S
ZD75       10.350   1.000   P
ZD75       16.940   1.000   S
# 2019  6 18 19 26  6.18  27.4598  102.7683   26.20 -0.30  0.00  0.00  0.00        124
ZD74        9.500   1.000   P
ZD74       16.030   1.000   S
ZD79        6.340   1.000   P
ZD79       10.340   1.000   S
ZD70        4.670   1.000   P
ZD70        6.580   1.000   S
ZD81        5.180   1.000   P
ZD81        7.160   1.000   S
ZD75        6.840   1.000   P
ZD75        9.930   1.000   S
ZD76        5.870   1.000   P
ZD76        7.900   1.000   S
ZD69        7.220   1.000   P
ZD69        9.730   1.000   S
ZD80        6.560   1.000   P
ZD80        8.470   1.000   S
# 2019  6 18  6 39 15.83  27.5043  102.4462    9.70 0.10  0.00  0.00  0.00        125
ZD69        2.940   1.000   P
ZD69        5.150   1.000   S
ZD64        2.320   1.000   P
ZD64        3.780   1.000   S
ZD73        4.490   1.000   P
ZD73        6.660   1.000   S
ZD63        4.870   1.000   P
ZD63        6.580   1.000   S
ZD74        7.070   1.000   P
ZD74       10.310   1.000   S
# 2019  6 18 20 39 52.43  27.4828  102.7410    6.70 -0.60  0.00  0.00  0.00        126
ZD70        3.600   1.000   P
ZD70        6.980   1.000   S
ZD75        6.020   1.000   P
ZD75       11.040   1.000   S
ZD67        9.870   1.000   P
ZD67       16.620   1.000   S
ZD73        8.340   1.000   P
ZD73       13.780   1.000   S
ZD76        4.580   1.000   P
ZD76        6.780   1.000   S
ZD69        7.760   1.000   P
ZD69       11.900   1.000   S
ZD79        5.200   1.000   P
ZD79        7.270   1.000   S
# 2019  6 18  5 24 18.68  27.5132  102.7693   29.50 -0.20  0.00  0.00  0.00        127
ZD77        7.330   1.000   P
ZD77       12.000   1.000   S
ZD75        6.920   1.000   P
ZD75       10.980   1.000   S
ZD64        6.640   1.000   P
ZD64       10.240   1.000   S
ZD70        6.020   1.000   P
ZD70        8.500   1.000   S
ZD76        5.800   1.000   P
ZD76        7.900   1.000   S
ZD79        6.790   1.000   P
ZD79        8.790   1.000   S
# 2019  6 18  4 23 21.94  27.2550  102.9332    6.00 -0.80  0.00  0.00  0.00        128
ZD78        3.280   1.000   P
ZD78        5.600   1.000   S
ZD77        6.820   1.000   P
ZD77       10.240   1.000   S
ZD79        5.300   1.000   P
ZD79        7.190   1.000   S
ZD80        5.170   1.000   P
ZD80        6.880   1.000   S
# 2019  6 18 10 10 39.04  27.5480  102.5675   13.10 -0.70  0.00  0.00  0.00        129
ZD71        1.680   1.000   P
ZD71        5.560   1.000   S
ZD76        2.580   1.000   P
ZD76        5.690   1.000   S
ZD79        6.770   1.000   P
ZD79       12.710   1.000   S
ZD64        3.130   1.000   P
ZD64        5.850   1.000   S
ZD70        2.390   1.000   P
ZD70        4.030   1.000   S
# 2019  6 18 11 55 23.76  27.2643  102.2805    6.80 -0.60  0.00  0.00  0.00        130
ZD76        7.180   1.000   P
ZD76       14.050   1.000   S
ZD80        7.740   1.000   P
ZD80       14.070   1.000   S
ZD64        7.290   1.000   P
ZD64       12.490   1.000   S
ZD73        1.220   1.000   P
ZD73        1.940   1.000   S
# 2019  6 18  0 15 26.78  27.5338  102.9383    8.80 -0.10  0.00  0.00  0.00        131
ZD81        5.370   1.000   P
ZD81        9.420   1.000   S
ZD80        9.500   1.000   P
ZD80       16.390   1.000   S
ZD67       12.470   1.000   P
ZD67       21.350   1.000   S
ZD64        8.970   1.000   P
ZD64       14.980   1.000   S
# 2019  6 18  4 35  0.17  27.1637  102.1737    5.40 -0.50  0.00  0.00  0.00        132
ZD56       10.940   1.000   P
ZD56       19.510   1.000   S
ZD64        9.660   1.000   P
ZD64       16.660   1.000   S
ZD69        5.770   1.000   P
ZD69        9.750   1.000   S
ZD59       11.880   1.000   P
ZD59       20.270   1.000   S
# 2019  6 18 10 54 38.34  27.3938  102.5190   24.40 -0.30  0.00  0.00  0.00        133
ZD76        3.560   1.000   P
ZD76        6.880   1.000   S
ZD67        7.060   1.000   P
ZD67       12.390   1.000   S
ZD70        3.540   1.000   P
ZD70        5.440   1.000   S
ZD75        3.740   1.000   P
ZD75        5.320   1.000   S
ZD69        5.410   1.000   P
ZD69        7.670   1.000   S
ZD63        6.750   1.000   P
ZD63        9.760   1.000   S
# 2019  6 18 18 36 40.52  27.4222  102.5693   19.40 -1.60  0.00  0.00  0.00        134
ZD76        3.030   1.000   P
ZD76        5.890   1.000   S
ZD70        2.500   1.000   P
ZD70        4.770   1.000   S
ZD75        3.130   1.000   P
ZD75        4.850   1.000   S
ZD79        5.170   1.000   P
ZD79        7.740   1.000   S
# 2019  6 18 20 40 26.41  27.4688  102.6887    7.80 0.00  0.00  0.00  0.00        135
ZD71        1.620   1.000   P
ZD71        2.820   1.000   S
ZD70        3.390   1.000   P
ZD70        5.380   1.000   S
ZD80        6.310   1.000   P
ZD80       10.250   1.000   S
ZD69        7.210   1.000   P
ZD69       10.620   1.000   S
# 2019  6 19 17 45 10.10  27.5603  102.4638   19.90 -0.30  0.00  0.00  0.00        136
ZD64        2.720   1.000   P
ZD64        4.940   1.000   S
ZD69        4.490   1.000   P
ZD69        7.510   1.000   S
ZD70        3.450   1.000   P
ZD70        5.250   1.000   S
ZD75        4.070   1.000   P
ZD75        5.910   1.000   S
ZD67        6.930   1.000   P
ZD67       10.270   1.000   S
ZD73        5.720   1.000   P
ZD73        7.950   1.000   S
ZD74        7.570   1.000   P
ZD74       10.760   1.000   S
# 2019  6 19  5 57 52.18  27.2990  102.6733   18.80 -0.50  0.00  0.00  0.00        137
ZD80        4.060   1.000   P
ZD80        6.860   1.000   S
ZD79        3.290   1.000   P
ZD79        5.110   1.000   S
ZD75        3.440   1.000   P
ZD75        4.900   1.000   S
ZD77        3.810   1.000   P
ZD77        5.530   1.000   S
# 2019  6 19 17 31  0.87  27.2747  102.5920   10.80 -0.50  0.00  0.00  0.00        138
ZD76        1.160   1.000   P
ZD76        2.940   1.000   S
ZD79        2.050   1.000   P
ZD79        3.940   1.000   S
ZD69        3.470   1.000   P
ZD69        5.210   1.000   S
ZD73        4.610   1.000   P
ZD73        6.600   1.000   S
ZD74        5.840   1.000   P
ZD74        8.620   1.000   S
# 2019  6 19 19 41 24.72  27.5670  102.6860    9.90 -0.90  0.00  0.00  0.00        139
ZD70        3.980   1.000   P
ZD70        6.220   1.000   S
ZD75        4.730   1.000   P
ZD75        7.450   1.000   S
ZD77        7.350   1.000   P
ZD77       11.770   1.000   S
ZD64        4.640   1.000   P
ZD64        6.510   1.000   S
ZD76        4.670   1.000   P
ZD76        6.550   1.000   S
# 2019  6 19 19 56  7.60  27.4402  102.7248   11.70 -0.30  0.00  0.00  0.00        140
ZD69        6.570   1.000   P
ZD69       11.860   1.000   S
ZD70        4.060   1.000   P
ZD70        6.050   1.000   S
ZD74        8.900   1.000   P
ZD74       13.970   1.000   S
ZD80        6.130   1.000   P
ZD80        9.070   1.000   S
ZD73        7.080   1.000   P
ZD73       10.550   1.000   S
ZD77        6.600   1.000   P
ZD77        9.140   1.000   S
# 2019  6 19 17 45  5.44  27.5705  102.9153   10.90 0.10  0.00  0.00  0.00        141
ZD78        6.750   1.000   P
ZD78       12.520   1.000   S
ZD80        8.770   1.000   P
ZD80       15.860   1.000   S
ZD81        6.050   1.000   P
ZD81       10.440   1.000   S
ZD71        5.200   1.000   P
ZD71        8.490   1.000   S
ZD76        7.930   1.000   P
ZD76       12.280   1.000   S
# 2019  6 20 12 59 23.81  27.3192  102.6340   22.90 0.40  0.00  0.00  0.00        142
ZD63        8.850   1.000   P
ZD63       16.640   1.000   S
ZD79        3.790   1.000   P
ZD79        7.230   1.000   S
ZD75        3.780   1.000   P
ZD75        6.530   1.000   S
ZD76        2.970   1.000   P
ZD76        5.010   1.000   S
ZD73        5.400   1.000   P
ZD73        7.880   1.000   S
