# 2023 10 25  5  3 36.80  39.1870   97.2710    9.00 2.00  0.00  0.00  0.00         83
QTS        11.280   1.000   P
QTS        19.600   1.000   S
CHM        14.410   1.000   P
CHM        24.730   1.000   S
YJZ        29.410   1.000   P
YJZ        49.260   1.000   S
# 2023 10 25  5 10 23.60  39.2250   97.3120   15.00 1.60  0.00  0.00  0.00         84
QTS        10.200   1.000   P
QTS        17.840   1.000   S
# 2023 10 25  5 12  0.70  39.2990   97.2430   14.00 2.40  0.00  0.00  0.00         85
QTS         9.530   1.000   P
QTS        17.130   1.000   S
# 2023 10 25  5 55 41.90  39.2440   97.2770   11.00 2.20  0.00  0.00  0.00         86
QTS        10.310   1.000   P
QTS        18.290   1.000   S
CHM        14.130   1.000   P
CHM        23.440   1.000   S
# 2023 10 25  6 39 45.20  39.3120   97.3050   11.00 1.60  0.00  0.00  0.00         87
QTS         9.190   1.000   P
QTS        16.240   1.000   S
# 2023 10 25  6 57 24.50  39.2330   97.3140   14.00 3.00  0.00  0.00  0.00         88
QTS         9.810   1.000   P
QTS        17.700   1.000   S
CHM        13.430   1.000   P
CHM        23.480   1.000   S
YJZ        27.860   1.000   P
YJZ        47.590   1.000   S
# 2023 10 25  7  5 33.70  39.2540   97.3400   12.00 1.30  0.00  0.00  0.00         89
QTS         9.120   1.000   P
QTS        17.330   1.000   S
CHM        13.920   1.000   P
CHM        23.970   1.000   S
YJZ        28.440   1.000   P
YJZ        47.240   1.000   S
# 2023 10 25  7 28 27.30  39.2930   97.3450   10.00 2.20  0.00  0.00  0.00         90
QTS         8.390   1.000   P
QTS        16.140   1.000   S
CHM        12.840   1.000   P
CHM        23.290   1.000   S
SBC        20.550   1.000   P
SBC        36.900   1.000   S
YJZ        26.780   1.000   P
YJZ        46.810   1.000   S
# 2023 10 25  7 38 14.60  39.2870   97.1890   11.00 1.50  0.00  0.00  0.00         91
QTS        10.600   1.000   P
QTS        18.810   1.000   S
YJZ        28.940   1.000   P
YJZ        48.920   1.000   S
# 2023 10 25  8 13 36.60  39.3030   97.3330   19.00 2.90  0.00  0.00  0.00         92
QTS         9.000   1.000   P
QTS        16.370   1.000   S
JYG        15.380   1.000   P
JYG        26.740   1.000   S
YJZ        27.050   1.000   P
YJZ        46.650   1.000   S
SNT        36.190   1.000   P
SNT        56.560   1.000   S
GTA        34.410   1.000   P
GTA        58.680   1.000   S
# 2023 10 25  9 51  1.50  39.1420   97.3820   14.00 1.90  0.00  0.00  0.00         93
QTS        10.890   1.000   P
QTS        18.820   1.000   S
CHM        14.810   1.000   P
CHM        26.420   1.000   S
YJZ        29.270   1.000   P
YJZ        49.440   1.000   S
# 2023 10 25  9 57 42.40  39.2020   97.3350   13.00 1.90  0.00  0.00  0.00         94
QTS        10.380   1.000   P
QTS        18.060   1.000   S
CHM        14.350   1.000   P
CHM        24.240   1.000   S
YJZ        28.750   1.000   P
YJZ        48.270   1.000   S
# 2023 10 25 10  4 21.80  39.2240   97.3590   13.00 1.90  0.00  0.00  0.00         95
QTS         9.480   1.000   P
QTS        17.040   1.000   S
CHM        14.520   1.000   P
CHM        23.890   1.000   S
JYG        15.860   1.000   P
JYG        27.370   1.000   S
YJZ        27.840   1.000   P
YJZ        47.650   1.000   S
# 2023 10 25 10 14  0.20  39.2880   97.3240   26.00 2.60  0.00  0.00  0.00         96
QTS         9.670   1.000   P
QTS        18.040   1.000   S
CHM        13.530   1.000   P
CHM        24.840   1.000   S
JYG        15.840   1.000   P
JYG        27.470   1.000   S
# 2023 10 25 10 26 59.00  39.2430   97.3680    9.00 1.70  0.00  0.00  0.00         97
QTS         9.160   1.000   P
QTS        17.080   1.000   S
YJZ        27.560   1.000   P
YJZ        47.430   1.000   S
# 2023 10 25 12 47 23.20  39.2580   97.2660   19.00 1.90  0.00  0.00  0.00         98
QTS        10.160   1.000   P
QTS        18.590   1.000   S
CHM        13.450   1.000   P
CHM        24.530   1.000   S
JYG        16.510   1.000   P
JYG        28.980   1.000   S
SBC        22.880   1.000   P
SBC        39.170   1.000   S
GTA        36.510   1.000   P
GTA        60.630   1.000   S
# 2023 10 25 15 40 33.40  39.2500   97.2940   12.00 2.50  0.00  0.00  0.00         99
QTS         9.920   1.000   P
QTS        18.690   1.000   S
JYG        16.170   1.000   P
JYG        28.390   1.000   S
# 2023 10 25 17 31  4.40  39.2510   97.2980   11.00 2.20  0.00  0.00  0.00        100
QTS        10.090   1.000   P
QTS        17.870   1.000   S
CHM        13.680   1.000   P
CHM        23.710   1.000   S
# 2023 10 25 18  2 29.30  39.3140   97.3560   12.00 1.50  0.00  0.00  0.00        101
QTS         9.020   1.000   P
QTS        16.460   1.000   S
CHM        12.050   1.000   P
CHM        22.910   1.000   S
# 2023 10 25 18  3 36.20  39.3530   97.2560   14.00 3.90  0.00  0.00  0.00        102
QTS         7.560   1.000   P
QTS        15.660   1.000   S
CHM        10.870   1.000   P
CHM        20.730   1.000   S
JYG        13.740   1.000   P
JYG        25.710   1.000   S
SBC        18.350   1.000   P
SBC        35.460   1.000   S
JFS        18.120   1.000   P
JFS        33.960   1.000   S
YJZ        25.520   1.000   P
YJZ        46.160   1.000   S
AXX        25.980   1.000   P
AXX        48.080   1.000   S
SNT        30.700   1.000   P
SNT        55.720   1.000   S
GTA        32.360   1.000   P
GTA        58.340   1.000   S
# 2023 10 25 18 14 57.70  39.2560   97.3360   12.00 1.80  0.00  0.00  0.00        103
QTS         9.740   1.000   P
QTS        17.790   1.000   S
# 2023 10 25 18 34 15.70  39.3260   97.2910   13.00 2.10  0.00  0.00  0.00        104
QTS         8.570   1.000   P
QTS        15.980   1.000   S
# 2023 10 25 19  2  1.30  39.2960   97.3160   10.00 1.40  0.00  0.00  0.00        105
QTS         9.180   1.000   P
QTS        17.270   1.000   S
CHM        12.720   1.000   P
CHM        23.020   1.000   S
YJZ        27.520   1.000   P
YJZ        47.120   1.000   S
YWX        33.920   1.000   P
YWX        57.340   1.000   S
# 2023 10 25 19 16 19.60  39.2480   97.3140   15.00 1.50  0.00  0.00  0.00        106
QTS         9.900   1.000   P
QTS        17.260   1.000   S
CHM        13.520   1.000   P
CHM        22.530   1.000   S
# 2023 10 25 19 21 59.90  39.2300   97.3490   15.00 1.30  0.00  0.00  0.00        107
QTS         9.630   1.000   P
QTS        17.100   1.000   S
# 2023 10 25 19 35  5.70  39.2050   97.2920   15.00 1.00  0.00  0.00  0.00        108
QTS        10.680   1.000   P
QTS        18.670   1.000   S
# 2023 10 25 19 38 44.20  39.1900   97.2920   11.00 1.80  0.00  0.00  0.00        109
QTS        11.150   1.000   P
QTS        19.420   1.000   S
CHM        14.500   1.000   P
CHM        25.070   1.000   S
# 2023 10 25 19 58 31.90  39.2370   97.2740   15.00 2.30  0.00  0.00  0.00        110
QTS        10.310   1.000   P
QTS        18.090   1.000   S
CHM        13.640   1.000   P
CHM        24.310   1.000   S
# 2023 10 25 20 48 49.40  39.1830   97.3400   15.00 1.70  0.00  0.00  0.00        111
QTS        10.630   1.000   P
QTS        18.430   1.000   S
CHM        14.460   1.000   P
CHM        24.800   1.000   S
# 2023 10 25 21  4 11.50  39.2750   97.3060   13.00 3.10  0.00  0.00  0.00        112
QTS         9.790   1.000   P
QTS        17.980   1.000   S
CHM        13.400   1.000   P
CHM        23.730   1.000   S
JYG        15.980   1.000   P
JYG        27.230   1.000   S
# 2023 10 25 21 46 10.00  39.2480   97.2720   11.00 3.40  0.00  0.00  0.00        113
QTS        10.520   1.000   P
QTS        18.300   1.000   S
CHM        13.720   1.000   P
CHM        24.200   1.000   S
JYG        16.640   1.000   P
JYG        28.200   1.000   S
YJZ        28.450   1.000   P
YJZ        49.060   1.000   S
# 2023 10 25 22 57  9.70  39.2360   97.3080   11.00 1.90  0.00  0.00  0.00        114
QTS        10.250   1.000   P
QTS        18.260   1.000   S
CHM        14.360   1.000   P
CHM        24.600   1.000   S
JYG        16.210   1.000   P
JYG        28.490   1.000   S
JFS        21.160   1.000   P
JFS        36.130   1.000   S
YJZ        28.290   1.000   P
YJZ        48.660   1.000   S
AXX        29.560   1.000   P
AXX        51.790   1.000   S
# 2023 10 26  0 51 24.30  39.2980   97.3060   22.00 2.20  0.00  0.00  0.00        115
QTS         9.480   1.000   P
QTS        17.210   1.000   S
CHM        12.840   1.000   P
CHM        22.930   1.000   S
JYG        15.800   1.000   P
JYG        27.440   1.000   S
SBC        20.950   1.000   P
SBC        36.910   1.000   S
JFS        20.570   1.000   P
JFS        36.230   1.000   S
YJZ        27.570   1.000   P
YJZ        47.530   1.000   S
# 2023 10 26  1  1 45.30  39.1910   97.3520   10.00 2.00  0.00  0.00  0.00        116
QTS        10.150   1.000   P
QTS        18.700   1.000   S
CHM        14.990   1.000   P
CHM        25.780   1.000   S
SBC        21.330   1.000   P
SBC        38.670   1.000   S
YJZ        28.580   1.000   P
YJZ        48.770   1.000   S
# 2023 10 26  2  9 38.70  39.2140   97.3090   13.00 1.60  0.00  0.00  0.00        117
QTS        10.270   1.000   P
QTS        18.140   1.000   S
YJZ        28.530   1.000   P
YJZ        48.390   1.000   S
# 2023 10 26  3  7 15.00  39.2740   97.3030   11.00 3.10  0.00  0.00  0.00        118
QTS         9.550   1.000   P
QTS        16.810   1.000   S
JYG        15.790   1.000   P
JYG        27.590   1.000   S
YJZ        27.530   1.000   P
YJZ        47.510   1.000   S
# 2023 10 26  3 31  3.30  39.2560   97.2670   15.00 2.60  0.00  0.00  0.00        119
QTS         9.780   1.000   P
QTS        18.270   1.000   S
# 2023 10 26  3 48 24.90  39.2910   97.3300   25.00 2.70  0.00  0.00  0.00        120
QTS         9.570   1.000   P
QTS        17.680   1.000   S
CHM        12.850   1.000   P
CHM        23.510   1.000   S
JYG        15.730   1.000   P
JYG        27.610   1.000   S
JFS        20.320   1.000   P
JFS        35.380   1.000   S
# 2023 10 26  4 21 58.50  39.3700   97.3420   12.00 2.00  0.00  0.00  0.00        121
QTS         8.300   1.000   P
QTS        14.960   1.000   S
CHM        11.670   1.000   P
CHM        21.370   1.000   S
JFS        20.480   1.000   P
JFS        34.700   1.000   S
SBC        20.370   1.000   P
SBC        35.340   1.000   S
# 2023 10 26  4 37  0.70  39.1810   97.3300   12.00 0.90  0.00  0.00  0.00        122
QTS        10.970   1.000   P
QTS        19.060   1.000   S
CHM        15.470   1.000   P
CHM        25.170   1.000   S
# 2023 10 26  7 51 49.60  39.3340   97.2250   12.00 2.00  0.00  0.00  0.00        123
QTS         9.280   1.000   P
QTS        17.460   1.000   S
# 2023 10 26 14 25 23.20  39.3630   97.2900   21.00 1.90  0.00  0.00  0.00        124
QTS         8.810   1.000   P
QTS        16.060   1.000   S
CHM        11.980   1.000   P
CHM        21.240   1.000   S
JYG        15.210   1.000   P
JYG        26.830   1.000   S
JFS        21.180   1.000   P
JFS        36.210   1.000   S
YJZ        26.910   1.000   P
YJZ        46.370   1.000   S
# 2023 10 26 15 41 50.40  39.3260   97.2670   14.00 1.90  0.00  0.00  0.00        125
JYG        15.960   1.000   P
JYG        26.880   1.000   S
# 2023 10 26 19 21 17.50  39.2540   97.2910   14.00 2.30  0.00  0.00  0.00        126
QTS         9.490   1.000   P
QTS        17.280   1.000   S
# 2023 10 27  1  9 57.10  39.2030   97.3310   10.00 2.00  0.00  0.00  0.00        127
QTS        10.370   1.000   P
QTS        18.500   1.000   S
# 2023 10 27  5  3  3.80  39.3090   97.2380    8.00 3.60  0.00  0.00  0.00        128
QTS         9.820   1.000   P
QTS        17.890   1.000   S
JYG        16.090   1.000   P
JYG        27.800   1.000   S
JFS        21.100   1.000   P
JFS        38.500   1.000   S
YJZ        27.810   1.000   P
YJZ        47.940   1.000   S
# 2023 10 27  9  5 52.70  39.3040   97.3330   13.00 2.10  0.00  0.00  0.00        129
QTS         9.220   1.000   P
QTS        17.250   1.000   S
JYG        15.660   1.000   P
JYG        27.480   1.000   S
JFS        20.440   1.000   P
JFS        34.710   1.000   S
SBC        20.630   1.000   P
SBC        36.150   1.000   S
# 2023 10 27 10 55 22.20  39.2550   97.2930   25.00 2.20  0.00  0.00  0.00        130
QTS        10.220   1.000   P
QTS        18.520   1.000   S
CHM        13.720   1.000   P
CHM        23.730   1.000   S
JYG        16.560   1.000   P
JYG        28.540   1.000   S
# 2023 10 28  5 58 22.30  39.1930   97.3340   15.00 1.80  0.00  0.00  0.00        132
QTS        10.990   1.000   P
QTS        18.850   1.000   S
CHM        14.730   1.000   P
CHM        25.940   1.000   S
AXX        30.880   1.000   P
AXX        52.630   1.000   S
# 2023 10 28  6 15 39.50  39.2800   97.3350   12.00 1.60  0.00  0.00  0.00        133
QTS         9.000   1.000   P
QTS        17.120   1.000   S
CHM        12.530   1.000   P
CHM        23.330   1.000   S
JYG        15.570   1.000   P
JYG        27.020   1.000   S
YJZ        27.370   1.000   P
YJZ        47.020   1.000   S
# 2023 10 28  6 32 11.60  39.2440   97.3110   22.00 3.00  0.00  0.00  0.00        134
QTS        10.310   1.000   P
QTS        18.000   1.000   S
CHM        13.880   1.000   P
CHM        24.260   1.000   S
JYG        16.470   1.000   P
JYG        28.420   1.000   S
YJZ        28.360   1.000   P
YJZ        48.770   1.000   S
AXX        28.840   1.000   P
AXX        49.980   1.000   S
# 2023 10 28  8 26 57.90  39.2960   97.3920   21.00 2.00  0.00  0.00  0.00        135
QTS         8.680   1.000   P
QTS        16.040   1.000   S
CHM        14.070   1.000   P
CHM        24.540   1.000   S
# 2023 10 28 17  6  2.00  39.3040   97.2990   14.00 2.00  0.00  0.00  0.00        136
QTS         8.770   1.000   P
QTS        15.870   1.000   S
# 2023 10 28 23 16 33.10  39.2110   97.3320   14.00 1.30  0.00  0.00  0.00        137
QTS         9.940   1.000   P
QTS        17.860   1.000   S
CHM        14.480   1.000   P
CHM        23.700   1.000   S
YJZ        28.310   1.000   P
YJZ        48.360   1.000   S
# 2023 10 29  0 52 13.20  39.1870   97.3530   15.00 1.90  0.00  0.00  0.00        138
QTS        10.560   1.000   P
QTS        17.860   1.000   S
CHM        14.330   1.000   P
CHM        24.940   1.000   S
# 2023 10 29  2 12 35.60  39.1920   97.3930   15.00 1.30  0.00  0.00  0.00        139
QTS         9.860   1.000   P
QTS        17.600   1.000   S
# 2023 10 29  6  7 20.50  39.2180   97.2950   23.00 1.70  0.00  0.00  0.00        140
QTS        10.810   1.000   P
QTS        19.320   1.000   S
YJZ        29.150   1.000   P
YJZ        49.250   1.000   S
# 2023 10 29 17 16 40.00  39.2630   97.2980   11.00 3.50  0.00  0.00  0.00        142
QTS         9.960   1.000   P
QTS        17.980   1.000   S
CHM        13.590   1.000   P
CHM        24.160   1.000   S
JYG        16.160   1.000   P
JYG        27.590   1.000   S
SBC        21.420   1.000   P
SBC        38.210   1.000   S
JFS        20.530   1.000   P
JFS        36.940   1.000   S
SBT        33.450   1.000   P
SBT        58.640   1.000   S
# 2023 10 29 18 49 42.80  39.2770   97.3260   25.00 2.00  0.00  0.00  0.00        143
QTS         9.810   1.000   P
QTS        17.540   1.000   S
CHM        13.460   1.000   P
CHM        24.040   1.000   S
JYG        16.100   1.000   P
JYG        27.680   1.000   S
# 2023 10 30  2  0 55.80  39.2300   97.2620   11.00 1.90  0.00  0.00  0.00        144
QTS        10.770   1.000   P
QTS        19.100   1.000   S
YJZ        28.950   1.000   P
YJZ        48.760   1.000   S
# 2023 10 30 13  8 43.90  39.2900   97.2860   12.00 1.80  0.00  0.00  0.00        145
QTS         8.940   1.000   P
QTS        16.450   1.000   S
YJZ        27.270   1.000   P
YJZ        47.210   1.000   S
# 2023 10 30 20 12 54.50  39.1840   97.3210   15.00 1.90  0.00  0.00  0.00        146
QTS        10.540   1.000   P
QTS        18.630   1.000   S
YJZ        28.950   1.000   P
YJZ        49.240   1.000   S
# 2023 10 30 23 34 47.10  39.2510   97.3180   15.00 1.50  0.00  0.00  0.00        147
QTS         9.980   1.000   P
QTS        16.810   1.000   S
CHM        12.950   1.000   P
CHM        22.690   1.000   S
YJZ        28.070   1.000   P
YJZ        47.560   1.000   S
# 2023 10 31  4 19 27.50  39.2970   97.2540   25.00 2.40  0.00  0.00  0.00        148
QTS         9.970   1.000   P
QTS        18.310   1.000   S
JFS        21.900   1.000   P
JFS        37.720   1.000   S
YJZ        28.010   1.000   P
YJZ        48.150   1.000   S
GTA        36.590   1.000   P
GTA        60.480   1.000   S
# 2023 10 31 23 44  8.30  39.1710   97.3080   14.00 1.90  0.00  0.00  0.00        149
QTS        10.790   1.000   P
QTS        19.310   1.000   S
CHM        14.520   1.000   P
CHM        24.580   1.000   S
JYG        17.060   1.000   P
JYG        28.930   1.000   S
# 2023 11  1  0 44 33.70  39.1930   97.3750   14.00 1.80  0.00  0.00  0.00        150
QTS         9.640   1.000   P
QTS        17.540   1.000   S
CHM        14.930   1.000   P
CHM        24.890   1.000   S
YJZ        27.980   1.000   P
YJZ        48.040   1.000   S
# 2023 11  1  1 53 24.00  39.2070   97.2950   11.00 1.90  0.00  0.00  0.00        151
QTS        10.610   1.000   P
QTS        18.970   1.000   S
CHM        13.950   1.000   P
CHM        24.670   1.000   S
YJZ        29.030   1.000   P
YJZ        49.280   1.000   S
# 2023 11  1  6 35 15.30  39.2500   97.3580   26.00 2.30  0.00  0.00  0.00        152
QTS         9.580   1.000   P
QTS        18.180   1.000   S
JYG        15.780   1.000   P
JYG        27.870   1.000   S
JFS        20.300   1.000   P
JFS        35.830   1.000   S
SBC        20.790   1.000   P
SBC        37.700   1.000   S
# 2023 11  1 17  8 43.30  39.2390   97.3010   11.00 1.70  0.00  0.00  0.00        153
QTS        10.090   1.000   P
QTS        18.320   1.000   S
YJZ        28.420   1.000   P
YJZ        48.500   1.000   S
GTA        35.130   1.000   P
GTA        60.730   1.000   S
# 2023 11  1 18 53  9.40  39.2730   97.3330   15.00 1.80  0.00  0.00  0.00        154
QTS         9.090   1.000   P
QTS        17.100   1.000   S
CHM        13.230   1.000   P
CHM        23.740   1.000   S
JYG        15.500   1.000   P
JYG        27.270   1.000   S
SBC        20.590   1.000   P
SBC        36.940   1.000   S
YJZ        27.420   1.000   P
YJZ        47.540   1.000   S
# 2023 11  1 23 28 25.10  39.2780   97.3340   25.00 2.50  0.00  0.00  0.00        155
QTS         9.730   1.000   P
QTS        16.760   1.000   S
CHM        13.730   1.000   P
CHM        24.190   1.000   S
JYG        15.950   1.000   P
JYG        27.520   1.000   S
YJZ        27.750   1.000   P
YJZ        47.540   1.000   S
AXX        29.720   1.000   P
AXX        51.380   1.000   S
DHT        37.790   1.000   P
DHT        65.740   1.000   S
LYT        41.490   1.000   P
LYT        71.910   1.000   S
# 2023 11  2  1 42 55.50  39.3320   97.3160   23.00 2.10  0.00  0.00  0.00        156
QTS         8.820   1.000   P
QTS        16.290   1.000   S
CHM        12.710   1.000   P
CHM        22.800   1.000   S
JYG        15.300   1.000   P
JYG        26.590   1.000   S
YJZ        26.940   1.000   P
YJZ        46.440   1.000   S
AXX        28.480   1.000   P
AXX        49.250   1.000   S
GTA        34.470   1.000   P
GTA        59.540   1.000   S
# 2023 11  2  9 42 18.60  39.2830   97.3000   12.00 2.20  0.00  0.00  0.00        157
QTS         9.740   1.000   P
QTS        17.970   1.000   S
CHM        12.740   1.000   P
CHM        22.820   1.000   S
YJZ        27.740   1.000   P
YJZ        47.560   1.000   S
# 2023 11  2 11 25 56.00  39.2960   97.2800   13.00 2.90  0.00  0.00  0.00        159
QTS         9.640   1.000   P
QTS        17.240   1.000   S
CHM        12.740   1.000   P
CHM        22.860   1.000   S
JYG        15.950   1.000   P
JYG        27.530   1.000   S
YJZ        27.680   1.000   P
YJZ        47.800   1.000   S
YWX        33.960   1.000   P
YWX        57.310   1.000   S
GTA        34.950   1.000   P
GTA        61.240   1.000   S
LYT        40.160   1.000   P
LYT        70.300   1.000   S
ZHY        46.110   1.000   P
ZHY        79.290   1.000   S
