# 2023 11  3 10 25 44.30  39.2260   97.2850   14.00 2.10  0.00  0.00  0.00        160
QTS        10.370   1.000   P
QTS        18.900   1.000   S
CHM        14.800   1.000   P
CHM        24.480   1.000   S
JFS        21.040   1.000   P
JFS        36.800   1.000   S
# 2023 11  4 14 49 44.60  39.2530   97.2550   10.00 3.30  0.00  0.00  0.00        161
QTS        10.430   1.000   P
QTS        18.510   1.000   S
CHM        13.750   1.000   P
CHM        24.260   1.000   S
JYG        16.570   1.000   P
JYG        28.470   1.000   S
JFS        20.840   1.000   P
JFS        37.870   1.000   S
YJZ        28.350   1.000   P
YJZ        48.960   1.000   S
YWX        34.090   1.000   P
YWX        58.300   1.000   S
# 2023 11  4 16  4  8.50  39.2420   97.2820   11.00 2.00  0.00  0.00  0.00        162
QTS        10.360   1.000   P
QTS        18.210   1.000   S
CHM        13.760   1.000   P
CHM        23.480   1.000   S
# 2023 11  5  4 59 54.60  39.2660   97.2570   14.00 3.70  0.00  0.00  0.00        163
QTS         9.700   1.000   P
QTS        18.080   1.000   S
CHM        12.790   1.000   P
CHM        23.060   1.000   S
JFS        21.360   1.000   P
JFS        37.480   1.000   S
YJZ        27.740   1.000   P
YJZ        47.940   1.000   S
SBT        33.200   1.000   P
SBT        57.650   1.000   S
# 2023 11  5  5  1 26.90  39.2640   97.2740   12.00 2.60  0.00  0.00  0.00        164
QTS        10.100   1.000   P
QTS        18.340   1.000   S
JYG        16.580   1.000   P
JYG        28.080   1.000   S
YJZ        28.480   1.000   P
YJZ        48.320   1.000   S
# 2023 11  5  9 11 43.60  39.3580   97.2330   15.00 2.00  0.00  0.00  0.00        165
QTS         8.870   1.000   P
QTS        16.870   1.000   S
JYG        16.410   1.000   P
JYG        27.060   1.000   S
YJZ        27.300   1.000   P
YJZ        46.990   1.000   S
# 2023 11  5 10 11  3.20  39.1760   97.4230    9.00 1.60  0.00  0.00  0.00        166
QTS        10.310   1.000   P
QTS        17.930   1.000   S
SBC        21.460   1.000   P
SBC        37.600   1.000   S
YJZ        28.670   1.000   P
YJZ        48.050   1.000   S
# 2023 11  5 13 10 47.50  39.2400   97.3020   25.00 2.00  0.00  0.00  0.00        167
QTS        10.370   1.000   P
QTS        19.790   1.000   S
CHM        13.440   1.000   P
CHM        24.600   1.000   S
YJZ        28.490   1.000   P
YJZ        48.820   1.000   S
# 2023 11  8  8 50 10.40  39.2440   97.2980   22.00 2.20  0.00  0.00  0.00        169
QTS        10.040   1.000   P
QTS        18.390   1.000   S
CHM        13.930   1.000   P
CHM        22.940   1.000   S
JYG        16.310   1.000   P
JYG        27.840   1.000   S
YJZ        28.380   1.000   P
YJZ        48.000   1.000   S
# 2023 11  9 21 30  8.70  39.3520   97.2570   12.00 1.70  0.00  0.00  0.00        171
YJZ        27.080   1.000   P
YJZ        46.680   1.000   S
# 2023 11 12 21 49 16.10  39.2130   97.2990   17.00 2.10  0.00  0.00  0.00        172
QTS        10.670   1.000   P
QTS        19.020   1.000   S
YJZ        28.690   1.000   P
YJZ        49.240   1.000   S
# 2023 11 13  0 32 12.00  39.2070   97.3220   15.00 1.80  0.00  0.00  0.00        173
QTS        10.120   1.000   P
QTS        18.050   1.000   S
CHM        14.410   1.000   P
CHM        23.750   1.000   S
YJZ        28.540   1.000   P
YJZ        48.720   1.000   S
# 2023 11 13  5 32 47.50  39.3580   97.3120   25.00 2.30  0.00  0.00  0.00        174
QTS         8.760   1.000   P
QTS        16.780   1.000   S
CHM        12.300   1.000   P
CHM        21.520   1.000   S
# 2023 11 13  6  8 24.90  39.3170   97.1740   21.00 2.10  0.00  0.00  0.00        175
QTS        10.560   1.000   P
QTS        18.820   1.000   S
JFS        22.690   1.000   P
JFS        38.880   1.000   S
YJZ        28.900   1.000   P
YJZ        48.960   1.000   S
GTA        36.230   1.000   P
GTA        62.350   1.000   S
# 2023 11 14 22 34 54.90  39.2390   97.2480   12.00 1.50  0.00  0.00  0.00        179
QTS        10.450   1.000   P
QTS        19.070   1.000   S
AXX        29.570   1.000   P
AXX        51.230   1.000   S
GTA        35.920   1.000   P
GTA        61.940   1.000   S
# 2023 11 15 15 54 10.90  39.3250   97.3100   27.00 2.60  0.00  0.00  0.00        180
QTS         9.260   1.000   P
QTS        16.980   1.000   S
CHM        13.180   1.000   P
CHM        23.030   1.000   S
JYG        15.470   1.000   P
JYG        27.340   1.000   S
# 2023 11 15 18  7 50.30  39.2740   97.2910   12.00 2.40  0.00  0.00  0.00        181
QTS         9.660   1.000   P
QTS        17.410   1.000   S
CHM        13.210   1.000   P
CHM        23.490   1.000   S
JYG        15.970   1.000   P
JYG        27.970   1.000   S
JFS        21.080   1.000   P
JFS        36.540   1.000   S
YJZ        27.630   1.000   P
YJZ        48.080   1.000   S
# 2023 11 15 19 42 14.50  39.2110   97.3350   11.00 2.20  0.00  0.00  0.00        182
QTS         9.820   1.000   P
QTS        18.630   1.000   S
CHM        14.610   1.000   P
CHM        25.270   1.000   S
# 2023 11 16  6  6 14.70  39.3720   97.2970   25.00 2.00  0.00  0.00  0.00        183
QTS         8.820   1.000   P
QTS        16.650   1.000   S
CHM        12.220   1.000   P
CHM        21.980   1.000   S
JYG        15.320   1.000   P
JYG        26.750   1.000   S
SBC        19.950   1.000   P
SBC        34.310   1.000   S
AXX        27.470   1.000   P
AXX        49.060   1.000   S
# 2023 11 16 14 19 15.40  39.1790   97.3520   11.00 1.60  0.00  0.00  0.00        184
QTS        10.810   1.000   P
QTS        18.910   1.000   S
CHM        15.480   1.000   P
CHM        26.070   1.000   S
# 2023 11 18  3 34  0.70  39.1740   97.3670   15.00 2.00  0.00  0.00  0.00        186
QTS        10.750   1.000   P
QTS        18.140   1.000   S
CHM        14.550   1.000   P
CHM        25.470   1.000   S
YJZ        28.820   1.000   P
YJZ        48.800   1.000   S
# 2023 11 19  0 31 57.90  39.3300   97.2600   19.00 2.50  0.00  0.00  0.00        188
QTS         9.150   1.000   P
QTS        17.150   1.000   S
JYG        15.420   1.000   P
JYG        27.190   1.000   S
YJZ        27.130   1.000   P
YJZ        47.190   1.000   S
# 2023 11 19 15  2 23.10  39.3000   97.2990   13.00 2.20  0.00  0.00  0.00        189
QTS         9.380   1.000   P
QTS        18.060   1.000   S
JFS        20.350   1.000   P
JFS        35.880   1.000   S
# 2023 11 19 18 51 30.60  39.3150   97.3180   27.00 2.10  0.00  0.00  0.00        190
QTS         8.790   1.000   P
QTS        16.880   1.000   S
JYG        15.150   1.000   P
JYG        26.880   1.000   S
# 2023 11 20  4 46  2.90  39.3040   97.3040   21.00 2.50  0.00  0.00  0.00        191
QTS         9.470   1.000   P
QTS        17.020   1.000   S
CHM        13.200   1.000   P
CHM        23.650   1.000   S
JYG        15.650   1.000   P
JYG        26.870   1.000   S
JFS        21.090   1.000   P
JFS        35.500   1.000   S
YJZ        27.510   1.000   P
YJZ        47.110   1.000   S
# 2023 11 21 17 22 55.50  39.1790   97.2840   13.00 1.50  0.00  0.00  0.00        192
QTS        11.440   1.000   P
QTS        18.790   1.000   S
CHM        14.560   1.000   P
CHM        25.470   1.000   S
# 2023 11 22 17 54 26.20  39.2410   97.2950   14.00 2.00  0.00  0.00  0.00        195
QTS        10.000   1.000   P
QTS        17.370   1.000   S
CHM        13.200   1.000   P
CHM        23.360   1.000   S
JYG        16.810   1.000   P
JYG        27.910   1.000   S
YJZ        28.370   1.000   P
YJZ        48.100   1.000   S
AXX        29.320   1.000   P
AXX        49.680   1.000   S
# 2023 11 26 20 56 46.90  39.2760   97.2870   11.00 2.40  0.00  0.00  0.00        203
QTS         9.630   1.000   P
QTS        17.190   1.000   S
CHM        13.430   1.000   P
CHM        23.560   1.000   S
JYG        15.940   1.000   P
JYG        27.280   1.000   S
JFS        21.550   1.000   P
JFS        37.360   1.000   S
YJZ        27.610   1.000   P
YJZ        47.970   1.000   S
GTA        34.700   1.000   P
GTA        60.780   1.000   S
# 2023 11 27 20  3 36.90  39.2880   97.3360   31.00 2.30  0.00  0.00  0.00        205
QTS         9.720   1.000   P
QTS        17.540   1.000   S
CHM        13.160   1.000   P
CHM        24.000   1.000   S
JYG        15.930   1.000   P
JYG        27.320   1.000   S
SBC        20.870   1.000   P
SBC        35.350   1.000   S
GTA        34.470   1.000   P
GTA        58.110   1.000   S
# 2023 11 27 20 51 22.40  39.2470   97.2950   13.00 2.10  0.00  0.00  0.00        206
QTS         9.950   1.000   P
QTS        17.990   1.000   S
CHM        13.520   1.000   P
CHM        23.710   1.000   S
JYG        17.050   1.000   P
JYG        28.240   1.000   S
JFS        20.720   1.000   P
JFS        35.540   1.000   S
YJZ        27.920   1.000   P
YJZ        48.490   1.000   S
# 2023 12  1 12 28 14.60  39.2780   97.3040   22.00 2.60  0.00  0.00  0.00        207
QTS         9.290   1.000   P
QTS        17.750   1.000   S
CHM        13.470   1.000   P
CHM        23.170   1.000   S
JYG        15.680   1.000   P
JYG        27.140   1.000   S
JFS        20.510   1.000   P
JFS        35.910   1.000   S
YJZ        27.690   1.000   P
YJZ        47.700   1.000   S
GTA        34.200   1.000   P
GTA        59.640   1.000   S
# 2023 12  1 14 55 55.50  39.2920   97.2780   11.00 5.30  0.00  0.00  0.00        208
QTS        10.060   1.000   P
QTS        18.360   1.000   S
CHM        13.250   1.000   P
CHM        24.470   1.000   S
JYG        16.220   1.000   P
JYG        28.250   1.000   S
SBC        20.550   1.000   P
SBC        37.450   1.000   S
JFS        20.400   1.000   P
JFS        36.290   1.000   S
YJZ        27.980   1.000   P
YJZ        48.060   1.000   S
AXX        28.220   1.000   P
AXX        49.900   1.000   S
SNT        32.740   1.000   P
SNT        58.320   1.000   S
GTA        34.660   1.000   P
GTA        60.260   1.000   S
LYT        40.250   1.000   P
LYT        70.450   1.000   S
SDT        50.710   1.000   P
SDT        92.340   1.000   S
# 2023 12  1 15  4 48.70  39.2340   97.2900   12.00 3.70  0.00  0.00  0.00        209
QTS        10.400   1.000   P
QTS        19.240   1.000   S
JYG        16.420   1.000   P
JYG        28.160   1.000   S
JFS        20.660   1.000   P
JFS        37.430   1.000   S
SNT        33.170   1.000   P
SNT        58.220   1.000   S
YWX        35.230   1.000   P
YWX        59.380   1.000   S
GTA        34.970   1.000   P
GTA        60.230   1.000   S
# 2023 12  1 15  8 30.10  39.2720   97.3190   25.00 3.00  0.00  0.00  0.00        210
QTS         9.670   1.000   P
QTS        17.970   1.000   S
CHM        13.450   1.000   P
CHM        23.630   1.000   S
JYG        15.690   1.000   P
JYG        27.560   1.000   S
SBC        22.210   1.000   P
SBC        38.200   1.000   S
JFS        20.570   1.000   P
JFS        35.540   1.000   S
YWX        34.820   1.000   P
YWX        58.250   1.000   S
# 2023 12  1 15 17 53.40  39.2610   97.2620   11.00 1.90  0.00  0.00  0.00        211
QTS        10.310   1.000   P
QTS        18.220   1.000   S
CHM        13.520   1.000   P
CHM        23.360   1.000   S
JYG        16.820   1.000   P
JYG        28.400   1.000   S
# 2023 12  1 15 19 17.00  39.2510   97.3130   25.00 2.70  0.00  0.00  0.00        212
QTS        10.180   1.000   P
QTS        18.460   1.000   S
CHM        13.780   1.000   P
CHM        24.300   1.000   S
JYG        16.300   1.000   P
JYG        28.400   1.000   S
# 2023 12  1 15 25 40.60  39.1780   97.3210   10.00 1.50  0.00  0.00  0.00        213
QTS        10.990   1.000   P
QTS        19.330   1.000   S
CHM        15.330   1.000   P
CHM        25.730   1.000   S
YJZ        29.300   1.000   P
YJZ        49.460   1.000   S
# 2023 12  1 15 28 58.00  39.2970   97.3120   25.00 2.20  0.00  0.00  0.00        214
QTS         9.760   1.000   P
QTS        18.460   1.000   S
CHM        13.180   1.000   P
CHM        24.120   1.000   S
# 2023 12  1 15 29 27.70  39.2020   97.3050   15.00 2.60  0.00  0.00  0.00        215
QTS        10.140   1.000   P
QTS        18.350   1.000   S
CHM        13.570   1.000   P
CHM        24.000   1.000   S
YJZ        28.580   1.000   P
YJZ        49.050   1.000   S
ZHY        46.320   1.000   P
ZHY        79.650   1.000   S
# 2023 12  1 15 36 41.30  39.2430   97.2590    7.00 3.30  0.00  0.00  0.00        216
QTS        10.290   1.000   P
QTS        18.590   1.000   S
CHM        13.670   1.000   P
CHM        24.400   1.000   S
JFS        21.080   1.000   P
JFS        36.700   1.000   S
YJZ        28.520   1.000   P
YJZ        50.390   1.000   S
YWX        34.140   1.000   P
YWX        58.550   1.000   S
GTA        35.080   1.000   P
GTA        60.550   1.000   S
# 2023 12  1 15 52  1.40  39.3470   97.2380   12.00 3.80  0.00  0.00  0.00        217
QTS         7.980   1.000   P
QTS        16.480   1.000   S
JYG        14.090   1.000   P
JYG        25.920   1.000   S
SBC        18.870   1.000   P
SBC        36.060   1.000   S
JFS        18.150   1.000   P
JFS        34.040   1.000   S
YJZ        25.870   1.000   P
YJZ        46.880   1.000   S
AXX        26.720   1.000   P
AXX        48.440   1.000   S
YWX        31.880   1.000   P
YWX        56.710   1.000   S
SBT        30.930   1.000   P
SBT        54.770   1.000   S
GTA        32.570   1.000   P
GTA        58.160   1.000   S
# 2023 12  1 15 57 21.00  39.2000   97.3210   15.00 1.40  0.00  0.00  0.00        218
QTS        10.300   1.000   P
QTS        18.390   1.000   S
YJZ        28.700   1.000   P
YJZ        48.460   1.000   S
# 2023 12  1 15 58 41.60  39.2430   97.2960   12.00 2.20  0.00  0.00  0.00        219
QTS        10.280   1.000   P
QTS        18.580   1.000   S
CHM        14.060   1.000   P
CHM        24.230   1.000   S
JYG        16.450   1.000   P
JYG        28.230   1.000   S
JFS        21.150   1.000   P
JFS        36.530   1.000   S
YJZ        28.290   1.000   P
YJZ        48.510   1.000   S
GTA        35.080   1.000   P
GTA        60.340   1.000   S
# 2023 12  1 16  2 25.60  39.1750   97.3210   14.00 1.60  0.00  0.00  0.00        220
QTS        10.860   1.000   P
QTS        18.900   1.000   S
SBC        22.950   1.000   P
SBC        38.600   1.000   S
YJZ        28.910   1.000   P
YJZ        49.230   1.000   S
# 2023 12  1 16  7 15.60  39.2530   97.2770   20.00 3.50  0.00  0.00  0.00        221
QTS        10.450   1.000   P
QTS        18.570   1.000   S
CHM        13.510   1.000   P
CHM        24.190   1.000   S
JYG        16.600   1.000   P
JYG        28.590   1.000   S
JFS        21.280   1.000   P
JFS        36.230   1.000   S
# 2023 12  1 16  8 47.20  39.2320   97.2710   15.00 3.60  0.00  0.00  0.00        222
QTS        10.680   1.000   P
QTS        18.910   1.000   S
CHM        14.060   1.000   P
CHM        24.220   1.000   S
JYG        16.760   1.000   P
JYG        28.760   1.000   S
JFS        21.340   1.000   P
JFS        36.930   1.000   S
YJZ        28.510   1.000   P
YJZ        49.190   1.000   S
YWX        35.300   1.000   P
YWX        58.290   1.000   S
# 2023 12  1 16 11 55.90  39.2000   97.2950   24.00 2.00  0.00  0.00  0.00        223
QTS        11.470   1.000   P
QTS        19.260   1.000   S
CHM        14.650   1.000   P
CHM        25.060   1.000   S
JYG        17.790   1.000   P
JYG        29.630   1.000   S
SNT        33.030   1.000   P
SNT        57.630   1.000   S
# 2023 12  1 16 12 52.50  39.3060   97.2950   11.00 2.20  0.00  0.00  0.00        224
QTS         9.110   1.000   P
QTS        16.600   1.000   S
CHM        12.670   1.000   P
CHM        22.040   1.000   S
JYG        15.660   1.000   P
JYG        26.990   1.000   S
YJZ        27.440   1.000   P
YJZ        47.010   1.000   S
# 2023 12  1 16 29 27.90  39.2500   97.2960   25.00 2.20  0.00  0.00  0.00        225
QTS        10.310   1.000   P
QTS        18.900   1.000   S
CHM        13.810   1.000   P
CHM        24.330   1.000   S
YJZ        28.350   1.000   P
YJZ        48.470   1.000   S
# 2023 12  1 16 31 53.40  39.2340   97.2960   20.00 2.90  0.00  0.00  0.00        226
QTS        10.360   1.000   P
QTS        18.610   1.000   S
CHM        13.950   1.000   P
CHM        24.440   1.000   S
JYG        16.510   1.000   P
JYG        28.260   1.000   S
JFS        21.290   1.000   P
JFS        35.590   1.000   S
YJZ        28.680   1.000   P
YJZ        48.460   1.000   S
# 2023 12  1 16 38 23.10  39.2460   97.3030   11.00 1.70  0.00  0.00  0.00        227
QTS        10.090   1.000   P
QTS        17.880   1.000   S
CHM        13.730   1.000   P
CHM        23.720   1.000   S
YJZ        28.390   1.000   P
YJZ        48.260   1.000   S
# 2023 12  1 16 53 56.90  39.1770   97.2730   22.00 1.40  0.00  0.00  0.00        228
QTS        11.600   1.000   P
QTS        20.380   1.000   S
CHM        14.740   1.000   P
CHM        25.350   1.000   S
YJZ        29.970   1.000   P
YJZ        50.030   1.000   S
# 2023 12  1 17 10 47.40  39.2460   97.2890   12.00 1.90  0.00  0.00  0.00        230
QTS         9.960   1.000   P
QTS        17.700   1.000   S
SBC        21.620   1.000   P
SBC        37.740   1.000   S
YJZ        28.400   1.000   P
YJZ        47.920   1.000   S
AXX        29.250   1.000   P
AXX        50.220   1.000   S
# 2023 12  1 17 17  2.70  39.2640   97.3000   11.00 2.00  0.00  0.00  0.00        231
QTS         9.430   1.000   P
QTS        17.400   1.000   S
JYG        16.540   1.000   P
JYG        27.730   1.000   S
SBC        20.210   1.000   P
SBC        36.400   1.000   S
YJZ        27.840   1.000   P
YJZ        47.930   1.000   S
# 2023 12  1 17 42 22.30  39.2370   97.2700   15.00 1.80  0.00  0.00  0.00        232
QTS         9.860   1.000   P
QTS        17.980   1.000   S
YJZ        28.270   1.000   P
YJZ        48.550   1.000   S
GTA        34.950   1.000   P
GTA        60.740   1.000   S
# 2023 12  1 18  0 55.50  39.2940   97.2310   10.00 1.40  0.00  0.00  0.00        233
QTS         9.780   1.000   P
QTS        17.860   1.000   S
SBC        19.380   1.000   P
SBC        36.670   1.000   S
YJZ        28.150   1.000   P
YJZ        48.310   1.000   S
AXX        28.500   1.000   P
AXX        48.920   1.000   S
# 2023 12  1 18  5 32.90  39.2330   97.2670   12.00 1.40  0.00  0.00  0.00        234
QTS        10.580   1.000   P
QTS        19.060   1.000   S
YJZ        28.850   1.000   P
YJZ        49.260   1.000   S
GTA        35.610   1.000   P
GTA        61.270   1.000   S
# 2023 12  1 18  8  4.40  39.2170   97.2870   12.00 1.60  0.00  0.00  0.00        235
QTS        10.820   1.000   P
QTS        18.880   1.000   S
GTA        35.250   1.000   P
GTA        60.550   1.000   S
# 2023 12  1 18 11 48.70  39.2390   97.2390   25.00 1.80  0.00  0.00  0.00        236
QTS        10.890   1.000   P
QTS        19.850   1.000   S
JFS        21.870   1.000   P
JFS        38.220   1.000   S
YJZ        28.900   1.000   P
YJZ        49.880   1.000   S
# 2023 12  1 18 14 16.70  39.3060   97.3130   25.00 2.60  0.00  0.00  0.00        237
QTS         9.410   1.000   P
QTS        17.080   1.000   S
CHM        13.320   1.000   P
CHM        23.100   1.000   S
JYG        15.760   1.000   P
JYG        27.540   1.000   S
# 2023 12  1 18 18 42.80  39.1780   97.2960   11.00 1.20  0.00  0.00  0.00        238
QTS        11.360   1.000   P
QTS        19.420   1.000   S
YJZ        29.690   1.000   P
YJZ        49.930   1.000   S
AXX        30.280   1.000   P
AXX        52.650   1.000   S
# 2023 12  1 18 24 42.00  39.2390   97.2510   13.00 1.60  0.00  0.00  0.00        239
QTS        10.480   1.000   P
QTS        19.010   1.000   S
YJZ        28.830   1.000   P
YJZ        50.090   1.000   S
# 2023 12  1 18 27 32.80  39.1790   97.3210   14.00 1.20  0.00  0.00  0.00        240
QTS        10.950   1.000   P
QTS        19.070   1.000   S
CHM        14.330   1.000   P
CHM        24.580   1.000   S
YJZ        29.080   1.000   P
YJZ        48.740   1.000   S
