# 2019  9 22  9  3 56.42  27.6835  102.6955    5.30 -0.20  0.00  0.00  0.00        335
ZD64        5.290   1.000   P
ZD64       10.370   1.000   S
ZD71        3.740   1.000   P
ZD71        7.450   1.000   S
ZD80       11.240   1.000   P
ZD80       20.050   1.000   S
ZD75        7.690   1.000   P
ZD75       13.440   1.000   S
ZD76        7.610   1.000   P
ZD76       12.820   1.000   S
ZD79        9.770   1.000   P
ZD79       16.470   1.000   S
ZD81        9.300   1.000   P
ZD81       15.400   1.000   S
# 2019  9 22  9 54 51.66  27.3865  102.7357    9.10 -0.40  0.00  0.00  0.00        336
ZD76        2.390   1.000   P
ZD76        5.110   1.000   S
ZD71        3.380   1.000   P
ZD71        6.110   1.000   S
ZD70        4.300   1.000   P
ZD70        7.560   1.000   S
ZD79        4.230   1.000   P
ZD79        7.240   1.000   S
ZD81        3.880   1.000   P
ZD81        6.020   1.000   S
# 2019  9 23  4 50 33.55  27.0577  102.0773    5.10 -0.60  0.00  0.00  0.00        337
ZD67        7.630   1.000   P
ZD67       13.710   1.000   S
ZD56       13.420   1.000   P
ZD56       23.050   1.000   S
ZD70       11.020   1.000   P
ZD70       18.640   1.000   S
ZD74        4.960   1.000   P
ZD74        8.040   1.000   S
ZD69        8.210   1.000   P
ZD69       13.520   1.000   S
ZD59       14.920   1.000   P
ZD59       24.730   1.000   S
# 2019  9 25 20 35 51.23  27.7267  103.1517   20.50 -0.40  0.00  0.00  0.00        338
ZD70       11.420   1.000   P
ZD70       20.360   1.000   S
ZD71       10.260   1.000   P
ZD71       18.080   1.000   S
ZD80       13.430   1.000   P
ZD80       23.290   1.000   S
ZD75       12.420   1.000   P
ZD75       20.870   1.000   S
ZD76       11.880   1.000   P
ZD76       19.900   1.000   S
# 2019  9 25  4 42 19.49  27.0828  102.0912    7.40 -0.50  0.00  0.00  0.00        339
ZD67        6.780   1.000   P
ZD67       12.750   1.000   S
ZD70       10.080   1.000   P
ZD70       17.600   1.000   S
ZD64       11.280   1.000   P
ZD64       19.430   1.000   S
ZD74        4.420   1.000   P
ZD74        7.440   1.000   S
ZD56       12.910   1.000   P
ZD56       21.910   1.000   S
# 2019  9 25 17 27 44.72  27.3182  102.9905   10.90 -0.70  0.00  0.00  0.00        340
ZD76        5.920   1.000   P
ZD76       10.050   1.000   S
ZD79        6.780   1.000   P
ZD79       10.540   1.000   S
ZD78        4.370   1.000   P
ZD78        5.740   1.000   S
ZD75        6.640   1.000   P
ZD75        9.100   1.000   S
# 2019  9 27 16  3 44.43  27.0235  102.7268    9.90 -0.70  0.00  0.00  0.00        341
ZD80        1.840   1.000   P
ZD80        4.100   1.000   S
ZD78        3.680   1.000   P
ZD78        6.510   1.000   S
ZD81        4.860   1.000   P
ZD81        8.500   1.000   S
ZD79        3.840   1.000   P
ZD79        6.710   1.000   S
ZD76        6.080   1.000   P
ZD76       10.520   1.000   S
ZD70        9.530   1.000   P
ZD70       16.090   1.000   S
ZD67       13.890   1.000   P
ZD67       23.610   1.000   S
# 2019  9 29  2  9  2.10  27.2102  102.7797   18.40 -0.10  0.00  0.00  0.00        342
ZD64        7.970   1.000   P
ZD64       15.160   1.000   S
ZD76        4.010   1.000   P
ZD76        7.140   1.000   S
ZD70        6.830   1.000   P
ZD70       11.240   1.000   S
ZD79        3.040   1.000   P
ZD79        4.380   1.000   S
# 2019  9 29  3 46 25.35  27.0925  102.0760   19.90 -0.40  0.00  0.00  0.00        343
ZD70        9.860   1.000   P
ZD70       17.460   1.000   S
ZD64       11.260   1.000   P
ZD64       19.820   1.000   S
ZD69        7.500   1.000   P
ZD69       12.960   1.000   S
ZD74        4.800   1.000   P
ZD74        7.320   1.000   S
# 2019  9 29 16 20 35.94  27.4560  102.4372   31.50 -1.10  0.00  0.00  0.00        344
ZD73        5.000   1.000   P
ZD73        9.360   1.000   S
ZD75        5.040   1.000   P
ZD75        8.260   1.000   S
ZD76        2.920   1.000   P
ZD76        4.490   1.000   S
ZD79        7.590   1.000   P
ZD79       11.760   1.000   S
# 2019  9 29 17 54 16.31  27.2208  102.7820   10.30 -0.70  0.00  0.00  0.00        345
ZD79        2.300   1.000   P
ZD79        4.640   1.000   S
ZD80        2.890   1.000   P
ZD80        4.960   1.000   S
ZD81        1.860   1.000   P
ZD81        2.600   1.000   S
ZD76        6.730   1.000   P
ZD76       10.440   1.000   S
# 2019 10  1  0 49 21.33  27.5550  102.2007   10.50 -0.30  0.00  0.00  0.00        346
ZD70        5.850   1.000   P
ZD70       10.390   1.000   S
ZD68        2.320   1.000   P
ZD68        4.250   1.000   S
ZD56        4.910   1.000   P
ZD56        8.670   1.000   S
ZD59        4.600   1.000   P
ZD59        8.130   1.000   S
ZD74        7.490   1.000   P
ZD74       13.110   1.000   S
ZD69        3.620   1.000   P
ZD69        6.340   1.000   S
ZD64        4.000   1.000   P
ZD64        6.970   1.000   S
ZD67        3.320   1.000   P
ZD67        5.670   1.000   S
ZD63        1.460   1.000   P
ZD63        2.380   1.000   S
# 2019 10  1 18  0 43.30  27.4987  102.5870   19.60 -1.60  0.00  0.00  0.00        347
ZD64        4.270   1.000   P
ZD64        7.330   1.000   S
ZD70        3.000   1.000   P
ZD70        4.730   1.000   S
ZD71        2.350   1.000   P
ZD71        3.430   1.000   S
ZD75        3.830   1.000   P
ZD75        4.880   1.000   S
# 2019 10  4 12 44 25.24  27.2442  102.8223   16.20 -0.40  0.00  0.00  0.00        348
ZD80        3.670   1.000   P
ZD80        6.640   1.000   S
ZD81        1.890   1.000   P
ZD81        3.430   1.000   S
ZD78        3.560   1.000   P
ZD78        6.320   1.000   S
ZD75        5.920   1.000   P
ZD75       10.370   1.000   S
ZD70        6.710   1.000   P
ZD70       11.720   1.000   S
ZD79        3.420   1.000   P
ZD79        5.850   1.000   S
ZD71        6.340   1.000   P
ZD71       10.830   1.000   S
ZD69        9.010   1.000   P
ZD69       15.290   1.000   S
# 2019 10  4 17 57 28.30  27.4190  102.3803    8.40 -0.90  0.00  0.00  0.00        349
ZD69        0.290   1.000   P
ZD69        1.960   1.000   S
ZD71        4.310   1.000   P
ZD71        8.040   1.000   S
ZD64        3.890   1.000   P
ZD64        6.420   1.000   S
ZD70        2.530   1.000   P
ZD70        3.810   1.000   S
# 2019 10  6 22 15 21.82  27.0315  102.1780   23.10 -0.40  0.00  0.00  0.00        350
ZD79        8.380   1.000   P
ZD79       13.480   1.000   S
ZD59       13.290   1.000   P
ZD59       21.650   1.000   S
ZD75        8.840   1.000   P
ZD75       13.890   1.000   S
ZD67        7.840   1.000   P
ZD67       11.430   1.000   S
ZD69        8.450   1.000   P
ZD69       11.340   1.000   S
# 2019 10  7 21 10  1.30  27.2788  102.6588    7.60 0.00  0.00  0.00  0.00        351
ZD70        4.240   1.000   P
ZD70        8.520   1.000   S
ZD81        3.640   1.000   P
ZD81        6.940   1.000   S
ZD77        2.100   1.000   P
ZD77        4.110   1.000   S
ZD75        3.020   1.000   P
ZD75        5.670   1.000   S
ZD79        1.590   1.000   P
ZD79        3.150   1.000   S
ZD76        1.080   1.000   P
ZD76        2.130   1.000   S
ZD80        3.640   1.000   P
ZD80        6.510   1.000   S
ZD71        4.790   1.000   P
ZD71        8.430   1.000   S
ZD67       11.000   1.000   P
ZD67       18.330   1.000   S
ZD69        6.700   1.000   P
ZD69       10.570   1.000   S
ZD59       11.450   1.000   P
ZD59       18.780   1.000   S
# 2019 10  7 20 13 13.41  27.6635  102.3773   11.90 -1.00  0.00  0.00  0.00        352
ZD67        5.160   1.000   P
ZD67        9.780   1.000   S
ZD59        2.360   1.000   P
ZD59        4.290   1.000   S
ZD64        1.810   1.000   P
ZD64        3.280   1.000   S
ZD69        5.150   1.000   P
ZD69        8.460   1.000   S
# 2019 10  9  8 57 10.49  27.5913  102.5870   31.60 -0.20  0.00  0.00  0.00        353
ZD68        7.840   1.000   P
ZD68       13.300   1.000   S
ZD64        5.620   1.000   P
ZD64        8.510   1.000   S
ZD59        5.640   1.000   P
ZD59        8.370   1.000   S
ZD70        5.020   1.000   P
ZD70        6.690   1.000   S
ZD75        5.890   1.000   P
ZD75        7.450   1.000   S
# 2019 10  9 15  1  7.94  27.0123  102.2012    7.80 -0.50  0.00  0.00  0.00        354
ZD79        8.420   1.000   P
ZD79       14.910   1.000   S
ZD70       10.000   1.000   P
ZD70       17.360   1.000   S
ZD76        8.450   1.000   P
ZD76       14.620   1.000   S
ZD80        8.880   1.000   P
ZD80       15.010   1.000   S
# 2019 10  9  3 38 35.90  27.3228  102.6000    9.90 -0.40  0.00  0.00  0.00        355
ZD70        3.290   1.000   P
ZD70        7.000   1.000   S
ZD69        5.000   1.000   P
ZD69        9.650   1.000   S
ZD71        3.850   1.000   P
ZD71        7.340   1.000   S
ZD77        2.360   1.000   P
ZD77        4.640   1.000   S
ZD76        0.820   1.000   P
ZD76        1.840   1.000   S
ZD75        1.920   1.000   P
ZD75        3.250   1.000   S
# 2019 10  9 10  9 21.15  27.8140  102.0940   19.20 -0.20  0.00  0.00  0.00        356
ZD59        4.650   1.000   P
ZD59        8.290   1.000   S
ZD58        3.260   1.000   P
ZD58        5.770   1.000   S
ZD56        3.400   1.000   P
ZD56        5.790   1.000   S
ZD64        6.960   1.000   P
ZD64       11.730   1.000   S
# 2019 10 10  7 37 52.20  27.5992  102.0673    7.80 -0.70  0.00  0.00  0.00        357
ZD56        2.740   1.000   P
ZD56        4.850   1.000   S
ZD67        3.220   1.000   P
ZD67        5.500   1.000   S
ZD64        6.240   1.000   P
ZD64       10.710   1.000   S
ZD69        7.330   1.000   P
ZD69       12.090   1.000   S
# 2019 10 11  9 32 23.86  27.2585  102.6550   22.40 -0.10  0.00  0.00  0.00        358
ZD71        5.160   1.000   P
ZD71        9.460   1.000   S
ZD79        3.030   1.000   P
ZD79        5.660   1.000   S
ZD69        7.080   1.000   P
ZD69       12.500   1.000   S
ZD70        5.230   1.000   P
ZD70        9.260   1.000   S
ZD76        1.380   1.000   P
ZD76        2.530   1.000   S
ZD77        3.290   1.000   P
ZD77        5.750   1.000   S
ZD75        3.890   1.000   P
ZD75        6.740   1.000   S
# 2019 10 11 10 38  3.21  27.1510  102.6333   15.80 -0.50  0.00  0.00  0.00        359
ZD76        3.430   1.000   P
ZD76        6.520   1.000   S
ZD79        1.900   1.000   P
ZD79        3.570   1.000   S
ZD80        2.160   1.000   P
ZD80        3.770   1.000   S
ZD71        6.710   1.000   P
ZD71       11.650   1.000   S
ZD81        4.550   1.000   P
ZD81        7.830   1.000   S
ZD74        5.750   1.000   P
ZD74        9.760   1.000   S
ZD77        2.820   1.000   P
ZD77        4.610   1.000   S
ZD69        7.430   1.000   P
ZD69       12.140   1.000   S
# 2019 10 11  0 20 56.97  27.3060  102.7823    8.60 -0.90  0.00  0.00  0.00        360
ZD79        3.110   1.000   P
ZD79        5.870   1.000   S
ZD64        6.790   1.000   P
ZD64       11.880   1.000   S
ZD70        5.830   1.000   P
ZD70        9.590   1.000   S
ZD71        5.210   1.000   P
ZD71        7.550   1.000   S
# 2019 10 12 22 54 13.19  27.7027  102.0962   18.40 -1.00  0.00  0.00  0.00        361
ZD67        5.480   1.000   P
ZD67       10.220   1.000   S
ZD63        3.160   1.000   P
ZD63        5.770   1.000   S
ZD64        6.000   1.000   P
ZD64       10.520   1.000   S
ZD69        6.920   1.000   P
ZD69       11.840   1.000   S
# 2019 10 13  4  0 29.84  27.1073  102.0990   10.70 -0.70  0.00  0.00  0.00        362
ZD70        9.570   1.000   P
ZD70       17.070   1.000   S
ZD64       10.630   1.000   P
ZD64       18.580   1.000   S
ZD69        6.840   1.000   P
ZD69       11.930   1.000   S
ZD74        4.020   1.000   P
ZD74        6.870   1.000   S
# 2019 10 13  4  1  6.36  27.0763  102.0913   10.90 -0.30  0.00  0.00  0.00        363
ZD74        4.000   1.000   P
ZD74        7.600   1.000   S
ZD75        9.000   1.000   P
ZD75       15.880   1.000   S
ZD64       11.210   1.000   P
ZD64       19.400   1.000   S
ZD69        7.370   1.000   P
ZD69       12.590   1.000   S
# 2019 10 14  4 15  9.26  27.1162  102.0940    5.00 -0.40  0.00  0.00  0.00        364
ZD56       12.560   1.000   P
ZD56       22.850   1.000   S
ZD67        6.610   1.000   P
ZD67       12.480   1.000   S
ZD70        9.960   1.000   P
ZD70       17.350   1.000   S
ZD69        7.260   1.000   P
ZD69       12.600   1.000   S
ZD74        4.070   1.000   P
ZD74        7.030   1.000   S
ZD75        8.750   1.000   P
ZD75       15.000   1.000   S
# 2019 10 14 23 22  9.02  27.3543  102.2180   10.90 -0.60  0.00  0.00  0.00        365
ZD74        3.680   1.000   P
ZD74        5.820   1.000   S
ZD69        2.320   1.000   P
ZD69        3.400   1.000   S
ZD73        3.130   1.000   P
ZD73        4.280   1.000   S
ZD67        3.340   1.000   P
ZD67        4.540   1.000   S
# 2019 10 15 18 36 58.23  27.1242  102.1213    7.80 0.10  0.00  0.00  0.00        366
ZD70        8.110   1.000   P
ZD70       15.630   1.000   S
ZD71       10.330   1.000   P
ZD71       19.120   1.000   S
ZD69        6.860   1.000   P
ZD69       12.330   1.000   S
ZD74        3.800   1.000   P
ZD74        6.840   1.000   S
ZD76        9.680   1.000   P
ZD76       15.930   1.000   S
ZD80        9.890   1.000   P
ZD80       16.070   1.000   S
# 2019 10 15  3 13 38.45  27.0957  102.0735    9.70 -0.50  0.00  0.00  0.00        367
ZD67        6.830   1.000   P
ZD67       12.470   1.000   S
ZD78       13.360   1.000   P
ZD78       23.590   1.000   S
ZD70       10.080   1.000   P
ZD70       17.570   1.000   S
ZD69        7.390   1.000   P
ZD69       12.790   1.000   S
ZD74        4.680   1.000   P
ZD74        7.790   1.000   S
# 2019 10 15 18 37  3.50  27.3183  102.4118   18.90 -0.20  0.00  0.00  0.00        368
ZD59        6.740   1.000   P
ZD59       12.810   1.000   S
ZD64        5.690   1.000   P
ZD64       10.080   1.000   S
ZD75        2.920   1.000   P
ZD75        4.990   1.000   S
ZD81        8.000   1.000   P
ZD81       13.150   1.000   S
ZD78        7.840   1.000   P
ZD78       12.830   1.000   S
# 2019 10 16 19 23  6.10  26.9982  102.7467    9.90 -0.50  0.00  0.00  0.00        369
ZD71       10.160   1.000   P
ZD71       18.320   1.000   S
ZD80        2.350   1.000   P
ZD80        4.270   1.000   S
ZD78        3.540   1.000   P
ZD78        6.150   1.000   S
ZD79        4.330   1.000   P
ZD79        7.440   1.000   S
ZD76        6.740   1.000   P
ZD76       10.940   1.000   S
ZD75        8.640   1.000   P
ZD75       13.960   1.000   S
ZD70       10.230   1.000   P
ZD70       16.560   1.000   S
# 2019 10 16 17 57 17.99  27.4550  102.5817   10.40 -1.30  0.00  0.00  0.00        370
ZD70        1.340   1.000   P
ZD70        2.920   1.000   S
ZD75        2.810   1.000   P
ZD75        4.580   1.000   S
ZD69        4.720   1.000   P
ZD69        7.810   1.000   S
ZD67        6.590   1.000   P
ZD67       10.550   1.000   S
# 2019 10 17  4 54 46.38  27.0905  102.0485   10.60 -0.30  0.00  0.00  0.00        371
ZD67        6.860   1.000   P
ZD67       13.170   1.000   S
ZD70       10.330   1.000   P
ZD70       17.850   1.000   S
ZD69        7.430   1.000   P
ZD69       12.760   1.000   S
ZD64       11.460   1.000   P
ZD64       19.500   1.000   S
# 2019 10 18 19  3 38.18  27.5237  102.7662   10.10 -0.90  0.00  0.00  0.00        372
ZD71        2.770   1.000   P
ZD71        5.090   1.000   S
ZD76        5.280   1.000   P
ZD76        9.140   1.000   S
ZD64        6.340   1.000   P
ZD64       10.030   1.000   S
ZD79        5.590   1.000   P
ZD79        7.900   1.000   S
ZD70        5.620   1.000   P
ZD70        7.400   1.000   S
# 2019 10 19 11 10 40.47  27.6257  102.5083   12.50 -0.60  0.00  0.00  0.00        373
ZD76        6.140   1.000   P
ZD76       10.180   1.000   S
ZD70        3.690   1.000   P
ZD70        5.770   1.000   S
ZD75        5.600   1.000   P
ZD75        8.460   1.000   S
ZD74        9.070   1.000   P
ZD74       13.910   1.000   S
ZD56        8.560   1.000   P
ZD56       12.080   1.000   S
# 2019 10 19 14 44 32.90  26.9668  102.7730   14.40 -0.40  0.00  0.00  0.00        374
ZD80        3.140   1.000   P
ZD80        5.760   1.000   S
ZD78        3.610   1.000   P
ZD78        6.240   1.000   S
ZD79        4.980   1.000   P
ZD79        8.360   1.000   S
ZD76        7.480   1.000   P
ZD76       12.310   1.000   S
ZD70       10.990   1.000   P
ZD70       18.240   1.000   S
# 2019 10 19  0 15 47.28  27.3022  102.7827   10.50 -1.20  0.00  0.00  0.00        375
ZD79        3.270   1.000   P
ZD79        5.700   1.000   S
ZD69        7.990   1.000   P
ZD69       13.770   1.000   S
ZD71        5.140   1.000   P
ZD71        8.680   1.000   S
ZD78        4.610   1.000   P
ZD78        6.620   1.000   S
# 2019 10 20  4  4 31.86  27.0428  102.1327   18.70 -0.30  0.00  0.00  0.00        376
ZD56       12.710   1.000   P
ZD56       22.700   1.000   S
ZD74        4.400   1.000   P
ZD74        7.670   1.000   S
ZD64       11.470   1.000   P
ZD64       19.740   1.000   S
ZD69        7.650   1.000   P
ZD69       12.660   1.000   S
# 2019 10 20 17 15  8.05  27.9135  103.0135   18.30 -0.80  0.00  0.00  0.00        377
ZD64       11.480   1.000   P
ZD64       19.910   1.000   S
ZD75       13.470   1.000   P
ZD75       23.020   1.000   S
ZD56       16.670   1.000   P
ZD56       28.080   1.000   S
ZD76       12.750   1.000   P
ZD76       21.150   1.000   S
# 2019 10 21 21 47  0.75  27.0232  102.7883   17.00 0.30  0.00  0.00  0.00        378
ZD64       13.280   1.000   P
ZD64       25.070   1.000   S
ZD71        9.680   1.000   P
ZD71       17.760   1.000   S
ZD70        9.710   1.000   P
ZD70       17.620   1.000   S
ZD80        2.770   1.000   P
ZD80        4.940   1.000   S
ZD75        8.310   1.000   P
ZD75       14.480   1.000   S
ZD78        3.010   1.000   P
ZD78        5.260   1.000   S
ZD76        6.400   1.000   P
ZD76       11.130   1.000   S
ZD79        4.320   1.000   P
ZD79        7.450   1.000   S
ZD77        5.970   1.000   P
ZD77       10.220   1.000   S
ZD74        8.650   1.000   P
ZD74       14.760   1.000   S
ZD59       16.080   1.000   P
ZD59       27.610   1.000   S
ZD73        9.400   1.000   P
ZD73       15.980   1.000   S
ZD56       19.130   1.000   P
ZD56       32.600   1.000   S
ZD69       10.810   1.000   P
ZD69       18.100   1.000   S
# 2019 10 21  9 37 32.12  27.7535  101.9127    5.60 -0.20  0.00  0.00  0.00        379
ZD67        7.030   1.000   P
ZD67       13.540   1.000   S
ZD71       13.000   1.000   P
ZD71       23.130   1.000   S
ZD74       14.210   1.000   P
ZD74       25.110   1.000   S
ZD59        7.470   1.000   P
ZD59       13.390   1.000   S
ZD70       11.910   1.000   P
ZD70       21.090   1.000   S
ZD56        1.310   1.000   P
ZD56        2.640   1.000   S
ZD64        9.120   1.000   P
ZD64       16.050   1.000   S
ZD69        9.830   1.000   P
ZD69       17.020   1.000   S
ZD75       13.540   1.000   P
ZD75       22.700   1.000   S
# 2019 10 21  0 26 16.88  27.4100  102.7905   11.00 0.00  0.00  0.00  0.00        380
ZD79        5.060   1.000   P
ZD79        7.690   1.000   S
ZD70        4.240   1.000   P
ZD70        6.240   1.000   S
ZD80        5.500   1.000   P
ZD80        7.850   1.000   S
ZD75        5.990   1.000   P
ZD75        8.290   1.000   S
# 2019 10 21  3 53 40.15  27.2658  102.4380   33.60 0.00  0.00  0.00  0.00        381
ZD73        4.700   1.000   P
ZD73        8.310   1.000   S
ZD75        4.890   1.000   P
ZD75        8.570   1.000   S
ZD74        5.220   1.000   P
ZD74        8.730   1.000   S
ZD80        9.800   1.000   P
ZD80       15.430   1.000   S
# 2019 10 22  4 39 31.88  27.0812  102.0613    5.70 -0.20  0.00  0.00  0.00        382
ZD67        7.390   1.000   P
ZD67       13.130   1.000   S
ZD74        4.830   1.000   P
ZD74        7.880   1.000   S
ZD70       10.820   1.000   P
ZD70       18.250   1.000   S
ZD69        7.990   1.000   P
ZD69       13.300   1.000   S
ZD75       10.350   1.000   P
ZD75       16.720   1.000   S
ZD71       13.340   1.000   P
ZD71       21.500   1.000   S
