# 2019  7 31 18 54 36.22  27.3073  102.6210   25.30 -0.40  0.00  0.00  0.00        239
ZD76        3.690   1.000   P
ZD76        5.850   1.000   S
ZD79        3.630   1.000   P
ZD79        5.570   1.000   S
ZD70        4.320   1.000   P
ZD70        5.710   1.000   S
ZD75        4.700   1.000   P
ZD75        6.230   1.000   S
ZD69        5.800   1.000   P
ZD69        7.900   1.000   S
ZD74        6.550   1.000   P
ZD74        9.020   1.000   S
# 2019  7 31 15 33  2.38  27.1598  102.8608   11.80 -0.70  0.00  0.00  0.00        240
ZD78        1.770   1.000   P
ZD78        3.550   1.000   S
ZD76        5.120   1.000   P
ZD76        9.340   1.000   S
ZD81        1.930   1.000   P
ZD81        3.700   1.000   S
ZD75        6.770   1.000   P
ZD75       12.090   1.000   S
ZD79        3.640   1.000   P
ZD79        6.510   1.000   S
ZD70        8.350   1.000   P
ZD70       14.080   1.000   S
ZD74        9.170   1.000   P
ZD74       14.780   1.000   S
# 2019  7 31 15  0 51.09  27.1598  102.8640   11.50 -1.00  0.00  0.00  0.00        241
ZD76        5.360   1.000   P
ZD76        9.790   1.000   S
ZD78        1.710   1.000   P
ZD78        3.420   1.000   S
ZD81        1.910   1.000   P
ZD81        3.690   1.000   S
ZD79        3.690   1.000   P
ZD79        6.650   1.000   S
ZD75        6.930   1.000   P
ZD75       12.160   1.000   S
ZD70        8.230   1.000   P
ZD70       14.380   1.000   S
# 2019  8  1  4 23 37.90  27.0708  102.0637    7.50 -0.60  0.00  0.00  0.00        242
ZD67        7.130   1.000   P
ZD67       13.390   1.000   S
ZD70       10.650   1.000   P
ZD70       18.980   1.000   S
ZD69        7.930   1.000   P
ZD69       13.400   1.000   S
ZD64       12.200   1.000   P
ZD64       20.410   1.000   S
ZD74        5.190   1.000   P
ZD74        7.750   1.000   S
# 2019  8  2 18 49 33.25  27.4653  102.9038    8.10 -0.40  0.00  0.00  0.00        243
ZD69        9.930   1.000   P
ZD69       18.820   1.000   S
ZD70        6.830   1.000   P
ZD70       13.070   1.000   S
ZD78        7.340   1.000   P
ZD78       13.800   1.000   S
ZD80        7.510   1.000   P
ZD80       13.740   1.000   S
ZD71        5.600   1.000   P
ZD71        9.460   1.000   S
# 2019  8  2 14 49 35.51  27.2347  102.5680   18.40 -0.50  0.00  0.00  0.00        244
ZD77        2.230   1.000   P
ZD77        3.930   1.000   S
ZD75        3.090   1.000   P
ZD75        5.410   1.000   S
ZD70        4.810   1.000   P
ZD70        8.330   1.000   S
ZD79        1.870   1.000   P
ZD79        3.210   1.000   S
ZD80        3.880   1.000   P
ZD80        6.520   1.000   S
# 2019  8  2 14 57 30.23  27.0868  102.7838    8.00 -0.70  0.00  0.00  0.00        245
ZD78        1.380   1.000   P
ZD78        4.930   1.000   S
ZD80        0.610   1.000   P
ZD80        3.310   1.000   S
ZD70        8.500   1.000   P
ZD70       16.190   1.000   S
ZD71        8.210   1.000   P
ZD71       14.710   1.000   S
# 2019  8  3  8  6 18.95  27.5547  102.2025   11.80 1.10  0.00  0.00  0.00        246
ZD56        3.620   1.000   P
ZD56        8.550   1.000   S
ZD58        4.400   1.000   P
ZD58        8.810   1.000   S
ZD79       10.280   1.000   P
ZD79       18.250   1.000   S
ZD68        2.270   1.000   P
ZD68        4.150   1.000   S
ZD71        6.830   1.000   P
ZD71       11.990   1.000   S
ZD73        5.500   1.000   P
ZD73        9.660   1.000   S
ZD76        8.340   1.000   P
ZD76       14.530   1.000   S
ZD64        3.970   1.000   P
ZD64        6.930   1.000   S
ZD69        3.640   1.000   P
ZD69        6.350   1.000   S
ZD63        1.540   1.000   P
ZD63        2.700   1.000   S
ZD80       11.830   1.000   P
ZD80       20.550   1.000   S
ZD74        7.270   1.000   P
ZD74       12.610   1.000   S
ZD77        8.390   1.000   P
ZD77       14.440   1.000   S
ZD78       14.800   1.000   P
ZD78       25.560   1.000   S
ZD81       12.600   1.000   P
ZD81       21.580   1.000   S
# 2019  8  3 17 19 59.92  27.8120  102.3193   23.00 -0.90  0.00  0.00  0.00        247
ZD71        7.720   1.000   P
ZD71       14.500   1.000   S
ZD70        7.900   1.000   P
ZD70       13.540   1.000   S
ZD76       10.370   1.000   P
ZD76       17.780   1.000   S
ZD64        5.010   1.000   P
ZD64        7.840   1.000   S
# 2019  8  4  9 26 28.22  27.1218  102.6227   14.40 -0.90  0.00  0.00  0.00        248
ZD76        3.940   1.000   P
ZD76        7.170   1.000   S
ZD79        2.030   1.000   P
ZD79        3.820   1.000   S
ZD80        1.940   1.000   P
ZD80        3.640   1.000   S
ZD77        2.770   1.000   P
ZD77        4.860   1.000   S
ZD75        5.030   1.000   P
ZD75        8.650   1.000   S
ZD74        5.660   1.000   P
ZD74        9.570   1.000   S
# 2019  8  6  4 52 37.27  27.0488  102.0460    6.40 -0.20  0.00  0.00  0.00        249
ZD74        5.290   1.000   P
ZD74        9.460   1.000   S
ZD56       13.770   1.000   P
ZD56       23.740   1.000   S
ZD70       11.290   1.000   P
ZD70       19.430   1.000   S
ZD67        8.040   1.000   P
ZD67       13.780   1.000   S
ZD64       12.310   1.000   P
ZD64       20.800   1.000   S
ZD69        8.540   1.000   P
ZD69       13.770   1.000   S
# 2019  8  6 22 25 52.70  27.4402  102.4225   32.20 -0.70  0.00  0.00  0.00        250
ZD56        9.050   1.000   P
ZD56       16.290   1.000   S
ZD74        6.670   1.000   P
ZD74       10.980   1.000   S
ZD76        5.820   1.000   P
ZD76        8.710   1.000   S
ZD67        8.100   1.000   P
ZD67       12.390   1.000   S
# 2019  8  7  9 48 57.70  26.9920  102.9008    7.20 0.20  0.00  0.00  0.00        251
ZD80        4.350   1.000   P
ZD80        8.160   1.000   S
ZD81        4.850   1.000   P
ZD81        9.000   1.000   S
ZD74       10.710   1.000   P
ZD74       19.060   1.000   S
ZD78        2.290   1.000   P
ZD78        4.430   1.000   S
ZD70       11.300   1.000   P
ZD70       19.980   1.000   S
ZD77        7.790   1.000   P
ZD77       13.570   1.000   S
ZD79        6.000   1.000   P
ZD79       10.410   1.000   S
ZD69       12.650   1.000   P
ZD69       21.740   1.000   S
ZD75        9.680   1.000   P
ZD75       16.520   1.000   S
ZD73       11.280   1.000   P
ZD73       19.200   1.000   S
ZD71       11.500   1.000   P
ZD71       19.220   1.000   S
ZD64       15.620   1.000   P
ZD64       25.120   1.000   S
# 2019  8  7  3 12 16.05  27.3147  102.1505    5.40 0.00  0.00  0.00  0.00        252
ZD70        7.020   1.000   P
ZD70       12.210   1.000   S
ZD75        6.700   1.000   P
ZD75       11.220   1.000   S
ZD74        3.930   1.000   P
ZD74        5.410   1.000   S
ZD71        8.840   1.000   P
ZD71       13.290   1.000   S
# 2019  8  7 11 42 26.27  26.9933  102.9227   15.00 -0.50  0.00  0.00  0.00        253
ZD80        4.500   1.000   P
ZD80        7.920   1.000   S
ZD78        2.450   1.000   P
ZD78        4.270   1.000   S
ZD79        6.030   1.000   P
ZD79       10.420   1.000   S
ZD76        8.150   1.000   P
ZD76       13.710   1.000   S
# 2019  8  7  3 12 12.22  27.6153  102.0445   12.30 -0.40  0.00  0.00  0.00        254
ZD56        2.240   1.000   P
ZD56        4.620   1.000   S
ZD67        3.710   1.000   P
ZD67        6.250   1.000   S
ZD68        4.490   1.000   P
ZD68        7.180   1.000   S
ZD80       14.660   1.000   P
ZD80       23.990   1.000   S
# 2019  8  8  9 33 40.63  27.1587  102.8747   15.60 -0.20  0.00  0.00  0.00        255
ZD77        5.720   1.000   P
ZD77       10.190   1.000   S
ZD76        5.470   1.000   P
ZD76        9.660   1.000   S
ZD81        2.200   1.000   P
ZD81        3.910   1.000   S
ZD70        8.520   1.000   P
ZD70       14.850   1.000   S
ZD79        3.970   1.000   P
ZD79        6.940   1.000   S
ZD78        2.000   1.000   P
ZD78        3.490   1.000   S
ZD75        7.260   1.000   P
ZD75       12.410   1.000   S
ZD71        8.070   1.000   P
ZD71       13.620   1.000   S
ZD74        9.500   1.000   P
ZD74       15.800   1.000   S
ZD56       18.400   1.000   P
ZD56       31.140   1.000   S
ZD64       12.100   1.000   P
ZD64       20.010   1.000   S
# 2019  8  8 21  3 44.38  27.3998  102.5657   11.50 -0.40  0.00  0.00  0.00        256
ZD76        2.180   1.000   P
ZD76        4.230   1.000   S
ZD70        1.690   1.000   P
ZD70        3.290   1.000   S
ZD71        2.330   1.000   P
ZD71        4.310   1.000   S
ZD75        1.790   1.000   P
ZD75        3.350   1.000   S
ZD64        4.920   1.000   P
ZD64        8.700   1.000   S
ZD69        4.220   1.000   P
ZD69        7.260   1.000   S
ZD67        8.680   1.000   P
ZD67       14.780   1.000   S
ZD74        6.270   1.000   P
ZD74       10.480   1.000   S
ZD80        7.080   1.000   P
ZD80       11.390   1.000   S
# 2019  8  8 10 16 26.56  27.2440  102.6800   24.40 -0.30  0.00  0.00  0.00        257
ZD75        4.140   1.000   P
ZD75        7.920   1.000   S
ZD70        5.550   1.000   P
ZD70       10.270   1.000   S
ZD77        3.810   1.000   P
ZD77        6.470   1.000   S
ZD69        7.630   1.000   P
ZD69       12.950   1.000   S
ZD76        1.960   1.000   P
ZD76        3.060   1.000   S
ZD79        3.470   1.000   P
ZD79        5.630   1.000   S
ZD64        9.640   1.000   P
ZD64       16.280   1.000   S
# 2019  8  8  0 50 59.18  27.3833  102.3303   34.40 0.30  0.00  0.00  0.00        258
ZD71        6.470   1.000   P
ZD71       12.830   1.000   S
ZD74        5.460   1.000   P
ZD74       10.210   1.000   S
ZD73        5.690   1.000   P
ZD73       10.020   1.000   S
ZD70        5.880   1.000   P
ZD70        9.280   1.000   S
ZD69        4.480   1.000   P
ZD69        6.460   1.000   S
# 2019  8  8  4 41 54.40  27.1032  102.0733    6.90 -0.60  0.00  0.00  0.00        259
ZD67        6.910   1.000   P
ZD67       13.050   1.000   S
ZD70       10.280   1.000   P
ZD70       17.980   1.000   S
ZD74        4.430   1.000   P
ZD74        7.810   1.000   S
ZD69        7.540   1.000   P
ZD69       12.870   1.000   S
# 2019  8  9 18  8 12.95  27.6905  102.9943    8.50 -0.30  0.00  0.00  0.00        260
ZD80       10.980   1.000   P
ZD80       17.510   1.000   S
ZD79       12.260   1.000   P
ZD79       19.730   1.000   S
ZD81        9.120   1.000   P
ZD81       14.040   1.000   S
ZD67       15.410   1.000   P
ZD67       23.500   1.000   S
# 2019  8  9  5 41 24.33  27.1085  102.1375   18.90 -0.40  0.00  0.00  0.00        261
ZD56       11.710   1.000   P
ZD56       21.290   1.000   S
ZD69        6.380   1.000   P
ZD69       11.760   1.000   S
ZD64       10.420   1.000   P
ZD64       18.250   1.000   S
ZD74        3.850   1.000   P
ZD74        6.470   1.000   S
# 2019  8 10 16 45  5.37  27.8207  102.4007   10.10 0.30  0.00  0.00  0.00        262
ZD71        6.980   1.000   P
ZD71       12.800   1.000   S
ZD64        4.400   1.000   P
ZD64        8.260   1.000   S
ZD70        7.430   1.000   P
ZD70       13.300   1.000   S
ZD58        3.160   1.000   P
ZD58        5.810   1.000   S
ZD67        9.070   1.000   P
ZD67       15.930   1.000   S
ZD63        5.280   1.000   P
ZD63        9.310   1.000   S
ZD75        9.140   1.000   P
ZD75       15.970   1.000   S
ZD68        7.880   1.000   P
ZD68       13.650   1.000   S
ZD56        7.200   1.000   P
ZD56       12.420   1.000   S
ZD76       10.580   1.000   P
ZD76       18.270   1.000   S
ZD69        7.770   1.000   P
ZD69       13.250   1.000   S
ZD74       12.100   1.000   P
ZD74       20.740   1.000   S
# 2019  8 10 12  6 18.00  27.4690  102.7097    6.40 -0.50  0.00  0.00  0.00        263
ZD64        5.990   1.000   P
ZD64       10.850   1.000   S
ZD79        5.570   1.000   P
ZD79        9.850   1.000   S
ZD70        3.540   1.000   P
ZD70        6.090   1.000   S
ZD71        2.100   1.000   P
ZD71        3.510   1.000   S
ZD80        7.320   1.000   P
ZD80       12.510   1.000   S
ZD74        9.000   1.000   P
ZD74       14.750   1.000   S
# 2019  8 10 22 53 27.85  27.7098  102.3377   10.20 -0.60  0.00  0.00  0.00        264
ZD64        2.750   1.000   P
ZD64        6.490   1.000   S
ZD70        5.600   1.000   P
ZD70       11.340   1.000   S
ZD63        3.250   1.000   P
ZD63        7.250   1.000   S
ZD75        7.420   1.000   P
ZD75       14.030   1.000   S
ZD69        6.010   1.000   P
ZD69       11.300   1.000   S
ZD58        2.570   1.000   P
ZD58        3.880   1.000   S
# 2019  8 11  3  4 11.34  27.3165  102.5863    9.70 -0.70  0.00  0.00  0.00        265
ZD70        3.220   1.000   P
ZD70        6.990   1.000   S
ZD69        4.940   1.000   P
ZD69        8.950   1.000   S
ZD75        1.630   1.000   P
ZD75        3.120   1.000   S
ZD76        1.060   1.000   P
ZD76        1.960   1.000   S
ZD71        3.900   1.000   P
ZD71        6.740   1.000   S
# 2019  8 12  4 43 32.08  27.0388  102.0415    9.60 -0.30  0.00  0.00  0.00        266
ZD67        7.850   1.000   P
ZD67       14.900   1.000   S
ZD70       11.130   1.000   P
ZD70       19.420   1.000   S
ZD75        9.750   1.000   P
ZD75       16.760   1.000   S
ZD64       12.320   1.000   P
ZD64       20.920   1.000   S
ZD69        8.440   1.000   P
ZD69       13.610   1.000   S
# 2019  8 12 22 32 19.04  26.9250  102.0208   10.50 0.80  0.00  0.00  0.00        267
ZD71       14.590   1.000   P
ZD71       26.750   1.000   S
ZD81       14.520   1.000   P
ZD81       25.490   1.000   S
ZD79       10.280   1.000   P
ZD79       17.640   1.000   S
ZD78       15.260   1.000   P
ZD78       25.860   1.000   S
# 2019  8 12 17 47 54.35  27.5967  102.1367   20.80 0.00  0.00  0.00  0.00        268
ZD74        7.250   1.000   P
ZD74       14.420   1.000   S
ZD64        5.100   1.000   P
ZD64        9.230   1.000   S
ZD69        5.380   1.000   P
ZD69        9.250   1.000   S
ZD71        8.370   1.000   P
ZD71       13.830   1.000   S
# 2019  8 13 10  2 32.68  27.1452  102.6020   28.50 -0.10  0.00  0.00  0.00        269
ZD64       11.200   1.000   P
ZD64       20.760   1.000   S
ZD67        8.850   1.000   P
ZD67       15.960   1.000   S
ZD81        5.820   1.000   P
ZD81       10.170   1.000   S
ZD79        3.830   1.000   P
ZD79        6.700   1.000   S
ZD77        4.310   1.000   P
ZD77        7.120   1.000   S
ZD75        4.690   1.000   P
ZD75        7.550   1.000   S
ZD69        8.360   1.000   P
ZD69       13.300   1.000   S
# 2019  8 13  4  8  0.12  27.0735  102.0728    5.00 -0.40  0.00  0.00  0.00        270
ZD64       11.910   1.000   P
ZD64       22.530   1.000   S
ZD67        7.270   1.000   P
ZD67       13.150   1.000   S
ZD74        4.780   1.000   P
ZD74        8.060   1.000   S
ZD70       10.740   1.000   P
ZD70       18.220   1.000   S
# 2019  8 14  4 10 50.63  27.8243  102.1030   17.40 -0.40  0.00  0.00  0.00        271
ZD69        8.380   1.000   P
ZD69       14.760   1.000   S
ZD58        3.100   1.000   P
ZD58        5.440   1.000   S
ZD56        3.380   1.000   P
ZD56        5.820   1.000   S
ZD64        6.940   1.000   P
ZD64       11.830   1.000   S
ZD70        9.880   1.000   P
ZD70       16.790   1.000   S
# 2019  8 15 14 47  6.86  26.8748  102.6933   10.10 -0.30  0.00  0.00  0.00        272
ZD80        4.520   1.000   P
ZD80        8.010   1.000   S
ZD70       11.790   1.000   P
ZD70       20.610   1.000   S
ZD71       11.870   1.000   P
ZD71       20.700   1.000   S
ZD79        6.160   1.000   P
ZD79       10.620   1.000   S
ZD76        8.510   1.000   P
ZD76       14.540   1.000   S
ZD67       16.670   1.000   P
ZD67       27.370   1.000   S
# 2019  8 15  4 48 29.45  27.0547  102.0497    8.00 -0.80  0.00  0.00  0.00        273
ZD64       12.090   1.000   P
ZD64       22.310   1.000   S
ZD74        5.110   1.000   P
ZD74        9.400   1.000   S
ZD69        8.320   1.000   P
ZD69       13.790   1.000   S
ZD70       11.120   1.000   P
ZD70       18.550   1.000   S
# 2019  8 18  4 17  3.39  27.2337  102.6087   10.70 -0.60  0.00  0.00  0.00        274
ZD70        4.650   1.000   P
ZD70        8.200   1.000   S
ZD76        1.990   1.000   P
ZD76        3.310   1.000   S
ZD75        3.080   1.000   P
ZD75        4.200   1.000   S
ZD64        9.160   1.000   P
ZD64       14.710   1.000   S
# 2019  8 19 17 14 24.21  27.5288  102.7775   10.70 -0.90  0.00  0.00  0.00        275
ZD75        5.680   1.000   P
ZD75       10.310   1.000   S
ZD69        9.830   1.000   P
ZD69       16.950   1.000   S
ZD64        5.410   1.000   P
ZD64        8.930   1.000   S
ZD70        4.960   1.000   P
ZD70        7.130   1.000   S
ZD76        4.900   1.000   P
ZD76        6.990   1.000   S
# 2019  8 19  4 31  0.93  27.0532  102.0762    5.40 -0.60  0.00  0.00  0.00        276
ZD67        7.770   1.000   P
ZD67       13.760   1.000   S
ZD74        4.860   1.000   P
ZD74        8.380   1.000   S
ZD70       11.030   1.000   P
ZD70       18.620   1.000   S
ZD69        8.390   1.000   P
ZD69       13.720   1.000   S
# 2019  8 21  0 46 18.01  27.1430  102.6250   11.80 -0.30  0.00  0.00  0.00        277
ZD80        1.700   1.000   P
ZD80        3.400   1.000   S
ZD79        1.530   1.000   P
ZD79        2.880   1.000   S
ZD81        4.560   1.000   P
ZD81        7.910   1.000   S
ZD69        7.220   1.000   P
ZD69       12.430   1.000   S
ZD74        5.560   1.000   P
ZD74        9.380   1.000   S
# 2019  8 21 17 43  0.67  27.3317  102.5518   10.70 -1.10  0.00  0.00  0.00        278
ZD70        2.840   1.000   P
ZD70        5.570   1.000   S
ZD75        1.250   1.000   P
ZD75        2.430   1.000   S
ZD76        1.580   1.000   P
ZD76        2.830   1.000   S
ZD74        5.310   1.000   P
ZD74        8.930   1.000   S
ZD69        4.390   1.000   P
ZD69        7.130   1.000   S
# 2019  8 21  4 14 43.23  27.0227  102.0357   11.20 -0.30  0.00  0.00  0.00        279
ZD67        7.800   1.000   P
ZD67       14.190   1.000   S
ZD74        5.540   1.000   P
ZD74        9.390   1.000   S
ZD71       13.590   1.000   P
ZD71       22.350   1.000   S
ZD70       11.760   1.000   P
ZD70       18.970   1.000   S
# 2019  8 22 11  9 33.52  27.2395  102.5795   19.80 0.10  0.00  0.00  0.00        280
ZD76        2.960   1.000   P
ZD76        4.820   1.000   S
ZD75        3.740   1.000   P
ZD75        5.820   1.000   S
ZD74        4.990   1.000   P
ZD74        7.310   1.000   S
ZD73        5.010   1.000   P
ZD73        6.130   1.000   S
ZD69        5.260   1.000   P
ZD69        6.400   1.000   S
# 2019  8 22 16 27 16.45  27.3382  102.5417   11.70 -1.10  0.00  0.00  0.00        281
ZD71        3.570   1.000   P
ZD71        6.990   1.000   S
ZD70        2.680   1.000   P
ZD70        5.090   1.000   S
ZD76        1.750   1.000   P
ZD76        3.340   1.000   S
ZD75        1.330   1.000   P
ZD75        2.450   1.000   S
ZD69        4.140   1.000   P
ZD69        6.810   1.000   S
ZD74        5.270   1.000   P
ZD74        8.770   1.000   S
# 2019  8 22 20 18 33.80  27.1217  103.0158    9.20 -0.40  0.00  0.00  0.00        282
ZD81        3.800   1.000   P
ZD81        6.710   1.000   S
ZD78        2.150   1.000   P
ZD78        3.630   1.000   S
ZD80        5.600   1.000   P
ZD80        9.600   1.000   S
ZD76        8.630   1.000   P
ZD76       14.260   1.000   S
ZD70       11.740   1.000   P
ZD70       19.200   1.000   S
ZD71       11.020   1.000   P
ZD71       17.630   1.000   S
# 2019  8 22  4 28 19.14  27.0235  102.0680   11.20 -0.40  0.00  0.00  0.00        283
ZD67        7.720   1.000   P
ZD67       13.890   1.000   S
ZD74        4.970   1.000   P
ZD74        8.690   1.000   S
ZD64       12.420   1.000   P
ZD64       20.370   1.000   S
ZD69        8.690   1.000   P
ZD69       13.810   1.000   S
# 2019  8 23  0  7  3.95  27.1865  102.6205    8.90 -0.20  0.00  0.00  0.00        284
ZD76        4.320   1.000   P
ZD76        8.240   1.000   S
ZD80        2.140   1.000   P
ZD80        4.210   1.000   S
ZD69        6.520   1.000   P
ZD69       11.770   1.000   S
ZD70        5.680   1.000   P
ZD70       10.230   1.000   S
ZD79        0.770   1.000   P
ZD79        1.700   1.000   S
ZD75        3.820   1.000   P
ZD75        6.890   1.000   S
ZD71        6.240   1.000   P
ZD71       10.740   1.000   S
ZD67        9.400   1.000   P
ZD67       16.140   1.000   S
ZD74        5.710   1.000   P
ZD74        9.370   1.000   S
