# 2023 12 27  9 40 17.50  39.2570   97.2800   13.00 2.20  0.00  0.00  0.00        312
QTS        10.030   1.000   P
QTS        18.440   1.000   S
CHM        13.250   1.000   P
CHM        23.730   1.000   S
YJZ        28.400   1.000   P
YJZ        48.010   1.000   S
DHT        37.150   1.000   P
DHT        65.040   1.000   S
LYT        41.270   1.000   P
LYT        71.660   1.000   S
AKS        54.100   1.000   P
AKS        93.910   1.000   S
# 2023 12 27 14 25 44.60  39.3430   97.2730   19.00 2.30  0.00  0.00  0.00        314
QTS         9.190   1.000   P
QTS        17.700   1.000   S
JYG        15.680   1.000   P
JYG        27.180   1.000   S
YJZ        27.230   1.000   P
YJZ        47.540   1.000   S
AXX        27.590   1.000   P
AXX        48.990   1.000   S
# 2023 12 31 18 29 58.50  39.2470   97.3230   11.00 0.80  0.00  0.00  0.00        318
QTS         9.690   1.000   P
QTS        18.320   1.000   S
CHM        14.310   1.000   P
CHM        23.940   1.000   S
YJZ        28.030   1.000   P
YJZ        48.070   1.000   S
# 2024  1  4  3 26 22.80  39.2250   97.3320   14.00 1.70  0.00  0.00  0.00        320
QTS        10.010   1.000   P
QTS        18.090   1.000   S
CHM        13.840   1.000   P
CHM        24.880   1.000   S
YJZ        28.250   1.000   P
YJZ        48.680   1.000   S
# 2024  1  4  3 27 32.60  39.2870   97.2830   27.00 2.60  0.00  0.00  0.00        321
QTS         9.990   1.000   P
QTS        18.080   1.000   S
CHM        13.780   1.000   P
CHM        24.540   1.000   S
JYG        16.150   1.000   P
JYG        28.050   1.000   S
JFS        20.990   1.000   P
JFS        36.230   1.000   S
# 2024  1  4 13 23  4.70  39.2940   97.3970   15.00 1.50  0.00  0.00  0.00        323
CHM        12.960   1.000   P
CHM        22.610   1.000   S
# 2024  1  4 15 27 42.40  39.3130   97.2850   12.00 2.00  0.00  0.00  0.00        324
QTS         9.190   1.000   P
QTS        17.170   1.000   S
CHM        12.490   1.000   P
CHM        22.500   1.000   S
JYG        15.660   1.000   P
JYG        27.390   1.000   S
JFS        20.810   1.000   P
JFS        35.700   1.000   S
# 2024  1  5  1 30 47.10  39.2140   97.1030   29.00 1.30  0.00  0.00  0.00        325
QTS        12.590   1.000   P
QTS        23.480   1.000   S
CHM        13.710   1.000   P
CHM        23.330   1.000   S
YJZ        30.550   1.000   P
YJZ        52.150   1.000   S
# 2024  1  6  4  7  5.40  39.2250   97.2690   15.00 1.90  0.00  0.00  0.00        326
CHM        13.450   1.000   P
CHM        22.590   1.000   S
YJZ        28.340   1.000   P
YJZ        48.960   1.000   S
# 2024  1  6  4 52 16.90  39.2380   97.2630   13.00 2.20  0.00  0.00  0.00        327
QTS        10.620   1.000   P
QTS        18.710   1.000   S
CHM        13.660   1.000   P
CHM        23.980   1.000   S
JYG        16.840   1.000   P
JYG        28.480   1.000   S
GTA        35.940   1.000   P
GTA        61.000   1.000   S
# 2024  1  7  3  7 26.90  39.1860   97.2390   26.00 1.70  0.00  0.00  0.00        328
QTS        11.590   1.000   P
QTS        21.570   1.000   S
YJZ        30.020   1.000   P
YJZ        50.900   1.000   S
# 2024  1  7  3 25 17.80  39.1770   97.2850   12.00 1.30  0.00  0.00  0.00        329
QTS        11.340   1.000   P
QTS        19.900   1.000   S
CHM        14.550   1.000   P
CHM        25.370   1.000   S
# 2024  1  7 15  8  4.90  39.2410   97.2390   13.00 2.20  0.00  0.00  0.00        331
QTS        10.170   1.000   P
QTS        18.360   1.000   S
YJZ        28.540   1.000   P
YJZ        48.860   1.000   S
# 2024  1  7 18 30  4.40  39.3410   97.2940   22.00 2.00  0.00  0.00  0.00        332
QTS         8.870   1.000   P
QTS        16.770   1.000   S
CHM        13.370   1.000   P
CHM        24.730   1.000   S
JYG        15.210   1.000   P
JYG        26.930   1.000   S
JFS        20.820   1.000   P
JFS        36.960   1.000   S
# 2024  1  7 19 48 14.00  39.4320   97.3020   14.00 4.00  0.00  0.00  0.00        333
QTS         7.730   1.000   P
QTS        15.710   1.000   S
JYG        13.920   1.000   P
JYG        26.000   1.000   S
JFS        18.270   1.000   P
JFS        34.810   1.000   S
# 2024  1  7 19 52 44.40  39.2530   97.2680   12.00 2.70  0.00  0.00  0.00        334
QTS        10.050   1.000   P
QTS        18.450   1.000   S
YJZ        28.350   1.000   P
YJZ        48.130   1.000   S
# 2024  1  7 20 12 49.90  39.1930   97.3140   15.00 1.80  0.00  0.00  0.00        335
QTS        10.320   1.000   P
QTS        18.570   1.000   S
CHM        13.890   1.000   P
CHM        24.340   1.000   S
JYG        17.190   1.000   P
JYG        28.320   1.000   S
# 2024  1  7 20 30  7.50  39.1590   97.3660   15.00 1.60  0.00  0.00  0.00        336
QTS        10.730   1.000   P
QTS        19.070   1.000   S
YJZ        28.890   1.000   P
YJZ        48.810   1.000   S
# 2024  1  7 20 31 31.80  39.1930   97.3020   15.00 1.70  0.00  0.00  0.00        337
QTS        10.630   1.000   P
QTS        18.810   1.000   S
CHM        14.070   1.000   P
CHM        24.230   1.000   S
JYG        16.880   1.000   P
JYG        28.900   1.000   S
# 2024  1  7 20 42 13.30  39.1940   97.2850   15.00 3.30  0.00  0.00  0.00        338
QTS        10.490   1.000   P
QTS        18.840   1.000   S
CHM        13.820   1.000   P
CHM        24.400   1.000   S
JYG        16.720   1.000   P
JYG        29.020   1.000   S
SBC        21.600   1.000   P
SBC        38.430   1.000   S
JFS        21.590   1.000   P
JFS        37.110   1.000   S
AXX        28.750   1.000   P
AXX        51.410   1.000   S
# 2024  1  7 20 45 58.50  39.2520   97.2700   15.00 2.00  0.00  0.00  0.00        339
QTS         9.510   1.000   P
QTS        18.170   1.000   S
CHM        13.430   1.000   P
CHM        25.110   1.000   S
YJZ        28.130   1.000   P
YJZ        47.980   1.000   S
# 2024  1  7 21  9 42.30  39.2790   97.2700   27.00 2.30  0.00  0.00  0.00        340
QTS        10.030   1.000   P
QTS        18.520   1.000   S
JYG        16.410   1.000   P
JYG        28.110   1.000   S
# 2024  1  8  0  6 37.40  39.1890   97.2860   11.00 1.80  0.00  0.00  0.00        341
QTS        11.030   1.000   P
QTS        19.540   1.000   S
# 2024  1  8  3 41  1.10  39.2220   97.2530   13.00 1.50  0.00  0.00  0.00        342
QTS        10.440   1.000   P
QTS        19.240   1.000   S
# 2024  1  8 19 31 12.30  39.3520   97.3140   25.00 1.50  0.00  0.00  0.00        344
QTS         8.510   1.000   P
QTS        16.650   1.000   S
CHM        12.990   1.000   P
CHM        22.100   1.000   S
YJZ        26.890   1.000   P
YJZ        46.150   1.000   S
GTA        35.050   1.000   P
GTA        60.340   1.000   S
# 2024  1  8 19 52 46.10  39.2360   97.2750    9.00 2.00  0.00  0.00  0.00        345
QTS        10.680   1.000   P
QTS        18.340   1.000   S
JYG        16.850   1.000   P
JYG        28.340   1.000   S
YJZ        28.330   1.000   P
YJZ        48.960   1.000   S
AXX        28.730   1.000   P
AXX        49.930   1.000   S
YWX        34.310   1.000   P
YWX        58.670   1.000   S
# 2024  1  9  3 18 51.10  39.2380   97.2830   25.00 2.70  0.00  0.00  0.00        346
QTS        10.610   1.000   P
QTS        19.170   1.000   S
CHM        13.990   1.000   P
CHM        24.690   1.000   S
# 2024  1 10 19 13 31.70  39.2670   97.2690   14.00 2.00  0.00  0.00  0.00        349
QTS         9.950   1.000   P
QTS        18.010   1.000   S
CHM        13.180   1.000   P
CHM        24.610   1.000   S
YJZ        28.370   1.000   P
YJZ        48.600   1.000   S
AXX        28.910   1.000   P
AXX        50.520   1.000   S
# 2024  1 11 16 21 59.00  39.3420   97.2780   12.00 1.60  0.00  0.00  0.00        350
QTS         9.070   1.000   P
QTS        15.820   1.000   S
YJZ        27.220   1.000   P
YJZ        46.900   1.000   S
AXX        28.370   1.000   P
AXX        48.750   1.000   S
# 2024  1 15 15 51 26.50  39.2910   97.2490   15.00 2.30  0.00  0.00  0.00        354
QTS         9.160   1.000   P
QTS        17.740   1.000   S
CHM        12.310   1.000   P
CHM        23.850   1.000   S
JYG        15.680   1.000   P
JYG        27.150   1.000   S
JFS        20.970   1.000   P
JFS        37.590   1.000   S
# 2024  1 16 20  5 58.90  39.2630   97.2390   12.00 2.30  0.00  0.00  0.00        356
QTS        10.530   1.000   P
QTS        19.150   1.000   S
YJZ        28.560   1.000   P
YJZ        48.960   1.000   S
# 2024  1 18  1 36 47.60  39.2180   97.2900   11.00 1.30  0.00  0.00  0.00        359
QTS        10.660   1.000   P
QTS        18.660   1.000   S
CHM        13.910   1.000   P
CHM        24.200   1.000   S
YJZ        28.960   1.000   P
YJZ        48.910   1.000   S
# 2024  1 19 20 57 48.20  39.2460   97.2840   13.00 2.00  0.00  0.00  0.00        363
QTS        10.410   1.000   P
QTS        18.350   1.000   S
JYG        16.570   1.000   P
JYG        28.300   1.000   S
YJZ        28.500   1.000   P
YJZ        48.350   1.000   S
YWX        34.040   1.000   P
YWX        59.080   1.000   S
ZHY        46.130   1.000   P
ZHY        79.240   1.000   S
AKS        54.450   1.000   P
AKS        94.970   1.000   S
# 2024  1 19 23 11  8.20  39.2920   97.2930   12.00 1.70  0.00  0.00  0.00        364
QTS         9.130   1.000   P
QTS        17.080   1.000   S
YJZ        27.560   1.000   P
YJZ        47.370   1.000   S
# 2024  1 20 18 32  3.20  39.2580   97.3060   11.00 2.30  0.00  0.00  0.00        365
QTS        10.010   1.000   P
QTS        18.330   1.000   S
JYG        16.160   1.000   P
JYG        28.010   1.000   S
# 2024  1 22 14 23 54.90  39.2940   97.2670   10.00 3.70  0.00  0.00  0.00        368
QTS         9.860   1.000   P
QTS        18.020   1.000   S
CHM        13.100   1.000   P
CHM        23.050   1.000   S
JYG        16.040   1.000   P
JYG        27.500   1.000   S
JFS        21.110   1.000   P
JFS        36.300   1.000   S
YJZ        27.820   1.000   P
YJZ        47.580   1.000   S
AXX        28.210   1.000   P
AXX        49.650   1.000   S
# 2024  1 22 14 29 20.90  39.1770   97.3260   16.00 1.80  0.00  0.00  0.00        369
QTS        10.800   1.000   P
QTS        18.810   1.000   S
CHM        14.550   1.000   P
CHM        25.030   1.000   S
YJZ        29.160   1.000   P
YJZ        49.020   1.000   S
# 2024  1 22 14 37 26.10  39.2930   97.2610   12.00 2.60  0.00  0.00  0.00        370
JFS        21.250   1.000   P
JFS        36.520   1.000   S
YJZ        28.040   1.000   P
YJZ        47.810   1.000   S
AXX        28.590   1.000   P
AXX        49.720   1.000   S
# 2024  1 22 14 40 21.70  39.2910   97.2690   27.00 2.50  0.00  0.00  0.00        371
CHM        13.170   1.000   P
CHM        23.160   1.000   S
JFS        21.180   1.000   P
JFS        36.990   1.000   S
YJZ        27.950   1.000   P
YJZ        47.830   1.000   S
# 2024  1 23 13  2 12.30  39.2010   97.3080   20.00 1.40  0.00  0.00  0.00        373
QTS        10.900   1.000   P
QTS        19.230   1.000   S
YJZ        29.260   1.000   P
YJZ        49.280   1.000   S
# 2024  1 23 17  7 38.40  39.2620   97.2700    7.00 1.50  0.00  0.00  0.00        374
QTS         9.890   1.000   P
QTS        18.720   1.000   S
JYG        16.280   1.000   P
JYG        28.600   1.000   S
# 2024  1 25 19 37 47.90  39.3660   97.2430   12.00 1.80  0.00  0.00  0.00        376
QTS         8.690   1.000   P
QTS        16.330   1.000   S
JFS        22.200   1.000   P
JFS        37.420   1.000   S
YJZ        26.770   1.000   P
YJZ        46.740   1.000   S
# 2024  1 25 20 41  7.00  39.2620   97.2260   16.00 1.70  0.00  0.00  0.00        377
QTS         9.650   1.000   P
QTS        18.860   1.000   S
JYG        16.050   1.000   P
JYG        28.060   1.000   S
SBC        21.750   1.000   P
SBC        36.510   1.000   S
JFS        21.990   1.000   P
JFS        36.560   1.000   S
YJZ        28.850   1.000   P
YJZ        48.870   1.000   S
