# 2023 12  1 18 29 33.30  39.1430   97.3320   14.00 2.00  0.00  0.00  0.00        241
QTS        11.120   1.000   P
QTS        19.570   1.000   S
CHM        15.110   1.000   P
CHM        25.710   1.000   S
JYG        17.420   1.000   P
JYG        29.320   1.000   S
YJZ        29.100   1.000   P
YJZ        50.090   1.000   S
# 2023 12  1 18 41 53.50  39.2290   97.2520   13.00 1.60  0.00  0.00  0.00        242
QTS        10.310   1.000   P
QTS        18.880   1.000   S
CHM        13.650   1.000   P
CHM        23.380   1.000   S
YJZ        28.660   1.000   P
YJZ        48.970   1.000   S
AXX        29.290   1.000   P
AXX        50.470   1.000   S
GTA        36.870   1.000   P
GTA        60.830   1.000   S
# 2023 12  1 18 48 24.00  39.2150   97.2600   12.00 2.70  0.00  0.00  0.00        243
QTS        10.460   1.000   P
QTS        18.520   1.000   S
CHM        13.600   1.000   P
CHM        23.570   1.000   S
JYG        16.630   1.000   P
JYG        28.660   1.000   S
# 2023 12  1 18 57 51.20  39.2490   97.3290   11.00 1.70  0.00  0.00  0.00        244
QTS         9.730   1.000   P
QTS        17.470   1.000   S
YJZ        27.760   1.000   P
YJZ        48.150   1.000   S
GTA        34.620   1.000   P
GTA        59.490   1.000   S
# 2023 12  1 19  6 17.90  39.2250   97.2910   10.00 1.60  0.00  0.00  0.00        245
QTS        10.420   1.000   P
QTS        18.640   1.000   S
YJZ        28.620   1.000   P
YJZ        48.930   1.000   S
# 2023 12  1 19 24 19.40  39.1670   97.4240   12.00 1.50  0.00  0.00  0.00        246
QTS        10.230   1.000   P
QTS        18.710   1.000   S
SBC        22.700   1.000   P
SBC        38.040   1.000   S
YJZ        28.620   1.000   P
YJZ        49.340   1.000   S
# 2023 12  1 19 27 31.30  39.2480   97.3030   14.00 2.00  0.00  0.00  0.00        247
QTS        10.230   1.000   P
QTS        18.680   1.000   S
CHM        13.950   1.000   P
CHM        24.520   1.000   S
JYG        16.670   1.000   P
JYG        28.370   1.000   S
YJZ        28.490   1.000   P
YJZ        48.320   1.000   S
# 2023 12  1 19 28 37.60  39.1950   97.2980   11.00 2.00  0.00  0.00  0.00        248
QTS        10.880   1.000   P
QTS        19.220   1.000   S
CHM        14.540   1.000   P
CHM        25.120   1.000   S
YJZ        29.280   1.000   P
YJZ        49.230   1.000   S
# 2023 12  1 19 30  0.40  39.1960   97.2900   12.00 1.80  0.00  0.00  0.00        249
QTS        10.670   1.000   P
QTS        19.170   1.000   S
CHM        14.320   1.000   P
CHM        25.070   1.000   S
SBC        23.210   1.000   P
SBC        38.910   1.000   S
YJZ        29.040   1.000   P
YJZ        48.590   1.000   S
# 2023 12  1 19 43 42.20  39.2440   97.2970   16.00 1.60  0.00  0.00  0.00        250
CHM        13.240   1.000   P
CHM        23.050   1.000   S
JYG        18.230   1.000   P
JYG        28.060   1.000   S
YJZ        28.230   1.000   P
YJZ        48.160   1.000   S
# 2023 12  1 20  3 53.30  39.2550   97.2350   15.00 1.70  0.00  0.00  0.00        251
QTS        10.090   1.000   P
QTS        18.680   1.000   S
SBC        21.760   1.000   P
SBC        37.310   1.000   S
YJZ        28.480   1.000   P
YJZ        48.510   1.000   S
# 2023 12  1 20  6 36.40  39.2190   97.2660   15.00 1.50  0.00  0.00  0.00        252
QTS        10.410   1.000   P
QTS        18.600   1.000   S
AXX        29.210   1.000   P
AXX        50.720   1.000   S
GTA        35.650   1.000   P
GTA        60.860   1.000   S
# 2023 12  1 20 30  7.60  39.3040   97.2670   28.00 2.60  0.00  0.00  0.00        253
QTS         9.960   1.000   P
QTS        18.060   1.000   S
CHM        13.070   1.000   P
CHM        23.090   1.000   S
JYG        16.080   1.000   P
JYG        28.170   1.000   S
YJZ        27.900   1.000   P
YJZ        48.700   1.000   S
AXX        28.230   1.000   P
AXX        49.090   1.000   S
GTA        34.920   1.000   P
GTA        60.370   1.000   S
# 2023 12  1 20 56  5.20  39.2860   97.3430   18.00 1.20  0.00  0.00  0.00        254
QTS         9.500   1.000   P
QTS        17.480   1.000   S
CHM        12.790   1.000   P
CHM        23.540   1.000   S
SBC        21.210   1.000   P
SBC        35.350   1.000   S
# 2023 12  1 22  5 54.40  39.1780   97.3880   14.00 1.30  0.00  0.00  0.00        255
QTS         9.980   1.000   P
QTS        18.420   1.000   S
YJZ        28.250   1.000   P
YJZ        48.070   1.000   S
# 2023 12  1 22 35 37.20  39.2120   97.3120   12.00 1.40  0.00  0.00  0.00        256
QTS        10.680   1.000   P
QTS        18.440   1.000   S
CHM        14.370   1.000   P
CHM        24.970   1.000   S
YJZ        28.920   1.000   P
YJZ        48.600   1.000   S
# 2023 12  1 22 45 18.80  39.2070   97.2720   20.00 1.30  0.00  0.00  0.00        257
QTS        11.690   1.000   P
QTS        19.600   1.000   S
YJZ        28.230   1.000   P
YJZ        49.750   1.000   S
AXX        30.540   1.000   P
AXX        51.750   1.000   S
# 2023 12  1 23  4 48.60  39.2330   97.3940   12.00 1.20  0.00  0.00  0.00        258
QTS         9.280   1.000   P
QTS        17.260   1.000   S
SBC        21.880   1.000   P
SBC        36.680   1.000   S
YJZ        27.500   1.000   P
YJZ        47.200   1.000   S
# 2023 12  1 23 13 56.10  39.1730   97.3010   11.00 1.40  0.00  0.00  0.00        259
QTS        11.370   1.000   P
QTS        19.650   1.000   S
CHM        14.570   1.000   P
CHM        25.550   1.000   S
YJZ        29.830   1.000   P
YJZ        49.630   1.000   S
# 2023 12  1 23 24 57.20  39.2910   97.2720   12.00 1.50  0.00  0.00  0.00        260
QTS         9.740   1.000   P
QTS        17.420   1.000   S
CHM        13.030   1.000   P
CHM        23.400   1.000   S
YJZ        27.820   1.000   P
YJZ        48.230   1.000   S
AXX        28.070   1.000   P
AXX        49.170   1.000   S
# 2023 12  1 23 31 38.90  39.1990   97.3320   14.00 1.80  0.00  0.00  0.00        261
QTS        10.680   1.000   P
QTS        18.410   1.000   S
CHM        14.630   1.000   P
CHM        24.420   1.000   S
JYG        16.880   1.000   P
JYG        28.030   1.000   S
YJZ        28.590   1.000   P
YJZ        48.160   1.000   S
# 2023 12  2  0 44 44.70  39.2330   97.3190   14.00 1.90  0.00  0.00  0.00        262
QTS        10.180   1.000   P
QTS        16.880   1.000   S
CHM        13.920   1.000   P
CHM        23.740   1.000   S
JYG        16.430   1.000   P
JYG        27.930   1.000   S
YJZ        28.210   1.000   P
YJZ        47.990   1.000   S
AXX        29.120   1.000   P
AXX        50.570   1.000   S
# 2023 12  2  0 55 44.10  39.2310   97.2890   14.00 2.40  0.00  0.00  0.00        263
QTS        10.200   1.000   P
QTS        17.830   1.000   S
CHM        13.830   1.000   P
CHM        24.430   1.000   S
JYG        16.340   1.000   P
JYG        28.050   1.000   S
YJZ        28.120   1.000   P
YJZ        48.030   1.000   S
AXX        28.990   1.000   P
AXX        50.850   1.000   S
GTA        34.870   1.000   P
GTA        60.540   1.000   S
ZHY        46.210   1.000   P
ZHY        78.610   1.000   S
# 2023 12  2  0 59 26.90  39.2500   97.2930   12.00 2.50  0.00  0.00  0.00        264
QTS        10.270   1.000   P
QTS        18.770   1.000   S
CHM        13.820   1.000   P
CHM        24.590   1.000   S
YJZ        28.190   1.000   P
YJZ        48.500   1.000   S
SNT        33.030   1.000   P
SNT        58.390   1.000   S
GTA        35.060   1.000   P
GTA        60.680   1.000   S
# 2023 12  2  1  8 22.30  39.3890   97.2780   11.00 1.70  0.00  0.00  0.00        266
QTS         8.480   1.000   P
QTS        16.060   1.000   S
YJZ        26.190   1.000   P
YJZ        45.650   1.000   S
AXX        27.260   1.000   P
AXX        47.920   1.000   S
# 2023 12  2  1 26 41.40  39.2660   97.3210   12.00 2.00  0.00  0.00  0.00        267
QTS         9.740   1.000   P
QTS        17.320   1.000   S
CHM        13.360   1.000   P
CHM        24.310   1.000   S
JYG        15.950   1.000   P
JYG        27.650   1.000   S
AXX        28.520   1.000   P
AXX        51.040   1.000   S
GTA        34.610   1.000   P
GTA        59.550   1.000   S
# 2023 12  2  2 54 28.90  39.2700   97.3800   11.00 1.50  0.00  0.00  0.00        268
QTS         9.220   1.000   P
QTS        17.120   1.000   S
SBC        20.660   1.000   P
SBC        37.580   1.000   S
YJZ        27.290   1.000   P
YJZ        46.740   1.000   S
AXX        30.790   1.000   P
AXX        51.350   1.000   S
# 2023 12  2  3  9  0.20  39.1530   97.3370   14.00 1.60  0.00  0.00  0.00        269
QTS        11.310   1.000   P
QTS        19.460   1.000   S
CHM        14.920   1.000   P
CHM        25.390   1.000   S
YJZ        29.700   1.000   P
YJZ        49.610   1.000   S
# 2023 12  2  3 21 50.90  39.2090   97.2820   14.00 2.30  0.00  0.00  0.00        270
QTS        10.510   1.000   P
QTS        18.460   1.000   S
CHM        13.990   1.000   P
CHM        23.370   1.000   S
JYG        16.920   1.000   P
JYG        28.840   1.000   S
JFS        21.210   1.000   P
JFS        36.710   1.000   S
YJZ        28.820   1.000   P
YJZ        48.920   1.000   S
AXX        29.590   1.000   P
AXX        50.320   1.000   S
YWX        34.620   1.000   P
YWX        59.440   1.000   S
GTA        34.890   1.000   P
GTA        60.050   1.000   S
DHT        37.270   1.000   P
DHT        64.460   1.000   S
# 2023 12  2  4  3 20.00  39.1880   97.2720   14.00 1.70  0.00  0.00  0.00        271
QTS        11.090   1.000   P
QTS        19.080   1.000   S
CHM        14.290   1.000   P
CHM        23.800   1.000   S
# 2023 12  2  4 55 41.10  39.2750   97.3240   13.00 2.40  0.00  0.00  0.00        272
QTS         9.550   1.000   P
QTS        17.680   1.000   S
CHM        13.200   1.000   P
CHM        23.220   1.000   S
JYG        16.270   1.000   P
JYG        27.230   1.000   S
YJZ        27.810   1.000   P
YJZ        47.180   1.000   S
AXX        28.410   1.000   P
AXX        51.110   1.000   S
GTA        34.370   1.000   P
GTA        58.270   1.000   S
ZHY        45.020   1.000   P
ZHY        78.230   1.000   S
# 2023 12  2  7 23 56.60  39.2970   97.3850   15.00 1.30  0.00  0.00  0.00        273
QTS         8.830   1.000   P
QTS        15.740   1.000   S
CHM        13.330   1.000   P
CHM        23.710   1.000   S
YJZ        27.160   1.000   P
YJZ        45.860   1.000   S
# 2023 12  2  7 53 29.10  39.2510   97.4120   14.00 1.50  0.00  0.00  0.00        274
QTS         9.070   1.000   P
QTS        15.830   1.000   S
CHM        13.500   1.000   P
CHM        23.950   1.000   S
# 2023 12  2 10 25  6.40  39.1960   97.3960   14.00 1.70  0.00  0.00  0.00        276
QTS         9.920   1.000   P
QTS        17.400   1.000   S
CHM        13.340   1.000   P
CHM        24.730   1.000   S
YJZ        28.030   1.000   P
YJZ        47.680   1.000   S
# 2023 12  2 16 45 52.40  39.2370   97.2720   14.00 2.80  0.00  0.00  0.00        277
QTS        10.180   1.000   P
QTS        17.540   1.000   S
CHM        13.400   1.000   P
CHM        24.220   1.000   S
JYG        16.270   1.000   P
JYG        27.960   1.000   S
JFS        20.740   1.000   P
JFS        36.000   1.000   S
YJZ        28.180   1.000   P
YJZ        48.490   1.000   S
AXX        28.680   1.000   P
AXX        50.440   1.000   S
YWX        33.920   1.000   P
YWX        58.510   1.000   S
LYT        41.390   1.000   P
LYT        70.780   1.000   S
ZHY        46.040   1.000   P
ZHY        79.660   1.000   S
# 2023 12  2 22 35 50.70  39.2370   97.2860   14.00 2.20  0.00  0.00  0.00        278
QTS        10.330   1.000   P
QTS        18.820   1.000   S
CHM        14.030   1.000   P
CHM        24.730   1.000   S
JYG        16.460   1.000   P
JYG        28.480   1.000   S
JFS        20.990   1.000   P
JFS        37.090   1.000   S
YJZ        28.570   1.000   P
YJZ        48.700   1.000   S
AXX        29.560   1.000   P
AXX        51.450   1.000   S
GTA        35.310   1.000   P
GTA        60.960   1.000   S
# 2023 12  3  0 44 51.30  39.1690   97.3660   14.00 1.70  0.00  0.00  0.00        279
QTS        10.120   1.000   P
QTS        17.860   1.000   S
CHM        14.870   1.000   P
CHM        25.620   1.000   S
JYG        17.110   1.000   P
JYG        28.510   1.000   S
YJZ        28.580   1.000   P
YJZ        48.840   1.000   S
# 2023 12  3  8  5 21.00  39.1720   97.3150   14.00 1.60  0.00  0.00  0.00        280
QTS        11.080   1.000   P
QTS        19.180   1.000   S
CHM        14.630   1.000   P
CHM        24.610   1.000   S
JYG        17.060   1.000   P
JYG        29.050   1.000   S
# 2023 12  3 15 10  8.20  39.1930   97.2600   14.00 2.50  0.00  0.00  0.00        281
QTS        10.820   1.000   P
QTS        19.260   1.000   S
YJZ        28.670   1.000   P
YJZ        49.950   1.000   S
# 2023 12  4  0 44 22.60  39.2530   97.2830   21.00 2.10  0.00  0.00  0.00        282
QTS        10.280   1.000   P
QTS        18.540   1.000   S
CHM        13.660   1.000   P
CHM        23.890   1.000   S
JYG        16.460   1.000   P
JYG        28.550   1.000   S
JFS        21.140   1.000   P
JFS        36.570   1.000   S
# 2023 12  4  3 26 41.70  39.1920   97.2770   11.00 2.60  0.00  0.00  0.00        283
QTS        11.000   1.000   P
QTS        19.550   1.000   S
CHM        14.420   1.000   P
CHM        24.890   1.000   S
# 2023 12  4 13 46 33.50  39.2040   97.2660   11.00 1.80  0.00  0.00  0.00        284
QTS        10.950   1.000   P
QTS        19.460   1.000   S
# 2023 12  5  2 43 53.20  39.2370   97.2840    8.00 2.60  0.00  0.00  0.00        285
QTS        10.420   1.000   P
QTS        18.410   1.000   S
CHM        13.770   1.000   P
CHM        24.330   1.000   S
JYG        16.500   1.000   P
JYG        28.410   1.000   S
SBC        21.610   1.000   P
SBC        37.810   1.000   S
JFS        20.890   1.000   P
JFS        37.040   1.000   S
# 2023 12  5  7 54 56.30  39.2060   97.3280   12.00 2.40  0.00  0.00  0.00        286
QTS        10.260   1.000   P
QTS        18.740   1.000   S
CHM        14.800   1.000   P
CHM        26.310   1.000   S
JFS        22.390   1.000   P
JFS        37.200   1.000   S
YJZ        28.450   1.000   P
YJZ        48.370   1.000   S
GTA        34.920   1.000   P
GTA        59.670   1.000   S
# 2023 12  6  3 38 47.50  39.3320   97.2870   25.00 1.60  0.00  0.00  0.00        287
QTS         9.310   1.000   P
QTS        17.410   1.000   S
CHM        12.840   1.000   P
CHM        21.780   1.000   S
JYG        16.160   1.000   P
JYG        27.100   1.000   S
YJZ        27.100   1.000   P
YJZ        46.780   1.000   S
# 2023 12  6 13 24 13.30  39.2290   97.2750   15.00 1.60  0.00  0.00  0.00        288
QTS        10.040   1.000   P
QTS        18.400   1.000   S
YJZ        28.390   1.000   P
YJZ        48.400   1.000   S
GTA        35.090   1.000   P
GTA        60.500   1.000   S
# 2023 12  7 12 28 34.60  39.1650   97.3010   12.00 1.60  0.00  0.00  0.00        290
QTS        11.310   1.000   P
QTS        19.900   1.000   S
CHM        15.670   1.000   P
CHM        25.810   1.000   S
YJZ        29.580   1.000   P
YJZ        49.760   1.000   S
# 2023 12  7 12 36 56.50  39.2800   97.2900   15.00 1.20  0.00  0.00  0.00        291
QTS         9.520   1.000   P
QTS        16.370   1.000   S
YJZ        27.850   1.000   P
YJZ        47.610   1.000   S
# 2023 12  9  2 19 11.30  39.2270   97.3070   15.00 2.40  0.00  0.00  0.00        292
QTS         9.680   1.000   P
QTS        17.780   1.000   S
JYG        16.420   1.000   P
JYG        27.900   1.000   S
SBC        21.250   1.000   P
SBC        37.720   1.000   S
YJZ        28.080   1.000   P
YJZ        47.690   1.000   S
AXX        29.230   1.000   P
AXX        51.150   1.000   S
YWX        34.430   1.000   P
YWX        59.150   1.000   S
GTA        34.760   1.000   P
GTA        60.440   1.000   S
# 2023 12  9 22 43 44.00  39.2920   97.2920   13.00 2.20  0.00  0.00  0.00        294
QTS         9.260   1.000   P
QTS        16.350   1.000   S
JYG        15.550   1.000   P
JYG        26.870   1.000   S
# 2023 12 12  8 55 43.70  39.2600   97.2770   15.00 1.70  0.00  0.00  0.00        296
QTS        10.030   1.000   P
QTS        17.420   1.000   S
CHM        13.260   1.000   P
CHM        22.070   1.000   S
YJZ        28.340   1.000   P
YJZ        47.680   1.000   S
# 2023 12 13  8 18 57.60  39.2850   97.3000   25.00 3.30  0.00  0.00  0.00        297
QTS        10.010   1.000   P
QTS        18.340   1.000   S
CHM        13.250   1.000   P
CHM        23.900   1.000   S
JYG        16.160   1.000   P
JYG        28.020   1.000   S
SBC        20.890   1.000   P
SBC        38.120   1.000   S
# 2023 12 13 18 49  1.30  39.2440   97.3370   11.00 2.20  0.00  0.00  0.00        298
QTS         9.440   1.000   P
QTS        17.870   1.000   S
CHM        14.400   1.000   P
CHM        24.260   1.000   S
JYG        15.550   1.000   P
JYG        27.690   1.000   S
JFS        20.270   1.000   P
JFS        36.900   1.000   S
SBC        22.040   1.000   P
SBC        38.200   1.000   S
# 2023 12 16  7 28  0.50  39.2780   97.2990   25.00 2.50  0.00  0.00  0.00        300
QTS        10.070   1.000   P
QTS        18.070   1.000   S
CHM        13.280   1.000   P
CHM        23.800   1.000   S
JYG        16.370   1.000   P
JYG        28.120   1.000   S
# 2023 12 17  0 42 33.30  39.2650   97.2700   21.00 2.50  0.00  0.00  0.00        301
QTS        10.330   1.000   P
QTS        18.420   1.000   S
CHM        13.470   1.000   P
CHM        23.500   1.000   S
JYG        16.600   1.000   P
JYG        28.250   1.000   S
YJZ        28.370   1.000   P
YJZ        48.300   1.000   S
AXX        28.920   1.000   P
AXX        49.280   1.000   S
GTA        35.330   1.000   P
GTA        60.710   1.000   S
ZHY        46.380   1.000   P
ZHY        79.390   1.000   S
# 2023 12 17 15  5 19.10  39.2790   97.2760   12.00 2.70  0.00  0.00  0.00        303
QTS         9.650   1.000   P
QTS        17.580   1.000   S
JYG        15.910   1.000   P
JYG        27.590   1.000   S
JFS        20.690   1.000   P
JFS        36.820   1.000   S
YJZ        27.740   1.000   P
YJZ        48.210   1.000   S
# 2023 12 17 19 56 43.30  39.2740   97.2670   25.00 2.40  0.00  0.00  0.00        304
QTS        10.370   1.000   P
QTS        18.640   1.000   S
CHM        13.450   1.000   P
CHM        23.660   1.000   S
JYG        16.590   1.000   P
JYG        28.540   1.000   S
# 2023 12 18  6  2 32.60  39.2000   97.3020   12.00 3.20  0.00  0.00  0.00        305
QTS        10.420   1.000   P
QTS        18.840   1.000   S
JYG        16.540   1.000   P
JYG        28.300   1.000   S
# 2023 12 18  6 46 48.10  39.2160   97.2490   16.00 2.30  0.00  0.00  0.00        306
QTS        10.980   1.000   P
QTS        19.480   1.000   S
# 2023 12 19 13 36 49.20  39.2440   97.2810   12.00 2.20  0.00  0.00  0.00        307
QTS        10.460   1.000   P
QTS        18.850   1.000   S
JYG        16.540   1.000   P
JYG        28.090   1.000   S
JFS        21.350   1.000   P
JFS        36.740   1.000   S
# 2023 12 21 21 36 19.30  39.2140   97.3180   15.00 1.90  0.00  0.00  0.00        308
QTS        10.180   1.000   P
QTS        17.340   1.000   S
CHM        14.010   1.000   P
CHM        24.010   1.000   S
JYG        16.240   1.000   P
JYG        28.570   1.000   S
# 2023 12 22  9  8  6.20  39.2930   97.2610   23.00 2.20  0.00  0.00  0.00        309
QTS        10.090   1.000   P
QTS        17.950   1.000   S
CHM        13.030   1.000   P
CHM        22.670   1.000   S
JYG        16.460   1.000   P
JYG        28.220   1.000   S
YJZ        28.080   1.000   P
YJZ        48.090   1.000   S
AXX        28.770   1.000   P
AXX        48.840   1.000   S
SBT        33.990   1.000   P
SBT        57.570   1.000   S
GTA        35.320   1.000   P
GTA        61.360   1.000   S
DHT        36.890   1.000   P
DHT        63.550   1.000   S
# 2023 12 22 23  5 17.30  39.1660   97.3100   14.00 1.60  0.00  0.00  0.00        310
QTS        11.100   1.000   P
QTS        19.360   1.000   S
