# 2019  8 24 20 15 30.75  27.1203  102.7703   10.90 -1.10  0.00  0.00  0.00        285
ZD79        2.710   1.000   P
ZD79        6.000   1.000   S
ZD76        4.790   1.000   P
ZD76        9.210   1.000   S
ZD78        2.680   1.000   P
ZD78        5.320   1.000   S
ZD80        1.470   1.000   P
ZD80        3.160   1.000   S
# 2019  8 25  3 20 59.35  26.9470  102.9518   14.80 1.20  0.00  0.00  0.00        286
ZD69       12.330   1.000   P
ZD69       22.930   1.000   S
ZD78        3.190   1.000   P
ZD78        5.780   1.000   S
ZD70       12.190   1.000   P
ZD70       21.390   1.000   S
ZD80        5.300   1.000   P
ZD80        9.300   1.000   S
ZD74       11.460   1.000   P
ZD74       19.930   1.000   S
ZD73       12.140   1.000   P
ZD73       20.830   1.000   S
ZD79        6.920   1.000   P
ZD79       11.760   1.000   S
ZD75       10.670   1.000   P
ZD75       17.840   1.000   S
# 2019  8 25 21 32  4.51  27.1373  102.8800   16.60 -1.10  0.00  0.00  0.00        287
ZD78        1.950   1.000   P
ZD78        3.630   1.000   S
ZD79        4.360   1.000   P
ZD79        7.510   1.000   S
ZD76        5.920   1.000   P
ZD76        9.940   1.000   S
ZD71        9.250   1.000   P
ZD71       14.660   1.000   S
# 2019  8 26  5 14 42.73  27.2317  102.6085   10.50 -0.80  0.00  0.00  0.00        288
ZD78        4.810   1.000   P
ZD78        9.750   1.000   S
ZD70        4.700   1.000   P
ZD70        8.390   1.000   S
ZD75        3.140   1.000   P
ZD75        5.060   1.000   S
ZD76        2.170   1.000   P
ZD76        3.190   1.000   S
# 2019  8 28  0 19 42.91  27.1977  102.6130   11.20 -0.40  0.00  0.00  0.00        289
ZD80        2.470   1.000   P
ZD80        4.640   1.000   S
ZD76        2.520   1.000   P
ZD76        4.680   1.000   S
ZD79        1.220   1.000   P
ZD79        2.360   1.000   S
ZD74        5.450   1.000   P
ZD74        8.870   1.000   S
ZD73        5.820   1.000   P
ZD73        8.830   1.000   S
# 2019  8 28  4 32 29.86  27.1048  102.1168   18.70 -0.40  0.00  0.00  0.00        290
ZD56       11.810   1.000   P
ZD56       21.460   1.000   S
ZD69        6.630   1.000   P
ZD69       12.110   1.000   S
ZD64       10.580   1.000   P
ZD64       18.630   1.000   S
ZD74        4.110   1.000   P
ZD74        7.040   1.000   S
# 2019  8 29 17  1 52.94  27.3687  101.9198   11.70 -0.80  0.00  0.00  0.00        291
ZD67        3.290   1.000   P
ZD67        5.950   1.000   S
ZD70       10.000   1.000   P
ZD70       17.430   1.000   S
ZD71       11.580   1.000   P
ZD71       19.940   1.000   S
ZD64        9.300   1.000   P
ZD64       15.930   1.000   S
ZD69        6.900   1.000   P
ZD69       11.750   1.000   S
# 2019  8 29  4 14 35.67  27.0625  102.0713    5.70 -0.60  0.00  0.00  0.00        292
ZD67        7.620   1.000   P
ZD67       13.450   1.000   S
ZD74        4.920   1.000   P
ZD74        8.230   1.000   S
ZD70       10.990   1.000   P
ZD70       18.690   1.000   S
ZD69        8.160   1.000   P
ZD69       13.210   1.000   S
# 2019  8 29  7 31 15.31  27.1792  102.0415   23.00 0.40  0.00  0.00  0.00        293
ZD74        4.990   1.000   P
ZD74        9.280   1.000   S
ZD79       10.200   1.000   P
ZD79       17.800   1.000   S
ZD64       10.410   1.000   P
ZD64       17.100   1.000   S
ZD71        9.260   1.000   P
ZD71       14.990   1.000   S
# 2019  8 29 22 41 27.97  27.4168  102.0538   11.10 -0.70  0.00  0.00  0.00        294
ZD81       15.070   1.000   P
ZD81       27.380   1.000   S
ZD67        0.930   1.000   P
ZD67        2.570   1.000   S
ZD79       10.400   1.000   P
ZD79       18.900   1.000   S
ZD63        4.700   1.000   P
ZD63        7.730   1.000   S
# 2019  8 31  9  6 43.88  27.3195  102.7722    5.20 0.00  0.00  0.00  0.00        295
ZD76        2.530   1.000   P
ZD76        4.800   1.000   S
ZD75        4.910   1.000   P
ZD75        8.460   1.000   S
ZD77        4.520   1.000   P
ZD77        7.640   1.000   S
ZD69        8.310   1.000   P
ZD69       13.710   1.000   S
# 2019  8 31 19 19 16.65  27.6075  102.5028   11.50 -1.10  0.00  0.00  0.00        296
ZD75        4.980   1.000   P
ZD75        7.980   1.000   S
ZD70        3.550   1.000   P
ZD70        5.430   1.000   S
ZD56        8.330   1.000   P
ZD56       12.980   1.000   S
ZD69        6.400   1.000   P
ZD69        8.790   1.000   S
# 2019  9  1  2 22  6.27  27.1732  102.5813    8.70 -0.70  0.00  0.00  0.00        297
ZD76        2.780   1.000   P
ZD76        5.160   1.000   S
ZD70        5.780   1.000   P
ZD70       10.340   1.000   S
ZD80        2.500   1.000   P
ZD80        4.630   1.000   S
ZD79        1.500   1.000   P
ZD79        2.780   1.000   S
ZD77        1.520   1.000   P
ZD77        2.600   1.000   S
ZD69        6.480   1.000   P
ZD69       11.140   1.000   S
# 2019  9  1  4  1 20.63  27.3268  102.6050    7.00 -0.30  0.00  0.00  0.00        298
ZD71        4.090   1.000   P
ZD71        9.400   1.000   S
ZD76       -0.130   1.000   P
ZD76        1.710   1.000   S
ZD75        1.250   1.000   P
ZD75        4.050   1.000   S
ZD70        3.170   1.000   P
ZD70        7.180   1.000   S
ZD69        4.540   1.000   P
ZD69        9.540   1.000   S
ZD77        2.520   1.000   P
ZD77        4.950   1.000   S
# 2019  9  1 18 35 31.01  27.2585  102.5702    9.20 -1.10  0.00  0.00  0.00        299
ZD77        1.050   1.000   P
ZD77        2.490   1.000   S
ZD76        1.470   1.000   P
ZD76        2.820   1.000   S
ZD79        2.070   1.000   P
ZD79        3.770   1.000   S
ZD71        5.080   1.000   P
ZD71        8.840   1.000   S
ZD74        4.970   1.000   P
ZD74        8.480   1.000   S
# 2019  9  1  5 21  1.88  27.0208  102.7845   17.80 -0.10  0.00  0.00  0.00        300
ZD70        9.890   1.000   P
ZD70       17.620   1.000   S
ZD79        4.370   1.000   P
ZD79        7.810   1.000   S
ZD80        2.850   1.000   P
ZD80        4.980   1.000   S
ZD81        4.750   1.000   P
ZD81        8.260   1.000   S
ZD78        3.260   1.000   P
ZD78        5.370   1.000   S
# 2019  9  1 16  6 14.42  27.4047  102.5637   30.50 -0.60  0.00  0.00  0.00        301
ZD75        4.400   1.000   P
ZD75        9.440   1.000   S
ZD69        5.470   1.000   P
ZD69       10.290   1.000   S
ZD71        4.400   1.000   P
ZD71        7.730   1.000   S
ZD76        4.540   1.000   P
ZD76        7.720   1.000   S
# 2019  9  2  3 41  3.39  27.1193  102.1320   16.20 -0.40  0.00  0.00  0.00        302
ZD56       11.450   1.000   P
ZD56       21.920   1.000   S
ZD64       10.160   1.000   P
ZD64       18.640   1.000   S
ZD70        9.130   1.000   P
ZD70       16.640   1.000   S
ZD69        6.350   1.000   P
ZD69       11.340   1.000   S
ZD74        3.560   1.000   P
ZD74        6.390   1.000   S
# 2019  9  2 16 22 19.66  27.5503  102.1793    9.20 -1.10  0.00  0.00  0.00        303
ZD67        2.950   1.000   P
ZD67        5.750   1.000   S
ZD68        2.130   1.000   P
ZD68        4.080   1.000   S
ZD56        4.710   1.000   P
ZD56        8.480   1.000   S
ZD63        1.400   1.000   P
ZD63        2.540   1.000   S
# 2019  9  4  4  5  3.36  27.0947  102.0862    5.20 -0.80  0.00  0.00  0.00        304
ZD67        6.820   1.000   P
ZD67       12.440   1.000   S
ZD75        8.940   1.000   P
ZD75       15.750   1.000   S
ZD76       10.310   1.000   P
ZD76       17.610   1.000   S
ZD70       10.360   1.000   P
ZD70       17.650   1.000   S
ZD64       11.470   1.000   P
ZD64       19.340   1.000   S
ZD69        7.870   1.000   P
ZD69       12.600   1.000   S
# 2019  9  4 16  9 47.32  27.3687  102.5492   14.50 -1.10  0.00  0.00  0.00        305
ZD79        3.010   1.000   P
ZD79        6.900   1.000   S
ZD74        5.750   1.000   P
ZD74       11.350   1.000   S
ZD70        2.270   1.000   P
ZD70        4.340   1.000   S
ZD69        4.150   1.000   P
ZD69        6.870   1.000   S
# 2019  9  5  4 27 52.19  27.1070  102.0843    7.70 -0.50  0.00  0.00  0.00        306
ZD67        6.670   1.000   P
ZD67       12.050   1.000   S
ZD64       11.140   1.000   P
ZD64       19.800   1.000   S
ZD80       10.400   1.000   P
ZD80       18.060   1.000   S
ZD69        7.390   1.000   P
ZD69       12.510   1.000   S
# 2019  9  5 19  2 46.48  27.1765  103.0323    5.70 -1.10  0.00  0.00  0.00        307
ZD70       10.580   1.000   P
ZD70       18.760   1.000   S
ZD78        2.670   1.000   P
ZD78        4.960   1.000   S
ZD71        9.760   1.000   P
ZD71       16.860   1.000   S
ZD75        9.820   1.000   P
ZD75       16.940   1.000   S
ZD76        8.110   1.000   P
ZD76       13.680   1.000   S
# 2019  9  6  7 26 12.17  27.5037  102.6133   11.00 0.70  0.00  0.00  0.00        308
ZD68        8.540   1.000   P
ZD68       16.840   1.000   S
ZD79        5.500   1.000   P
ZD79       10.820   1.000   S
ZD75        3.550   1.000   P
ZD75        6.320   1.000   S
ZD64        4.170   1.000   P
ZD64        7.380   1.000   S
ZD76        4.080   1.000   P
ZD76        7.030   1.000   S
ZD73        8.690   1.000   P
ZD73       15.010   1.000   S
# 2019  9  7 13 48 29.29  27.0240  103.0537    6.60 -1.10  0.00  0.00  0.00        309
ZD80        6.530   1.000   P
ZD80       11.510   1.000   S
ZD78        2.980   1.000   P
ZD78        5.240   1.000   S
ZD76        9.650   1.000   P
ZD76       16.350   1.000   S
ZD70       13.110   1.000   P
ZD70       21.090   1.000   S
# 2019  9  8  2 37  0.81  27.6967  103.0067   11.20 0.10  0.00  0.00  0.00        310
ZD64       10.050   1.000   P
ZD64       17.110   1.000   S
ZD70        9.310   1.000   P
ZD70       15.560   1.000   S
ZD76       11.430   1.000   P
ZD76       18.310   1.000   S
ZD78       10.900   1.000   P
ZD78       16.810   1.000   S
ZD74       15.000   1.000   P
ZD74       23.170   1.000   S
# 2019  9  9 17 21 45.29  27.3760  102.6742   13.50 -0.70  0.00  0.00  0.00        311
ZD76        2.160   1.000   P
ZD76        3.970   1.000   S
ZD75        3.170   1.000   P
ZD75        5.430   1.000   S
ZD70        3.570   1.000   P
ZD70        6.090   1.000   S
ZD71        3.120   1.000   P
ZD71        5.160   1.000   S
# 2019  9  9 21 12  2.61  27.2562  102.3030   11.50 -1.20  0.00  0.00  0.00        312
ZD75        4.030   1.000   P
ZD75        7.110   1.000   S
ZD71        6.830   1.000   P
ZD71       11.930   1.000   S
ZD76        5.600   1.000   P
ZD76        9.730   1.000   S
ZD70        5.440   1.000   P
ZD70        9.190   1.000   S
# 2019  9 10  3 52 55.85  27.0473  102.0833    9.10 -0.50  0.00  0.00  0.00        313
ZD67        7.570   1.000   P
ZD67       13.500   1.000   S
ZD64       11.890   1.000   P
ZD64       20.770   1.000   S
ZD75        9.140   1.000   P
ZD75       15.910   1.000   S
ZD74        5.040   1.000   P
ZD74        8.000   1.000   S
# 2019  9 11  4  1 39.53  27.1388  103.2837    9.70 1.10  0.00  0.00  0.00        314
ZD80        9.560   1.000   P
ZD80       17.130   1.000   S
ZD76       11.600   1.000   P
ZD76       19.960   1.000   S
ZD71       13.180   1.000   P
ZD71       22.600   1.000   S
ZD79       10.690   1.000   P
ZD79       18.190   1.000   S
# 2019  9 11 21  6 58.05  27.3763  102.3428   26.60 -1.00  0.00  0.00  0.00        315
ZD76        5.020   1.000   P
ZD76        7.810   1.000   S
ZD70        4.880   1.000   P
ZD70        7.530   1.000   S
ZD67        5.630   1.000   P
ZD67        8.610   1.000   S
ZD75        5.330   1.000   P
ZD75        7.450   1.000   S
# 2019  9 11  3 30 46.14  27.1283  102.0930    5.10 -0.60  0.00  0.00  0.00        316
ZD67        6.380   1.000   P
ZD67       12.230   1.000   S
ZD74        3.900   1.000   P
ZD74        7.100   1.000   S
ZD70        9.810   1.000   P
ZD70       16.920   1.000   S
ZD69        7.130   1.000   P
ZD69       12.120   1.000   S
# 2019  9 11 19 37 59.12  27.1888  102.0217    6.50 -0.60  0.00  0.00  0.00        317
ZD74        5.120   1.000   P
ZD74        9.340   1.000   S
ZD67        5.250   1.000   P
ZD67        8.960   1.000   S
ZD70       10.040   1.000   P
ZD70       17.100   1.000   S
ZD79        9.360   1.000   P
ZD79       15.670   1.000   S
# 2019  9 12 12 18 30.86  27.4965  102.7023   18.30 0.10  0.00  0.00  0.00        318
ZD67       11.490   1.000   P
ZD67       21.250   1.000   S
ZD69        6.520   1.000   P
ZD69       11.590   1.000   S
ZD75        5.040   1.000   P
ZD75        8.650   1.000   S
ZD77        7.920   1.000   P
ZD77       13.530   1.000   S
ZD64        5.760   1.000   P
ZD64        9.340   1.000   S
ZD79        5.650   1.000   P
ZD79        8.730   1.000   S
ZD70        4.250   1.000   P
ZD70        6.120   1.000   S
# 2019  9 13  1 45 57.35  27.0193  102.8057   10.40 0.00  0.00  0.00  0.00        319
ZD76        6.510   1.000   P
ZD76       11.360   1.000   S
ZD70        9.500   1.000   P
ZD70       16.370   1.000   S
ZD64       12.670   1.000   P
ZD64       21.870   1.000   S
ZD56       19.730   1.000   P
ZD56       32.870   1.000   S
# 2019  9 15 11 46 52.10  26.9668  102.7857    9.30 -0.50  0.00  0.00  0.00        320
ZD81        5.540   1.000   P
ZD81        9.910   1.000   S
ZD70       11.020   1.000   P
ZD70       19.080   1.000   S
ZD76        7.370   1.000   P
ZD76       12.670   1.000   S
ZD80        3.280   1.000   P
ZD80        5.530   1.000   S
ZD71       10.710   1.000   P
ZD71       18.130   1.000   S
# 2019  9 16 22 44  4.87  27.0122  102.7987   16.30 0.30  0.00  0.00  0.00        321
ZD71        9.780   1.000   P
ZD71       17.750   1.000   S
ZD70        9.800   1.000   P
ZD70       17.670   1.000   S
ZD74        8.830   1.000   P
ZD74       15.630   1.000   S
ZD80        2.950   1.000   P
ZD80        5.320   1.000   S
ZD77        6.020   1.000   P
ZD77       10.500   1.000   S
ZD75        8.210   1.000   P
ZD75       14.230   1.000   S
ZD81        4.830   1.000   P
ZD81        8.350   1.000   S
ZD79        4.480   1.000   P
ZD79        7.640   1.000   S
ZD73        9.410   1.000   P
ZD73       15.960   1.000   S
ZD67       14.660   1.000   P
ZD67       24.820   1.000   S
ZD69       10.950   1.000   P
ZD69       18.080   1.000   S
# 2019  9 17  4 31 40.72  27.0278  102.0283    9.50 -0.50  0.00  0.00  0.00        322
ZD70       11.420   1.000   P
ZD70       21.180   1.000   S
ZD67        8.080   1.000   P
ZD67       13.970   1.000   S
ZD69        8.710   1.000   P
ZD69       14.010   1.000   S
ZD64       12.550   1.000   P
ZD64       20.380   1.000   S
# 2019  9 18  3  1 53.35  27.3792  102.7657   16.30 -0.60  0.00  0.00  0.00        323
ZD73        6.310   1.000   P
ZD73       11.270   1.000   S
ZD75        5.170   1.000   P
ZD75        9.140   1.000   S
ZD81        3.660   1.000   P
ZD81        5.610   1.000   S
ZD80        5.140   1.000   P
ZD80        7.990   1.000   S
ZD70        4.340   1.000   P
ZD70        5.960   1.000   S
ZD79        5.030   1.000   P
ZD79        6.790   1.000   S
# 2019  9 18 18 36 45.69  27.3278  102.7942   26.10 -1.10  0.00  0.00  0.00        324
ZD76        4.410   1.000   P
ZD76        7.990   1.000   S
ZD79        4.940   1.000   P
ZD79        7.960   1.000   S
ZD80        5.270   1.000   P
ZD80        7.930   1.000   S
ZD74        8.720   1.000   P
ZD74       13.420   1.000   S
# 2019  9 19 11 38 43.06  27.2545  102.6465   24.40 -0.10  0.00  0.00  0.00        325
ZD64       10.470   1.000   P
ZD64       19.990   1.000   S
ZD76        1.810   1.000   P
ZD76        3.920   1.000   S
ZD70        5.240   1.000   P
ZD70        9.490   1.000   S
ZD77        3.500   1.000   P
ZD77        6.370   1.000   S
ZD79        3.290   1.000   P
ZD79        5.860   1.000   S
ZD71        5.530   1.000   P
ZD71        9.700   1.000   S
ZD75        3.910   1.000   P
ZD75        6.850   1.000   S
ZD69        7.650   1.000   P
ZD69       12.740   1.000   S
# 2019  9 19  7 37 55.88  27.0570  102.5587   26.00 -0.80  0.00  0.00  0.00        326
ZD73        6.840   1.000   P
ZD73       11.780   1.000   S
ZD80        4.100   1.000   P
ZD80        7.020   1.000   S
ZD74        5.330   1.000   P
ZD74        7.850   1.000   S
ZD76        5.610   1.000   P
ZD76        7.970   1.000   S
# 2019  9 19  7 12 31.11  27.4163  102.4368   23.00 -0.80  0.00  0.00  0.00        327
ZD69        3.450   1.000   P
ZD69        5.870   1.000   S
ZD75        3.660   1.000   P
ZD75        5.950   1.000   S
ZD64        4.590   1.000   P
ZD64        6.750   1.000   S
ZD76        4.470   1.000   P
ZD76        5.710   1.000   S
# 2019  9 19  7 37 58.39  27.4580  102.3627   30.40 -0.40  0.00  0.00  0.00        328
ZD64        5.060   1.000   P
ZD64        8.450   1.000   S
ZD69        4.340   1.000   P
ZD69        5.750   1.000   S
ZD68        4.580   1.000   P
ZD68        6.110   1.000   S
ZD70        4.550   1.000   P
ZD70        5.770   1.000   S
# 2019  9 20 14 33 32.11  27.0915  102.9302   13.70 -0.40  0.00  0.00  0.00        330
ZD78        1.300   1.000   P
ZD78        2.660   1.000   S
ZD80        4.130   1.000   P
ZD80        7.060   1.000   S
ZD79        5.330   1.000   P
ZD79        8.890   1.000   S
ZD70        9.970   1.000   P
ZD70       16.600   1.000   S
ZD76        7.950   1.000   P
ZD76       11.840   1.000   S
# 2019  9 21  1 17 42.60  27.2782  102.8198   15.80 -0.70  0.00  0.00  0.00        331
ZD80        4.100   1.000   P
ZD80        7.270   1.000   S
ZD81        1.950   1.000   P
ZD81        3.530   1.000   S
ZD76        3.970   1.000   P
ZD76        6.880   1.000   S
ZD75        5.700   1.000   P
ZD75        9.760   1.000   S
ZD79        3.680   1.000   P
ZD79        6.240   1.000   S
ZD71        5.900   1.000   P
ZD71        9.950   1.000   S
# 2019  9 21 16 50  6.50  27.4333  102.7972    5.10 -0.70  0.00  0.00  0.00        332
ZD81        3.840   1.000   P
ZD81        7.140   1.000   S
ZD71        3.670   1.000   P
ZD71        6.620   1.000   S
ZD70        5.190   1.000   P
ZD70        9.240   1.000   S
ZD76        3.910   1.000   P
ZD76        7.010   1.000   S
ZD79        5.570   1.000   P
ZD79        9.170   1.000   S
ZD80        7.220   1.000   P
ZD80       11.480   1.000   S
# 2019  9 22 22 18 49.32  27.7592  102.1023   20.70 0.50  0.00  0.00  0.00        333
ZD58        3.340   1.000   P
ZD58        6.310   1.000   S
ZD70        9.110   1.000   P
ZD70       16.300   1.000   S
ZD63        3.930   1.000   P
ZD63        7.240   1.000   S
ZD56        3.000   1.000   P
ZD56        5.510   1.000   S
ZD71        9.680   1.000   P
ZD71       17.080   1.000   S
ZD76       11.980   1.000   P
ZD76       21.050   1.000   S
ZD67        6.390   1.000   P
ZD67       11.310   1.000   S
ZD68        6.410   1.000   P
ZD68       11.280   1.000   S
ZD64        6.360   1.000   P
ZD64       11.190   1.000   S
ZD69        7.630   1.000   P
ZD69       13.380   1.000   S
ZD75       10.380   1.000   P
ZD75       18.120   1.000   S
ZD74       11.340   1.000   P
ZD74       19.710   1.000   S
ZD59        4.370   1.000   P
ZD59        7.600   1.000   S
ZD73        9.690   1.000   P
ZD73       16.820   1.000   S
ZD81       15.880   1.000   P
ZD81       26.980   1.000   S
ZD80       16.400   1.000   P
ZD80       27.140   1.000   S
# 2019  9 22  9 33 30.02  27.3882  102.7328    8.70 0.10  0.00  0.00  0.00        334
ZD71        3.250   1.000   P
ZD71        6.100   1.000   S
ZD70        4.170   1.000   P
ZD70        7.480   1.000   S
ZD81        3.670   1.000   P
ZD81        6.560   1.000   S
ZD77        4.620   1.000   P
ZD77        8.100   1.000   S
ZD79        4.110   1.000   P
ZD79        7.160   1.000   S
ZD76        2.730   1.000   P
ZD76        4.710   1.000   S
ZD80        5.740   1.000   P
ZD80        9.800   1.000   S
ZD69        7.030   1.000   P
ZD69       11.840   1.000   S
ZD75        4.280   1.000   P
ZD75        6.970   1.000   S
ZD74        8.540   1.000   P
ZD74       14.000   1.000   S
ZD64        7.960   1.000   P
ZD64       12.440   1.000   S
