# 2023 10 24  2 51 30.00  39.2660   97.2960   10.00 2.40  0.00  0.00  0.00          3
QTS         9.850   1.000   P
QTS        17.390   1.000   S
JYG        16.250   1.000   P
JYG        27.760   1.000   S
SBC        21.690   1.000   P
SBC        39.020   1.000   S
# 2023 10 24  3 57 16.70  39.1980   97.3520   15.00 2.10  0.00  0.00  0.00          4
QTS        10.390   1.000   P
QTS        17.660   1.000   S
CHM        14.120   1.000   P
CHM        24.600   1.000   S
# 2023 10 24 11 32 13.80  39.3730   97.2940   15.00 5.30  0.00  0.00  0.00          6
QTS         7.250   1.000   P
QTS        15.630   1.000   S
CHM        10.950   1.000   P
CHM        21.260   1.000   S
JYG        13.650   1.000   P
JYG        25.620   1.000   S
SBC        19.020   1.000   P
SBC        36.530   1.000   S
JFS        18.140   1.000   P
JFS        36.110   1.000   S
AXX        26.100   1.000   P
AXX        48.070   1.000   S
# 2023 10 24 11 42 37.60  39.2430   97.2590   15.00 2.80  0.00  0.00  0.00          7
QTS        10.060   1.000   P
QTS        18.490   1.000   S
CHM        13.140   1.000   P
CHM        22.890   1.000   S
JYG        16.800   1.000   P
JYG        28.220   1.000   S
# 2023 10 24 11 44 18.80  39.3730   97.3170   30.00 2.80  0.00  0.00  0.00          8
QTS         8.320   1.000   P
QTS        16.070   1.000   S
JYG        15.580   1.000   P
JYG        26.080   1.000   S
# 2023 10 24 11 48 17.40  39.2310   97.2920   15.00 2.10  0.00  0.00  0.00          9
QTS        10.170   1.000   P
QTS        17.940   1.000   S
# 2023 10 24 11 49 44.20  39.2330   97.3240   15.00 1.90  0.00  0.00  0.00         10
QTS         9.830   1.000   P
QTS        17.390   1.000   S
CHM        13.740   1.000   P
CHM        23.110   1.000   S
# 2023 10 24 11 51 56.30  39.2010   97.2920   15.00 2.00  0.00  0.00  0.00         11
CHM        13.990   1.000   P
CHM        23.590   1.000   S
# 2023 10 24 11 59 34.40  39.2650   97.3460   12.00 2.30  0.00  0.00  0.00         12
CHM        13.130   1.000   P
CHM        24.360   1.000   S
# 2023 10 24 12  3  5.00  39.3080   97.3670   36.00 1.90  0.00  0.00  0.00         13
QTS         8.850   1.000   P
QTS        17.240   1.000   S
# 2023 10 24 12  3 42.90  39.1650   97.2980   15.00 2.20  0.00  0.00  0.00         14
QTS        11.020   1.000   P
QTS        19.500   1.000   S
# 2023 10 24 12  4 22.10  39.2250   97.3100   15.00 2.50  0.00  0.00  0.00         15
QTS        10.060   1.000   P
QTS        17.850   1.000   S
YJZ        28.540   1.000   P
YJZ        48.330   1.000   S
# 2023 10 24 12  5 45.90  39.2790   97.2470   15.00 2.00  0.00  0.00  0.00         16
JYG        16.340   1.000   P
JYG        27.990   1.000   S
# 2023 10 24 12 12 45.30  39.2260   97.2870   15.00 2.50  0.00  0.00  0.00         18
QTS        10.140   1.000   P
QTS        18.120   1.000   S
CHM        13.330   1.000   P
CHM        23.540   1.000   S
YJZ        28.140   1.000   P
YJZ        48.230   1.000   S
# 2023 10 24 12 24  2.90  39.2000   97.3120   14.00 1.90  0.00  0.00  0.00         19
QTS        10.420   1.000   P
QTS        18.340   1.000   S
YJZ        28.790   1.000   P
YJZ        48.890   1.000   S
# 2023 10 24 12 35 33.20  39.2770   97.2570   12.00 2.60  0.00  0.00  0.00         20
QTS         9.520   1.000   P
QTS        17.360   1.000   S
JYG        15.950   1.000   P
JYG        27.420   1.000   S
JFS        20.440   1.000   P
JFS        36.280   1.000   S
# 2023 10 24 12 48 58.80  39.2560   97.2650   12.00 1.80  0.00  0.00  0.00         21
QTS        10.280   1.000   P
QTS        18.160   1.000   S
YJZ        28.630   1.000   P
YJZ        48.560   1.000   S
# 2023 10 24 12 54  4.60  39.3380   97.1890   10.00 1.60  0.00  0.00  0.00         22
QTS         9.870   1.000   P
QTS        17.630   1.000   S
# 2023 10 24 12 57 15.20  39.2240   97.2760   14.00 3.60  0.00  0.00  0.00         23
QTS        10.310   1.000   P
QTS        18.890   1.000   S
JYG        16.510   1.000   P
JYG        28.300   1.000   S
JFS        21.050   1.000   P
JFS        37.060   1.000   S
SBT        33.610   1.000   P
SBT        58.230   1.000   S
SNT        33.430   1.000   P
SNT        57.760   1.000   S
GTA        35.290   1.000   P
GTA        60.720   1.000   S
# 2023 10 24 13  5 26.10  39.3200   97.2840   15.00 1.60  0.00  0.00  0.00         24
QTS         9.370   1.000   P
QTS        16.230   1.000   S
JYG        16.990   1.000   P
JYG        26.610   1.000   S
YJZ        27.020   1.000   P
YJZ        46.870   1.000   S
# 2023 10 24 13 15 53.00  39.2740   97.2670   25.00 2.30  0.00  0.00  0.00         26
QTS        10.180   1.000   P
QTS        18.610   1.000   S
CHM        13.200   1.000   P
CHM        23.980   1.000   S
JYG        16.610   1.000   P
JYG        28.050   1.000   S
SBC        21.700   1.000   P
SBC        37.810   1.000   S
JFS        21.590   1.000   P
JFS        38.030   1.000   S
YJZ        28.260   1.000   P
YJZ        47.950   1.000   S
YWX        34.010   1.000   P
YWX        58.050   1.000   S
GTA        35.420   1.000   P
GTA        61.440   1.000   S
# 2023 10 24 13 21  9.00  39.3210   97.2960   24.00 2.00  0.00  0.00  0.00         27
QTS         8.550   1.000   P
QTS        16.290   1.000   S
CHM        11.830   1.000   P
CHM        23.910   1.000   S
JYG        15.200   1.000   P
JYG        26.730   1.000   S
SBC        19.910   1.000   P
SBC        36.210   1.000   S
JFS        20.750   1.000   P
JFS        36.210   1.000   S
YJZ        26.900   1.000   P
YJZ        46.920   1.000   S
SBT        34.150   1.000   P
SBT        56.680   1.000   S
# 2023 10 24 13 24  7.80  39.2970   97.3340   15.00 1.60  0.00  0.00  0.00         28
QTS         7.690   1.000   P
QTS        15.640   1.000   S
CHM        12.210   1.000   P
CHM        21.890   1.000   S
SBC        20.170   1.000   P
SBC        35.560   1.000   S
YJZ        26.210   1.000   P
YJZ        46.070   1.000   S
GTA        33.760   1.000   P
GTA        59.250   1.000   S
# 2023 10 24 13 27 49.40  39.1990   97.3310   15.00 1.60  0.00  0.00  0.00         29
QTS        10.350   1.000   P
QTS        18.240   1.000   S
YJZ        28.620   1.000   P
YJZ        48.600   1.000   S
# 2023 10 24 13 29 34.40  39.2940   97.2930   12.00 2.10  0.00  0.00  0.00         30
QTS         9.460   1.000   P
QTS        17.490   1.000   S
CHM        12.630   1.000   P
CHM        23.020   1.000   S
YJZ        27.770   1.000   P
YJZ        47.470   1.000   S
# 2023 10 24 13 43 30.90  39.2630   97.2800   11.00 1.50  0.00  0.00  0.00         31
QTS        10.040   1.000   P
QTS        17.760   1.000   S
# 2023 10 24 13 46 19.20  39.2860   97.2800   24.00 2.20  0.00  0.00  0.00         32
QTS        10.050   1.000   P
QTS        18.070   1.000   S
JFS        20.960   1.000   P
JFS        37.250   1.000   S
# 2023 10 24 14  3 32.50  39.2690   97.2690   31.00 1.90  0.00  0.00  0.00         33
QTS         9.170   1.000   P
QTS        17.980   1.000   S
CHM        12.580   1.000   P
CHM        22.300   1.000   S
JYG        16.530   1.000   P
JYG        27.320   1.000   S
SBC        20.380   1.000   P
SBC        36.520   1.000   S
YJZ        27.520   1.000   P
YJZ        46.890   1.000   S
# 2023 10 24 14  9 41.50  39.3220   97.3300   11.00 1.80  0.00  0.00  0.00         34
QTS         8.580   1.000   P
QTS        16.300   1.000   S
CHM        12.410   1.000   P
CHM        22.490   1.000   S
SBC        20.700   1.000   P
SBC        37.120   1.000   S
YJZ        26.920   1.000   P
YJZ        46.800   1.000   S
# 2023 10 24 14 13 32.60  39.2590   97.3440    6.00 2.00  0.00  0.00  0.00         35
QTS         8.910   1.000   P
QTS        16.850   1.000   S
CHM        13.390   1.000   P
CHM        23.930   1.000   S
SBC        20.900   1.000   P
SBC        38.010   1.000   S
YJZ        27.350   1.000   P
YJZ        47.420   1.000   S
# 2023 10 24 14 35  6.60  39.3640   97.4200    8.00 1.20  0.00  0.00  0.00         36
QTS         7.700   1.000   P
QTS        16.090   1.000   S
CHM        12.450   1.000   P
CHM        22.480   1.000   S
SBC        22.210   1.000   P
SBC        36.490   1.000   S
YJZ        26.000   1.000   P
YJZ        46.520   1.000   S
# 2023 10 24 14 48  0.30  39.1870   97.3800   15.00 1.50  0.00  0.00  0.00         37
QTS         9.900   1.000   P
QTS        17.930   1.000   S
CHM        15.080   1.000   P
CHM        25.000   1.000   S
YJZ        28.330   1.000   P
YJZ        48.080   1.000   S
# 2023 10 24 14 52 57.30  39.2070   97.3080   11.00 2.70  0.00  0.00  0.00         38
QTS        10.680   1.000   P
QTS        18.780   1.000   S
CHM        14.380   1.000   P
CHM        24.830   1.000   S
YJZ        28.830   1.000   P
YJZ        49.140   1.000   S
# 2023 10 24 14 54 54.30  39.1990   97.3270   15.00 2.30  0.00  0.00  0.00         39
QTS         9.800   1.000   P
QTS        18.250   1.000   S
CHM        14.410   1.000   P
CHM        24.020   1.000   S
YJZ        28.400   1.000   P
YJZ        48.330   1.000   S
# 2023 10 24 15 12 46.70  39.1600   97.3670   26.00 1.10  0.00  0.00  0.00         41
QTS        11.540   1.000   P
QTS        20.080   1.000   S
CHM        16.130   1.000   P
CHM        27.220   1.000   S
YJZ        28.800   1.000   P
YJZ        49.390   1.000   S
# 2023 10 24 15 40 25.80  39.2380   97.3630   15.00 1.50  0.00  0.00  0.00         42
QTS         9.380   1.000   P
QTS        16.880   1.000   S
CHM        13.960   1.000   P
CHM        23.400   1.000   S
# 2023 10 24 15 49 53.70  39.2820   97.2730   15.00 3.20  0.00  0.00  0.00         43
QTS         9.680   1.000   P
QTS        18.230   1.000   S
CHM        12.810   1.000   P
CHM        23.020   1.000   S
JYG        15.970   1.000   P
JYG        28.120   1.000   S
SBC        20.420   1.000   P
SBC        38.010   1.000   S
SBT        34.790   1.000   P
SBT        57.250   1.000   S
YWX        34.310   1.000   P
YWX        57.450   1.000   S
GTA        34.870   1.000   P
GTA        61.370   1.000   S
# 2023 10 24 16 35 36.80  39.2400   97.3520   15.00 1.60  0.00  0.00  0.00         44
QTS         9.480   1.000   P
QTS        16.880   1.000   S
CHM        13.660   1.000   P
CHM        23.180   1.000   S
YJZ        27.500   1.000   P
YJZ        47.570   1.000   S
# 2023 10 24 16 46 27.10  39.2780   97.3590   18.00 1.60  0.00  0.00  0.00         45
QTS         9.750   1.000   P
QTS        16.640   1.000   S
CHM        12.860   1.000   P
CHM        24.130   1.000   S
YJZ        27.740   1.000   P
YJZ        46.750   1.000   S
# 2023 10 24 16 56  6.90  39.2640   97.2580   12.00 3.10  0.00  0.00  0.00         46
QTS        10.270   1.000   P
QTS        18.520   1.000   S
JYG        16.480   1.000   P
JYG        28.240   1.000   S
JFS        20.850   1.000   P
JFS        37.150   1.000   S
YJZ        28.230   1.000   P
YJZ        48.500   1.000   S
AXX        28.780   1.000   P
AXX        49.770   1.000   S
YWX        34.350   1.000   P
YWX        58.190   1.000   S
SNT        34.310   1.000   P
SNT        58.450   1.000   S
# 2023 10 24 17  8 15.80  39.2730   97.3590   13.00 2.30  0.00  0.00  0.00         47
QTS         8.690   1.000   P
QTS        16.480   1.000   S
CHM        13.040   1.000   P
CHM        23.850   1.000   S
JYG        15.730   1.000   P
JYG        26.940   1.000   S
# 2023 10 24 17 26  9.00  39.2440   97.3320   15.00 1.60  0.00  0.00  0.00         48
QTS         9.950   1.000   P
QTS        16.960   1.000   S
YJZ        27.810   1.000   P
YJZ        47.590   1.000   S
YWX        33.800   1.000   P
YWX        57.860   1.000   S
# 2023 10 24 17 33 41.00  39.2490   97.3140   12.00 2.60  0.00  0.00  0.00         49
QTS         9.860   1.000   P
QTS        17.700   1.000   S
CHM        13.750   1.000   P
CHM        23.750   1.000   S
JYG        16.010   1.000   P
JYG        27.870   1.000   S
# 2023 10 24 17 43  4.60  39.2130   97.2700   11.00 1.50  0.00  0.00  0.00         50
QTS        11.020   1.000   P
QTS        19.210   1.000   S
# 2023 10 24 17 59 10.30  39.2010   97.3970   12.00 1.60  0.00  0.00  0.00         51
QTS         9.950   1.000   P
QTS        18.410   1.000   S
YJZ        27.930   1.000   P
YJZ        47.850   1.000   S
# 2023 10 24 18 27  4.70  39.1240   97.3580   12.00 1.70  0.00  0.00  0.00         52
QTS        10.990   1.000   P
QTS        20.060   1.000   S
CHM        16.140   1.000   P
CHM        26.590   1.000   S
YJZ        29.340   1.000   P
YJZ        49.650   1.000   S
# 2023 10 24 18 43 20.40  39.2820   97.3040   25.00 2.10  0.00  0.00  0.00         53
QTS         9.210   1.000   P
QTS        17.730   1.000   S
CHM        13.150   1.000   P
CHM        23.360   1.000   S
JYG        17.450   1.000   P
JYG        27.760   1.000   S
SBC        20.280   1.000   P
SBC        38.400   1.000   S
JFS        20.060   1.000   P
JFS        35.860   1.000   S
YJZ        27.630   1.000   P
YJZ        47.680   1.000   S
# 2023 10 24 18 44 27.70  39.3510   97.4140   13.00 1.70  0.00  0.00  0.00         54
QTS         8.120   1.000   P
QTS        16.210   1.000   S
CHM        12.230   1.000   P
CHM        22.870   1.000   S
SBC        20.740   1.000   P
SBC        37.020   1.000   S
# 2023 10 24 19 14 56.60  39.3340   97.3030   20.00 2.00  0.00  0.00  0.00         55
QTS         8.690   1.000   P
QTS        16.450   1.000   S
JYG        15.760   1.000   P
JYG        26.890   1.000   S
JFS        20.570   1.000   P
JFS        36.650   1.000   S
YJZ        26.960   1.000   P
YJZ        46.670   1.000   S
# 2023 10 24 19 21 40.90  39.3100   97.3290   13.00 1.80  0.00  0.00  0.00         56
QTS         8.550   1.000   P
QTS        16.500   1.000   S
CHM        12.850   1.000   P
CHM        22.400   1.000   S
SBC        20.200   1.000   P
SBC        38.200   1.000   S
YJZ        26.900   1.000   P
YJZ        46.240   1.000   S
# 2023 10 24 19 28 32.80  39.2000   97.3350   12.00 1.30  0.00  0.00  0.00         57
QTS        10.090   1.000   P
QTS        18.470   1.000   S
CHM        14.490   1.000   P
CHM        25.200   1.000   S
YJZ        28.640   1.000   P
YJZ        48.420   1.000   S
# 2023 10 24 19 29 17.60  39.2850   97.3230   22.00 1.70  0.00  0.00  0.00         58
QTS         9.090   1.000   P
QTS        17.260   1.000   S
CHM        13.550   1.000   P
CHM        23.440   1.000   S
SBC        20.690   1.000   P
SBC        38.000   1.000   S
YJZ        27.430   1.000   P
YJZ        47.350   1.000   S
# 2023 10 24 19 33 59.50  39.4140   97.2320   14.00 3.60  0.00  0.00  0.00         59
QTS         7.350   1.000   P
QTS        15.310   1.000   S
JYG        13.600   1.000   P
JYG        25.360   1.000   S
YJZ        25.400   1.000   P
YJZ        45.510   1.000   S
# 2023 10 24 19 36 37.30  39.2640   97.2910   24.00 3.20  0.00  0.00  0.00         60
QTS        10.160   1.000   P
QTS        18.320   1.000   S
CHM        13.450   1.000   P
CHM        24.290   1.000   S
JYG        16.360   1.000   P
JYG        28.160   1.000   S
YJZ        28.130   1.000   P
YJZ        48.270   1.000   S
AXX        29.460   1.000   P
AXX        51.010   1.000   S
# 2023 10 24 19 47 39.80  39.2460   97.3020   11.00 1.10  0.00  0.00  0.00         61
QTS         9.870   1.000   P
QTS        18.050   1.000   S
CHM        13.510   1.000   P
CHM        23.680   1.000   S
YJZ        28.210   1.000   P
YJZ        48.270   1.000   S
# 2023 10 24 19 54  8.80  39.1950   97.2480   11.00 1.20  0.00  0.00  0.00         62
QTS        11.510   1.000   P
QTS        19.820   1.000   S
YJZ        29.950   1.000   P
YJZ        49.770   1.000   S
# 2023 10 24 20 52 26.30  39.2600   97.2840   12.00 2.50  0.00  0.00  0.00         63
QTS         9.740   1.000   P
QTS        17.480   1.000   S
YJZ        28.100   1.000   P
YJZ        47.730   1.000   S
# 2023 10 24 20 52 50.90  39.2320   97.3170   14.00 3.50  0.00  0.00  0.00         64
QTS         9.420   1.000   P
QTS        17.420   1.000   S
CHM        13.550   1.000   P
CHM        23.570   1.000   S
JYG        15.570   1.000   P
JYG        27.230   1.000   S
SBC        20.540   1.000   P
SBC        37.930   1.000   S
JFS        20.390   1.000   P
JFS        36.160   1.000   S
YJZ        27.750   1.000   P
YJZ        47.980   1.000   S
YWX        33.770   1.000   P
YWX        58.170   1.000   S
GTA        34.210   1.000   P
GTA        59.900   1.000   S
# 2023 10 24 21 27  6.60  39.3160   97.3100   12.00 1.80  0.00  0.00  0.00         65
QTS         8.730   1.000   P
QTS        16.120   1.000   S
# 2023 10 24 21 45  8.30  39.2030   97.2960   10.00 1.10  0.00  0.00  0.00         66
QTS        10.700   1.000   P
QTS        18.980   1.000   S
# 2023 10 24 21 51 14.00  39.2230   97.2720   15.00 1.70  0.00  0.00  0.00         67
QTS        10.200   1.000   P
QTS        18.440   1.000   S
YJZ        28.180   1.000   P
YJZ        49.050   1.000   S
# 2023 10 24 22 34 42.80  39.3320   97.3240   12.00 1.50  0.00  0.00  0.00         68
QTS         8.430   1.000   P
QTS        16.120   1.000   S
CHM        12.350   1.000   P
CHM        21.950   1.000   S
# 2023 10 24 22 39 47.30  39.4090   97.3280   25.00 1.60  0.00  0.00  0.00         69
QTS         7.920   1.000   P
QTS        15.380   1.000   S
# 2023 10 24 22 57 19.10  39.2200   97.3380   15.00 1.40  0.00  0.00  0.00         70
QTS        10.070   1.000   P
QTS        17.630   1.000   S
# 2023 10 24 23 19 16.80  39.3500   97.2810   29.00 2.50  0.00  0.00  0.00         71
QTS         9.070   1.000   P
QTS        16.950   1.000   S
CHM        12.300   1.000   P
CHM        22.090   1.000   S
JYG        15.450   1.000   P
JYG        27.390   1.000   S
# 2023 10 25  0 28 26.10  39.2670   97.2750   18.00 3.40  0.00  0.00  0.00         72
QTS        10.340   1.000   P
QTS        17.900   1.000   S
CHM        13.480   1.000   P
CHM        23.420   1.000   S
JYG        16.650   1.000   P
JYG        28.050   1.000   S
# 2023 10 25  0 43 57.00  39.2220   97.2520   12.00 1.90  0.00  0.00  0.00         73
QTS        10.910   1.000   P
QTS        19.200   1.000   S
CHM        14.120   1.000   P
CHM        23.640   1.000   S
# 2023 10 25  0 57 27.60  39.3800   97.2690   11.00 2.60  0.00  0.00  0.00         74
QTS         8.620   1.000   P
QTS        16.000   1.000   S
JYG        14.900   1.000   P
JYG        26.360   1.000   S
SBC        19.840   1.000   P
SBC        36.160   1.000   S
# 2023 10 25  1 13 17.20  39.2580   97.3040   15.00 2.70  0.00  0.00  0.00         75
QTS         9.600   1.000   P
QTS        17.450   1.000   S
CHM        12.700   1.000   P
CHM        22.570   1.000   S
JYG        15.590   1.000   P
JYG        27.400   1.000   S
# 2023 10 25  1 44 10.00  39.2370   97.3320   15.00 2.40  0.00  0.00  0.00         76
QTS         9.380   1.000   P
QTS        17.300   1.000   S
CHM        13.540   1.000   P
CHM        23.560   1.000   S
JYG        15.540   1.000   P
JYG        27.570   1.000   S
YJZ        27.740   1.000   P
YJZ        47.390   1.000   S
# 2023 10 25  1 55  3.30  39.3390   97.3080   10.00 1.80  0.00  0.00  0.00         77
QTS         8.160   1.000   P
QTS        15.580   1.000   S
JYG        15.820   1.000   P
JYG        26.280   1.000   S
YJZ        26.500   1.000   P
YJZ        46.340   1.000   S
# 2023 10 25  2  4 12.10  39.1890   97.3440   15.00 1.50  0.00  0.00  0.00         78
QTS        10.400   1.000   P
QTS        18.340   1.000   S
CHM        14.650   1.000   P
CHM        24.580   1.000   S
# 2023 10 25  2 35 25.00  39.2390   97.3110   11.00 1.40  0.00  0.00  0.00         79
QTS        10.030   1.000   P
QTS        17.880   1.000   S
# 2023 10 25  2 38 12.20  39.2840   97.3040   10.00 1.70  0.00  0.00  0.00         80
QTS         9.440   1.000   P
QTS        16.870   1.000   S
# 2023 10 25  2 43  9.60  39.2310   97.2780   11.00 1.50  0.00  0.00  0.00         81
QTS        10.520   1.000   P
QTS        18.590   1.000   S
CHM        13.800   1.000   P
CHM        23.790   1.000   S
# 2023 10 25  4 41 44.30  39.1850   97.2640   15.00 1.80  0.00  0.00  0.00         82
QTS        11.360   1.000   P
QTS        19.540   1.000   S
